NAME_LOC,NAME_EN,TYPE,TYPECODE,SUBTYPE,LEVEL,LEVELCODE,POSTCODE,ADDRESS_LOC,ADDRESS_EN,CITY_LOC,CITY_EN,FOCAL_PERSON_LOC,FOCAL_PERSON_EN,TELEPHONE,EMAIL,WEBSITE,SOURCE_EN,SOURCE_LOC,LATITUDE,LONGITUDE,ISO3,COUNTRY,NATIONAL_SOCIETY,GOLOCALUNITID,NSLOCALUNITID,DATEOFUPDATE,VALIDATED,PUBLICVIEW
Cruz Vermelha - Órgão Central HQ,,Administrative,1,Office,Head Office,0,20230-130,"Praça Cruz Vermelha N° 10-12, Centro, Rio de Janeiro - RJ",,Rio de Janeiro - RJ,,Thiago Quintaneiro,,55 (21) 2507-3577 / 2507-3392,secretario.cooperacao@cvb.org.br,http://www.cruzvermelha.org.br/,,Brazilian Red Cross,-22.91111111,-43.1875,BRA,Brazil,Brazilian Red Cross,,,7-Feb-24,Yes,Yes
Cruz Vermelha - Órgão Central HQ - Brasília,,Administrative,1,Office,Head Office,0,70300-910,"Setor Comercial Sul (SCS), quadra 6, bloco A, nº 157, salas 502 e 503 - Edifício Bandeirantes, Asa Sul, Brasília-DF  ",,Brasília - DF,,Lourenço Braga,,55 (61) 99909-0761,secretario.geral@cvb.org.br,http://www.cruzvermelha.org.br/,,Brazilian Red Cross,-15.79638889,-47.88972222,BRA,Brazil,Brazilian Red Cross,,,7-Feb-24,Yes,Yes
Filial Alagoas,,Administrative,1,Office,Provincial,1,57035-530,"Av. Com. Gustavo de Paiva, 2889 - Mangabeiras, Maceió - AL",,Alagoas - AL,,Agarina Mendonça,,55 (82) 3325-2430,diretoria@cvbal.org.br,https://www.cruzvermelha.org.br/pb/filiais/alagoas/,,Brazilian Red Cross,-9.64777778,-35.71611111,BRA,Brazil,Brazilian Red Cross,,,7-Feb-24,Yes,Yes
Filial Amapá,,Administrative,1,Office,Provincial,1,68902-030,"R. Jovino Dinoa, 3868, Centro, Macapá - AP",,Amapá - AP,,Ana Célia Trindade,,55 (96) 99111-6656,cvbap@cvb.org.br,https://www.cruzvermelha.org.br/pb/tag/amapa/,,Brazilian Red Cross,0.01722222,-51.06138889,BRA,Brazil,Brazilian Red Cross,,,7-Feb-24,Yes,Yes
Filial Amazonas,,Administrative,1,Office,Provincial,1,69400-220,"Avenida Getulio Vargas, 381 - Centro, Manaus - AM",,Manaus - AM,,Mário Aníbal Gomes,,55 (92) 988551-3484,secretaria@cvbam.org,http://www.cruzvermelha.org.br/products/amazonas/,,Brazilian Red Cross,-3.13194444,-60.02083333,BRA,Brazil,Brazilian Red Cross,,,7-Feb-24,Yes,Yes
Filial Bahia,,Administrative,1,Office,Provincial,1,41100-800,"Av. Tancredo Neve, 1632, Caminho das Arvores, Salvador - BA",,Salvador - BA,,Eduardo Umbelino,,55 (71) 98105-0519,secretaria@cvbba.org.br,http://www.cruzvermelha.org.br/products/bahia/,,Brazilian Red Cross,-12.97916667,-38.45194444,BRA,Brazil,Brazilian Red Cross,,,7-Feb-24,Yes,Yes
Filial Ceará,,Administrative,1,Office,Provincial,1,60115-280,"Rua José Lourenço,3.280 Aldeota, Fortaleza - CE",,Fortaleza - CE,,Allan Gerson,,55 (85) 3182-3441,presidente@cvbce.com.br,http://www.cruzvermelha.org.br/products/ceara/,,Brazilian Red Cross,-3.73666667,-38.50833333,BRA,Brazil,Brazilian Red Cross,,,7-Feb-24,Yes,Yes
Filial Distrito Federal,,Administrative,1,Office,Provincial,1,70750-557,"SCLRN 715, Bloco C , Loja 25, Asa Norte, Brasília - DF",,Brasília - DF,,Ellen Marta,,55 (61) 3361-6904,secretaria@cvbb.org.br,http://www.cruzvermelha.org.br/products/distrito-federal/,,Brazilian Red Cross,-15.74361111,-47.89805556,BRA,Brazil,Brazilian Red Cross,,,7-Feb-24,Yes,Yes
Filial Maranhão,,Administrative,1,Office,Provincial,1,65036-170,"Av. Getúlio Vargas, 47 - Fabril, São Luis - MA",,São Luiz - MA,,Carlos Alberto,,55 (98) 3249-9712,presidencia.ma@cvb.org.br,http://www.cruzvermelha.org.br/products/maranhao/,,Brazilian Red Cross,-2.535,-44.27777778,BRA,Brazil,Brazilian Red Cross,,,7-Feb-24,Yes,Yes
Filial Mato Grosso,,Administrative,1,Office,Provincial,1,78055-000,"Av. Historiador Rubens de Mendonça, 5925, CPA I, Cuiabá - MT",,Cuiabá - MT,,Marcos Divino,,55 (65) 3641-2629,presidencia.mt@cvb.org.br,http://www.cruzvermelha.org.br/products/mato-grosso/,,Brazilian Red Cross,-15.55166667,-56.05527778,BRA,Brazil,Brazilian Red Cross,,,7-Feb-24,Yes,Yes
Filial Mato Grosso do Sul,,Administrative,1,Office,Provincial,1,79071-310,"Rua Barão de Melgaço, 58, Centro, Campo Grande - MS",,Campo Grande - MS,,Aline Jussara,,55 (67) 99894-6999,presidencia@cruzvermelhams.org.br,http://www.cruzvermelha.org.br/products/mato-grosso-do-sul/,,Brazilian Red Cross,-20.4675,-54.61277778,BRA,Brazil,Brazilian Red Cross,,,7-Feb-24,Yes,Yes
Filial Minas Gerais,,Administrative,1,Office,Provincial,1,30130-100,"Alameda Ezequiel Dias, 427- Centro, Belo Horizonte - MG",,Belo Horizonte - MG,,Ricardo Márcio,,55 (31) 3226-4233,presidencia.mg@cvb.org.br,http://www.cruzvermelha.org.br/products/minas-gerais/,,Brazilian Red Cross,-19.92611111,-43.93194444,BRA,Brazil,Brazilian Red Cross,,,7-Feb-24,Yes,Yes
Filial Pará,,Administrative,1,Office,Provincial,1,66095-494,"Travessa Baríão do Triunfo. Passagem Nossa Senhora das Graças, 58, Marco, Belém - PA",,Belém - PA,,Isaías Oscar,,55 (91) 3226-2556,presidente.cvbpa@cvb.org.br,http://www.cruzvermelha.org.br/products/para/,,Brazilian Red Cross,-1.45527778,-48.49333333,BRA,Brazil,Brazilian Red Cross,,,7-Feb-24,Yes,Yes
Filial Paraná,,Administrative,1,Office,Provincial,1,85812-010,"Rua Vicente Machado, 1.310, Centro, Curitiba - PR",,Curitiba - PR,,Leonardo Hanrique,,55 (41) 3016-6622,presidencia.pr@cvb.org.br,http://www.cruzvermelha.org.br/products/parana/,,Brazilian Red Cross,-25.43694444,-49.28944444,BRA,Brazil,Brazilian Red Cross,,,7-Feb-24,Yes,Yes
Filial Rio de Janeiro,,Administrative,1,Office,Provincial,1,20230-130,"Praça Cruz Vermelha N° 10-12, Centro, Rio de Janeiro - RJ",,Rio de Janeiro - RJ,,Flávia Aires,,55 (21) 96746-4448,compliance@cruzvermelharj.org.br,https://www.cruzvermelha.org.br/pb/filiais/rio-de-janeiro/,,Brazilian Red Cross,-22.91111111,-43.1875,BRA,Brazil,Brazilian Red Cross,,,7-Feb-24,Yes,Yes
Filial Rio Grande do Norte,,Administrative,1,Office,Provincial,1,59025-001,"Rua Dr. Manoel Augusto Bezerra de Araújo, 77, Ponta Negra, Natal - RN",,Natal - RN,,Kelyson de Lima ,,55 (84) 3201-6400,presidencia@cvbrn.org,http://www.cruzvermelha.org.br/products/rio-grande-do-norte/,,Brazilian Red Cross,-5.88194444,-35.1775,BRA,Brazil,Brazilian Red Cross,,,7-Feb-24,Yes,Yes
Filial Rio Grande do Sul,,Administrative,1,Office,Provincial,1,90035-077,"Av. Independência, 993, Independência, Porto Alegre - RS",,Porto Alegre - RS,,Pedro Moura ,,55 (21) 97492-9833,pedro.moura@cruzvermelharj.org.br,http://www.cruzvermelha.org.br/products/rio-grande-do-sul/,,Brazilian Red Cross,-30.02944444,-51.21111111,BRA,Brazil,Brazilian Red Cross,,,7-Feb-24,Yes,Yes
Filial Santa Catarina,,Administrative,1,Office,Provincial,1,88070-100,"Rua Santos Saraiva, 821, Estreito, Florianópolis - SC",,Florianópolis - SC,,Luiz Antônio ,,55 (48) 3244-6681,presidencia.sc@cvb.org.br,http://www.cruzvermelha.org.br/products/santa-catarina/,,Brazilian Red Cross,-27.59527778,-48.5825,BRA,Brazil,Brazilian Red Cross,,,7-Feb-24,Yes,Yes
Filial Sao Paulo,,Administrative,1,Office,Provincial,1,04074-031,"Av. Moreira Guimaríes, 699, Indianópolis, São Paulo - SP",,São Paulo - SP,,Jorge Wolney,,55 (11) 5056-8666,presidencia.sp@cvb.org.br,http://www.cruzvermelha.org.br/products/sao-paulo/,,Brazilian Red Cross,-23.6125,-46.65666667,BRA,Brazil,Brazilian Red Cross,,,7-Feb-24,Yes,Yes
Filial Sergipe,,Administrative,1,Office,Provincial,1,49015-130,"Praça Tobias Barreto, 132 Bairro São José, Aracaju - SE",,Aracajú - SE,,Lourenço Braga,,55 (61) 99909-0761,secretario.geral@cvb.org.br,http://www.cruzvermelha.org.br/products/sergipe/,,Brazilian Red Cross,-10.92694444,-37.05027778,BRA,Brazil,Brazilian Red Cross,,,7-Feb-24,Yes,Yes
Coordenação de Roraima ,,Administrative,1,Office,Ward,3,69304-350,"Av. Mário Homem de Melo, 2310 - Mecejana, Boa Vista - RR",,Boa Vista - RR,,Leila Marcia,,55 (95) 99122-1403,cvbrr@cvb.org.br,http://www.cruzvermelha.org.br/,,Brazilian Red Cross,2.82277778,-60.69388889,BRA,Brazil,Brazilian Red Cross,,,7-Feb-24,Yes,Yes
Hospital da Cruz Vermelha Brasileira Paraná,,Health Care,2,Hospital,,,80730-420,"Rua: Capitão Souza Franco, 50 - Batel, Curitiba - PR",,Curitiba - PR,,Leonardo Hanrique,,55 (41) 3016-6622,presidencia.pr@cvb.org.br,http://www.cruzvermelha.org.br/products/parana/,,Brazilian Red Cross,-25.43694444,-49.28944444,BRA,Brazil,Brazilian Red Cross,,,7-Feb-24,Yes,Yes
বরগুনা রেড ক্রিসেন্ট ইউনিট,Barguna Red Crescent Unit,Administrative,1,Branch office,District,2,,"সিরাজউদ্দিন রোড, টাউন হল, বরগুনা ৮৭০০","Sirajuddin Road, Town Hall, Barguna 8700",,Barguna,মাহবুবুর রহমান মিলন,Mahbubur Rahman milon,17183223040,barguna@bdrcs.org,http://www.bdrcs.org/,Bangladesh Red Crescent Society,,22.1614375,90.1227277,BGD,Bangladesh,Bangladesh Red Crescent Society,,1,7-Feb-24,Yes,Yes
বরিশাল রেড ক্রিসেন্ট ইউনিট,Barisal Red Crescent Unit,Administrative,1,Branch office,District,2,,"ব্যান্ড রোড, ডিসি লঞ্চ ঘাট, বরিশাল","Band Road, DC Launch Ghat, Barishal",,Barisal,এএসএম গোলাম কবির,ASM Golam Kabir,1712150959,barishal@bdrcs.org,http://www.bdrcs.org/,Bangladesh Red Crescent Society,,22.698051,90.3741722,BGD,Bangladesh,Bangladesh Red Crescent Society,,2,7-Feb-24,Yes,Yes
ভোলা রেড ক্রিসেন্ট ইউনিট,Bhola Red Crescent Unit,Administrative,1,Branch office,District,2,,"রেড ক্রিসেন্ট ভবন, নতুন বাজার, ভোলা সদর, ভোলা","Red Cerscent Bhaban, Natun Bazar,Bhola Sader,Bhola",,Bhola,মোঃ আবদুল বারী,Md. Abdul Bari,1716355165,bhola@bdrcs.org,http://www.bdrcs.org/,Bangladesh Red Crescent Society,,22.6854033,90.6463914,BGD,Bangladesh,Bangladesh Red Crescent Society,,3,7-Feb-24,Yes,Yes
ঝালকাঠি রেড ক্রিসেন্ট ইউনিট,Jhalakathi Red Crescent Unit,Administrative,1,Branch office,District,2,,"পুরাতন কলেজ রোড, ঝালাকাঠি","Old Collage Road, Jhalakathi",,Jhalakathi,ইকবাল মাসুদ,Iqbal Masud,1711037672,jhalakathi@bdrcs.org,http://www.bdrcs.org/,Bangladesh Red Crescent Society,,22.6406182,90.2035921,BGD,Bangladesh,Bangladesh Red Crescent Society,,4,7-Feb-24,Yes,Yes
পটুয়াখালী রেড ক্রিসেন্ট ইউনিট,Patuakhali Red Crescent Unit,Administrative,1,Branch office,District,2,,"পুরাতন ফৌজদার ভবন, লঞ্চ ঘাট, পটুয়াখালী","Puraton Foujdar Bhaban, Launch Ghat,Patukhali",,Patuakhali,এমডি ফারুক হোসিন,"Md, Faruk Hossin",1712981322,Patukhali@bdrcs.org,http://www.bdrcs.org/,Bangladesh Red Crescent Society,,22.3605663,90.3505268,BGD,Bangladesh,Bangladesh Red Crescent Society,,5,7-Feb-24,Yes,Yes
পিরোজপুর রেড ক্রিসেন্ট ইউনিট,Pirojpur Red Crescent Unit,Administrative,1,Branch office,District,2,,"রেড ক্রিসেন্ট ভবন (স্টেডিয়ামের নিকটে), হুলারহাট রোড, পিরোজপুর -৮৫০০","Red Crescent Bhaban (Near to Stadium),Hularthat Road,Pirojpur-8500",,Pirojpur,মহাবুবুর রহমান মিলন,Mahabubur Rahman Milon,1720548462,pirojpurbdrcs.org,http://www.bdrcs.org/,Bangladesh Red Crescent Society,,22.5792733,89.9826263,BGD,Bangladesh,Bangladesh Red Crescent Society,,6,7-Feb-24,Yes,Yes
বান্দরবন রেড ক্রিসেন্ট ইউনিট,Bandarban Red Crescent Unit,Administrative,1,Branch office,District,2,,"রেড ক্রিসেন্ট ভবন, বান্দরবন",Do,,Bandarban,মোহাম্মদ মোশারেফ হোসেন,Mohammed Mosharef Hossain,,bandarban@bdrcs.org,http://www.bdrcs.org/,Bangladesh Red Crescent Society,,22.1814602,92.1933848,BGD,Bangladesh,Bangladesh Red Crescent Society,,7,7-Feb-24,Yes,Yes
ব্রাক্ষণবাড়িয়া রেড ক্রিসেন্ট ইউনিট,Brahmanbaria Red Crescent Unit,Administrative,1,Branch office,District,2,,"রেড ক্রিসেন্ট ভবন, সদর হাসপাতাল রোড, ব্রাহ্মণবারিয়া- ৩৪০০","Red Cerscent Bhaban, Sadar Hospital road, Brahmanbaria- 3400",,Brahmanbaria,মিঃ পঙ্কজ কুমার সরকার,Mr. Pankaj Kumar Sarkar,880-2-334427120,brahmanbaria@bdrcs.org,http://www.bdrcs.org/,Bangladesh Red Crescent Society,,23.9758278,91.1107374,BGD,Bangladesh,Bangladesh Red Crescent Society,,8,7-Feb-24,Yes,Yes
চাঁদপুর রেড ক্রিসেন্ট ইউনিট,Chandpur Red Crescent Unit,Administrative,1,Branch office,District,2,,"রেড ক্রিসেন্ট ভবন, কাজী নাজরুল সরক, চাঁদপুর সদর, চাঁদপুর","Red Crescent Bhaban, Kazi Nazrul Sarak, Chandpur Sadar, Chandpur",,Chandpur,মোঃ বাজলুর করিম চৌধুরী,Md. Bazlur Karim Chowdhury ,01712295735,chandpur@bdrcs.org,http://www.bdrcs.org/,Bangladesh Red Crescent Society,,23.2225775,90.653899,BGD,Bangladesh,Bangladesh Red Crescent Society,,9,7-Feb-24,Yes,Yes
চট্টগ্রাম সিটি রেড ক্রিসেন্ট ইউনিট,Chattogram City Red Crescent Unit,Administrative,1,Branch office,District,2,,"সানমার স্প্রিং গার্ডেন, 64 জামাল খান রোড","Sanmar Spring Garden, 64 Jamal Khan Road",,Chattogram City,মোঃ আবদুল রহিম আকন,Md. Abdul Rahim Akon,01819317456,chattogramcity@bdrcs.org,http://www.bdrcs.org/,Bangladesh Red Crescent Society,,22.345351,91.8387438,BGD,Bangladesh,Bangladesh Red Crescent Society,,10,7-Feb-24,Yes,Yes
 চট্টগ্রাম জেলা রেড ক্রিসেন্ট ইউনিট,Chattogram District Red Crescent Unit,Administrative,1,Branch office,District,2,,"চট্টগ্রাম জেলা রেড ক্রিসেন্ট ইউনিট, রেড ক্রিসেন্ট বিল্ডিং, ৩৯৫ আন্দরকিল্লা, চট্টগ্রাম","Chattogram district red crescent unit, red crescent building,395 Anderkilla, Chattogram.",,Chattogram District,মোঃ আবদুল মান্নান,Md. Abdul Mannan,1819173034,chattogramdist@bdrcs.org,http://www.bdrcs.org/,Bangladesh Red Crescent Society,,22.3453776,91.8387708,BGD,Bangladesh,Bangladesh Red Crescent Society,,11,7-Feb-24,Yes,Yes
কক্সবাজার রেড ক্রিসেন্ট ইউনিট,Cox's Bazar Red Crescent Unit,Administrative,1,Branch office,District,2,,"মোটেল রোড, কক্সবাজার সদর","Motel Road, Cox's Bazar,sadar",,Cox's Bazar,মো। সাইফুল ইসলাম,Md. Saiful Islam,1810112212,ocxsbazar@bdrcs.org,http://www.bdrcs.org/,Bangladesh Red Crescent Society,,21.4396429,91.969217,BGD,Bangladesh,Bangladesh Red Crescent Society,,12,7-Feb-24,Yes,Yes
কুমিল্লা রেড ক্রিসেন্ট ইউনিট,Cumilla Red Crescent Unit,Administrative,1,Branch office,District,2,,"নবাব ফয়জুনেসা রোড, কুমিল্লা ৩৫০০","Nobaba Fayjunnesa Rd, Comilla 3500",,Cumilla,কাজী জানে আলম,Kazi Jane Alam,01714373530,cumilla@bdrcs.org,http://www.bdrcs.org/,Bangladesh Red Crescent Society,,23.4675455,91.1778184,BGD,Bangladesh,Bangladesh Red Crescent Society,,13,7-Feb-24,Yes,Yes
ফেনী রেড ক্রিসেন্ট ইউনিট,Feni Red Crescent Unit,Administrative,1,Branch office,District,2,,"রাজার ডিঘির পূর্বের পারা, ফেনি ৩৯০০০","Rajar Dighirpurberpar, Feni 3900",,Feni,আলাউদ্দিন প্যাটোয়ারি,Alauddin Patoary,1711385009,feni@bdrcs.org,http://www.bdrcs.org/,Bangladesh Red Crescent Society,,23.0107722,91.4008214,BGD,Bangladesh,Bangladesh Red Crescent Society,,14,7-Feb-24,Yes,Yes
 খাগড়াছড়ি রেড ক্রিসেন্ট ইউনিট,Khagrachari Red Crescent Unit,Administrative,1,Branch office,District,2,,"উচ্চ বিদ্যালয়ের মাঠের কাছে, আদলাত সড়ক, খারাচরি সদর","Near High School Field, Adalat Sarak,Kharachari Sadar",,Khagrachari,আবদুল গানি মজুমদার,Abdul Gani Majumder,+88 02 3333 43059,khagrachari@bdrcs.org,http://www.bdrcs.org/,Bangladesh Red Crescent Society,,23.1110895,91.9888253,BGD,Bangladesh,Bangladesh Red Crescent Society,,15,7-Feb-24,Yes,Yes
লক্ষীপুর রেড ক্রিসেন্ট ইউনিট,Lakshmipur Red Crescent Unit,Administrative,1,Branch office,District,2,,"রেহান উদ্দিন ভুঁইয়া সড়ক, পুরাতন শহীদ মিনার রোড, লক্ষীপুর -৩৭০০","Rehan Uddin Bhuya Sarak, Puraton Shahid Minar Road, Lakshimpur-3700",,Lakshmipur,নাসরিন আকটার,Nasrin Akter,01815215945,lakshimpur@bdrcs.org,http://www.bdrcs.org/,Bangladesh Red Crescent Society,,22.9411711,90.8376381,BGD,Bangladesh,Bangladesh Red Crescent Society,,16,7-Feb-24,Yes,Yes
নোয়াখালী রেড ক্রিসেন্ট ইউনিট,Noakhali Red Crescent Unit,Administrative,1,Branch office,District,2,,"নোয়াখালী রেড ক্রিসেন্ট ভবান, জেদাইগদী কোর্ট, নোয়াখালী","Noakhali Red Crescent Bhaban,Jedaigdi Court, Noakhali",,Noakhali,আবদুল করিম,Abdul Karim,1810849420,noakhali@bdrcs.org,http://www.bdrcs.org/,Bangladesh Red Crescent Society,,22.8665443,91.1005869,BGD,Bangladesh,Bangladesh Red Crescent Society,,17,7-Feb-24,Yes,Yes
রাঙ্গামাটি রেড ক্রিসেন্ট ইউনিট,Rangamati Red Crescent Unit,Administrative,1,Branch office,District,2,,"কে কে রায় সড়ক, রাজবাড়ি রাঙ্গামাটি","K K Roy Sarak, Rajbari Rangamati",,Rangamati,মোঃ শামসুল আলম,Md. Shamsul Alam,2333304735,rangamati@bdrcs.org,http://www.bdrcs.org/,Bangladesh Red Crescent Society,,22.6612555,92.1688454,BGD,Bangladesh,Bangladesh Red Crescent Society,,18,7-Feb-24,Yes,Yes
ঢাকা সিটি রেড ক্রিসেন্ট ইউনিট,Dhaka City Red Crescent Unit ,Administrative,1,Branch office,District,2,,"ঢাকা সিটি রেড ক্রিসেন্ট ইউনিট, ঢাকা দক্ষিণ সিটি কর্পোরেশন, নগর ভবন, ৫ম তলা, ঢাকা ১০০০","Dhaka City Red Crescent Unit, Dhaka South City Corporation, Ngar Bhaban, 5th Floor, Dhaka 1000",,Dhaka City,ফারজানা আকটার,Farzana Akter,0257164243,dhakacity@bdrcs.org,http://www.bdrcs.org/,Bangladesh Red Crescent Society,,23.7241516,90.408147,BGD,Bangladesh,Bangladesh Red Crescent Society,,19,7-Feb-24,Yes,Yes
ঢাকা জেলা রেড ক্রিসেন্ট ইউনিট,Dhaka District Red Crescent Unit,Administrative,1,Branch office,District,2,,"৩৩ নং পাঁচ ভাই ঘাট লেইন, রাকনপুর, সূত্রাপুর, ঢাকা -১১০০","33 no pach Bhai Ghat lane, Rakonpur, Sutrapur, Dhaka-1100",,Dhaka District,মোঃ নুরুল ইসলাম,Md. Nurul Islam,1797879717,dhakadistrict@bdrcs.org,http://www.bdrcs.org/,Bangladesh Red Crescent Society,,23.7099931,90.4168835,BGD,Bangladesh,Bangladesh Red Crescent Society,,20,7-Feb-24,Yes,Yes
ফরিদপুর রেড ক্রিসেন্ট ইউনিট,Faridpur Red Crescent Unit,Administrative,1,Branch office,District,2,,"রেড ক্রিসেন্ট প্লাজা, আলিপুর, ফরিদপুর","Red Crescent Plaza , Alipur, Faridpur",,Faridpur,পাভেল রহমান,Pavel Rahman,0,faridpur@bdrcs.org,http://www.bdrcs.org/,Bangladesh Red Crescent Society,,23.6030191,89.8329478,BGD,Bangladesh,Bangladesh Red Crescent Society,,21,7-Feb-24,Yes,Yes
গাজীপুর রেড ক্রিসেন্ট ইউনিট,Gazipur Red Crescent Unit,Administrative,1,Branch office,District,2,,"রাজবাড়ি, জয়দেবপুর, গাজীপুর","Rjbari, Joydevpur,Gazipur",,Gazipur,মোঃ কামাল উদ্দিন,Md. Kamal Uddin,01711649877,gazipur@bdrcs.org,http://www.bdrcs.org/,Bangladesh Red Crescent Society,,24.0004232,90.4252626,BGD,Bangladesh,Bangladesh Red Crescent Society,,22,7-Feb-24,Yes,Yes
গোপালগঞ্জ রেড ক্রিসেন্ট ইউনিট,Gopalganj Red Crescent Unit,Administrative,1,Branch office,District,2,,গোপালগঞ্জ,,,Gopalganj,বিপ্লাব কুমার বিশ্বাস,Biplab Kumar Biswas,1711133018,gopalganj@gmail.org,http://www.bdrcs.org/,Bangladesh Red Crescent Society,,23.0043955,89.826664,BGD,Bangladesh,Bangladesh Red Crescent Society,,23,7-Feb-24,Yes,Yes
কিশোরগঞ্জ রেড ক্রিসেন্ট ইউনিট,Kishoreganj Red Crescent Unit,Administrative,1,Branch office,District,2,,"কিশোরগঞ্জ ইউনিট, বত্রিশ রেড ক্রিসেন্ট মোড়, কিশোরগঞ্জ ২৩০০","Bangladesh Red Crescent Society, Kishoreganj Unit, Bottiris Red Crescentmor, Kishoreganj-2300.",,Kishoreganj,মোঃ আবদুল মোটালিব,Md. Abdul Motalib ,01911-010212,       kishoreganj@bdrcs.org,http://www.bdrcs.org/,Bangladesh Red Crescent Society,,24.4308244,90.781178,BGD,Bangladesh,Bangladesh Red Crescent Society,,24,7-Feb-24,Yes,Yes
মাদারিপুর রেড ক্রিসেন্ট ইউনিট,Madaripur Red Crescent Unit,Administrative,1,Branch office,District,2,,"মাদারিপুর পুরাতন কোর্ট রোড, নতুন শহর, সদর, মাদারিপুর","Madaripur Puraton Court Road, Noton Sohor, Sadar, Madaripur",,Madaripur,পঙ্কজ কুমার সরকার,Pankaj Kumar Sarkar,1718126884,madaripur@bdrcs.org,http://www.bdrcs.org/,Bangladesh Red Crescent Society,,23.1669405,90.2097861,BGD,Bangladesh,Bangladesh Red Crescent Society,,25,7-Feb-24,Yes,Yes
মানিকগঞ্জ রেড ক্রিসেন্ট ইউনিট,Manikganj Red Crescent Unit,Administrative,1,Branch office,District,2,,"শহীদ রফিক সড়ক, সদার, মানিকগঞ্জ","Shahid Rafik Sarak, Sadar, Manikganj",,Manikganj,মো জ্যাটিকুর রহমান,Md. Ztikur Rahman,1721446220,manikganj@bdrcs.org,http://www.bdrcs.org/,Bangladesh Red Crescent Society,,23.85939328,90.00716141,BGD,Bangladesh,Bangladesh Red Crescent Society,,26,7-Feb-24,Yes,Yes
মুন্সিগঞ্জ রেড ক্রিসেন্ট ইউনিট,Munshiganj Red Cresecent Unit,Administrative,1,Branch office,District,2,,"আলহবাজ মো মহিউদ্দীন রেড ক্রিসেন্ট ভবন, হাতলক্ষীগঞ্জ, পুরাতন বাস স্টান্ড, মুন্সীগঞ্জ","Alhaj Md. Mohiuddin Red Crescent Bhaban, Hatlakshiganj, Puraton Bus Stand, Munshiganj",,Munshiganj,এমডি জিয়াউল হক,Md.Ziaul Haq,,munshiganj@bdrcs.org,http://www.bdrcs.org/,Bangladesh Red Crescent Society,,23.5586865,90.5326136,BGD,Bangladesh,Bangladesh Red Crescent Society,,27,7-Feb-24,Yes,Yes
নারায়ণগঞ্জ রেড ক্রিসেন্ট ইউনিট,Narayanganj Red Crescent Unit,Administrative,1,Branch office,District,2,,"১৩০, ভাষা সৈনিক একেএম সামসুজ্জামান সড়ক, উত্তর চাষাড়া, নারায়ানগঞ্জ ১৪০০","130, Bhasa Soinik AKM Shamsuzzoha Sarak, North Chashara, Narayanganj-1400",,Narayanganj,"কাওসার আহমেদ, জাদ","Kawser Ahmed, JAD",01711369915,narayanganj@bdrcs.org,http://www.bdrcs.org/,Bangladesh Red Crescent Society,,23.6260541,90.4995318,BGD,Bangladesh,Bangladesh Red Crescent Society,,28,7-Feb-24,Yes,Yes
নরসিংদি রেড ক্রিসেন্ট ইউনিট,Narsingdi Red Crescent Unit,Administrative,1,Branch office,District,2,,"৩০৮ রেড ক্রিসেন্ট ভবন, পশ্চিম ব্রামন্ডি (উত্তর টাউন হল), নরসিংদী ১৬০২","308, Red Crescent Bhaban, West Brahmondi (Old Town Hall), Narsingdi-1602",,Narsingdi,মো কাওসার আহমেদ,Md. Kawser Ahmed,01711-344269,narsingdi@bdrcs.org,http://www.bdrcs.org/,Bangladesh Red Crescent Society,,23.919267,90.717649,BGD,Bangladesh,Bangladesh Red Crescent Society,,29,7-Feb-24,Yes,Yes
রাজবাড়ী রেড ক্রিসেন্ট ইউনিট,Rajbari Red Crescent Unit,Administrative,1,Branch office,District,2,,"রেড ক্রিসেন্ট প্লাজা, ১ নং বেরাডাঙ্গা, রাজবাড়ী সদর, রাজবাড়ী- ৭৭০০","Red Crescent Plaza , 1 no Beradanga, Rajbari Sadar, Rajbari-7700",,Rajbari,মো নাজির সিকদার,Md. Nazir Sikder,1715696306,rajbari@bdrcs.org,http://www.bdrcs.org/,Bangladesh Red Crescent Society,,23.761277,89.6487919,BGD,Bangladesh,Bangladesh Red Crescent Society,,30,7-Feb-24,Yes,Yes
শরীয়তপুর রেড ক্রিসেন্ট ইউনিট,Shariatpur Red Crescent Unit,Administrative,1,Branch office,District,2,,"বাংলাদেশ রেড ক্রিসেন্ট সোসাইটি, সদর হাসপাতাল রোড, শরীয়তপুর","Bangladesh Red Crescent Society, Sadar Hospital Road, Shariatpur.",,Shariatpur,পঙ্কজ কুমার সরকার,Pankaj Kumar Sarkar,1718126884,shariatpur@bdrcs.org,http://www.bdrcs.org/,Bangladesh Red Crescent Society,,23.2114034,90.3469505,BGD,Bangladesh,Bangladesh Red Crescent Society,,31,7-Feb-24,Yes,Yes
টাঙ্গাইল রেড ক্রিসেন্ট ইউনিট,Tangail Red Crescent Unit,Administrative,1,Branch office,District,2,,"ক্লাব রোড, টাঙ্গাইল","Club road, Tangail",,Tangail,এ.টি.এম জিয়াউল আহসান,A.T.M Ziaul Ahsan,01850496939,tangail@bdrcs.org,http://www.bdrcs.org/,Bangladesh Red Crescent Society,,24.2514261,89.9153618,BGD,Bangladesh,Bangladesh Red Crescent Society,,32,7-Feb-24,Yes,Yes
বাগেরহাট রেড ক্রিসেন্ট ইউনিট,Bagerhat Red Crescent Unit,Administrative,1,Branch office,District,2,,"রেড ক্রিসেন্ট ভবন, সবাধীনতা উদ্দান, বাগেরহাট","Red Crescent Bhaban, Swadhinata Uddyan, Bagerhat",,Bagerhat,মোহাম্মদ হান্নান,Mohammad Hannan,1937589165,bagerhat@bdrcs.org,http://www.bdrcs.org/,Bangladesh Red Crescent Society,,22.6601575,89.794674,BGD,Bangladesh,Bangladesh Red Crescent Society,,33,7-Feb-24,Yes,Yes
চুয়াডাঙ্গা রেড ক্রিসেন্ট ইউনিট,Chuadanga Red Crescent Unit,Administrative,1,Branch office,District,2,,"চক্ষু হাসপাতাল ভবন, সদর হাসপাতাল রোড, চুয়াডাঙ্গা","Eye Hospital Vaban, Sadar Hospital Road, Chuadanga",,Chuadanga,মোঃ ওবায়দুল ইসলাম পারভেজ,Md. Obaidul Islam Parves,076162292,chuadanga@bdrcs.org,http://www.bdrcs.org/,Bangladesh Red Crescent Society,,23.6361128,88.8467189,BGD,Bangladesh,Bangladesh Red Crescent Society,,34,7-Feb-24,Yes,Yes
যশোর রেড ক্রিসেন্ট ইউনিট,Jessore Red Crescent Unit,Administrative,1,Branch office,District,2,,"6 মুন্সী মেহেরুল্লাহ রোড, মিউনিসিপালের সামনে, যশোর","06, Munchimeherullah Road, Infront of Municipal, Jashore",,Jessore,গৌর চন্দ্র বিশ্বাস,Gour Chandra Biswas,1711296388,jashore@bdrcs.org,http://www.bdrcs.org/,Bangladesh Red Crescent Society,,23.1658011,89.2059196,BGD,Bangladesh,Bangladesh Red Crescent Society,,35,7-Feb-24,Yes,Yes
ঝিনাইদহ রেড ক্রিসেন্ট ইউনিট,Jhenaidah Red Crescent Unit,Administrative,1,Branch office,District,2,,"কবি সুকান্ত সরক, আদর্শ পাড়া, ঝিনাইদাহ","Kabi Shukanto Sarak, Adorsho Para, Jhenaidah",,Jhenaidah,তাসলিমা খাতুন,Taslima Khatun,1711398537,jhenaidah@bdrcs.org,http://www.bdrcs.org/,Bangladesh Red Crescent Society,,23.5425204,89.1756523,BGD,Bangladesh,Bangladesh Red Crescent Society,,36,7-Feb-24,Yes,Yes
খুলনা রেড ক্রিসেন্ট ইউনিট,Khulna City Red Crescent Unit,Administrative,1,Branch office,District,2,,"কে সিসি সুপার মার্কেট, ১ম ফ্লোর, খুলনা","KCC Super Market, 1st Floor, Khulna",,Khulna City,মো মোইনুল ইসলাম পোলাশ,Md. Moinul Islam Polash,01712999762,khulnacity@bdrcs.org,http://www.bdrcs.org/,Bangladesh Red Crescent Society,,22.8154079,89.5672883,BGD,Bangladesh,Bangladesh Red Crescent Society,,37,7-Feb-24,Yes,Yes
খুলনা রেড ক্রিসেন্ট ইউনিট,Khulna District Red Crescent Unit,Administrative,1,Branch office,District,2,,"৪২ টিবি ক্রস রোড (ওয়াইসিএ স্কুল এর পাশে),৯০০০, খুলনা","42, TB Cross Road, (Beside YWCA School), 9000, Khulna",,Khulna District,মো তারিকুল ইসলাম,Md. Tariqul Islam,1711398718,khulnadist@bdrcs.org,http://www.bdrcs.org/,Bangladesh Red Crescent Society,,22.8056725,89.5724913,BGD,Bangladesh,Bangladesh Red Crescent Society,,38,7-Feb-24,Yes,Yes
কুষ্টিয়া রেড ক্রিসেন্ট ইউনিট,Kushtia Red Crescent Unit,Administrative,1,Branch office,District,2,,"এন এস রোড, জিলা পরিষদ ডাক বাংলো","N.S Road, Zilla Porishad Dak Banglow",,Kushtia,সায়েদ এমডি শামিম রহমান,Sayed md Shamim Rahman,1879411290,kushtia@bdrcs.org,http://www.bdrcs.org/,Bangladesh Red Crescent Society,,23.9085567,89.1289818,BGD,Bangladesh,Bangladesh Red Crescent Society,,39,7-Feb-24,Yes,Yes
মাগুরা রেড ক্রিসেন্ট ইউনিট,Magura Red Crescent Unit,Administrative,1,Branch office,District,2,,"মাতৃসদন পারা, মাগুরা সদর, মাগুরা ৭৬০০","Matrisadan Para, Magura Sadar, Magura-7600",,Magura,তাসলিমা খাতুন,Taslima Khatun,,magura@bdrcs.org,http://www.bdrcs.org/,Bangladesh Red Crescent Society,,23.4891937,89.4220846,BGD,Bangladesh,Bangladesh Red Crescent Society,,40,7-Feb-24,Yes,Yes
মেহেরপুর রেড ক্রিসেন্ট ইউনিট,Meherpur Red Crescent Unit,Administrative,1,Branch office,District,2,,"জিলা পরিষদ ভবন, মেহেরপুর","Zilla Parshad Vban, Meherpur",,Meherpur,মোঃ ওবায়দুল ইসলাম পার্ভস,Md. Obaidul Islam Parves,01819698019,Meherpur@bdrcs.org,http://www.bdrcs.org/,Bangladesh Red Crescent Society,,23.7614043,88.6327241,BGD,Bangladesh,Bangladesh Red Crescent Society,,41,7-Feb-24,Yes,Yes
নড়াইল রেড ক্রিসেন্ট ইউনিট,Narail Red Crescent Unit,Administrative,1,Branch office,District,2,,"রেড ক্রিসেন্ট ভবন, চৌরাস্তা মোড়, নড়াইল ৭৫০০","Red Crescent Bhaban, Chourasta Mor, Narail-7500",,Narail,রেক্সোনা খাতুন,Most. Rexona Khatun,1712571099,narail@bdrcs.org,http://www.bdrcs.org/,Bangladesh Red Crescent Society,,23.1712937,89.5106277,BGD,Bangladesh,Bangladesh Red Crescent Society,,42,7-Feb-24,Yes,Yes
সাতক্ষীরা রেড ক্রিসেন্ট ইউনিট,Satkhira District Red Crescent Unit ,Administrative,1,Branch office,District,2,,"শহীদ নাজমুল সরণী, মুঞ্জিতপুর, সাতক্ষীরা","Saheed Najmul Sarony, Munjitpur, Satkhira",,Satkhira,এ এস এম আছথার,A S M Akther,1711829482,satkhira@bdrcs.org,http://www.bdrcs.org/,Bangladesh Red Crescent Society,,22.7142014,89.0748273,BGD,Bangladesh,Bangladesh Red Crescent Society,,43,7-Feb-24,Yes,Yes
জামালপুর রেড ক্রিসেন্ট ইউনিট,Jamalpur Red Crescent Unit,Administrative,1,Branch office,District,2,,"কোর্ট বিল্ডিং রোড, জামালপুর ","Court Building Road, Jamalpur.",,Jamalpur,মো হায়দার আলী,Md. Hidar Ali,0961-64974,jamalpur@bdrcs.org,http://www.bdrcs.org/,Bangladesh Red Crescent Society,,24.9369149,89.9388191,BGD,Bangladesh,Bangladesh Red Crescent Society,,44,7-Feb-24,Yes,Yes
ময়মনসিংহ রেড ক্রিসেন্ট ইউনিট,Mymensingh Red Crescent Unit,Administrative,1,Branch office,District,2,,"জিলা সুইমিংপুল ভবন, টাঙ্গাইল বাস স্ট্যান্ড, ময়মনসিংহ সদর, ময়মনসিংহ 2201","Zila Swimmingpul Bhaban, Tangail Bus Stand, Mymensingh Sadar, Mymensing 2201",,Mymensingh,এটিএম জিয়াউল আহসান,ATM Ziaul Ahsan,,mymensingh@bdrcs.org,http://www.bdrcs.org/,Bangladesh Red Crescent Society,,24.7667735,90.3910915,BGD,Bangladesh,Bangladesh Red Crescent Society,,45,7-Feb-24,Yes,Yes
নেত্রকোণা রেড ক্রিসেন্ট ইউনিট,Netrokona Red Crescent Unit,Administrative,1,Branch office,District,2,,"নেত্রকোণা রেড ক্রিসেন্ট ইউনিট, আজহার রোড, সদর, নেত্রোকোনা -২৪০০","Netrakona Red Crescent Unit, Ajhar Road, Sadar, Netrokona-2400",,Netrokona,"মো আবদুল মান্নান (মেডিকেল ছুটিতে), আবদুল মোটালিব (অতিরিক্ত)","Md. Abdul Mannan (On Medical Leave), Abdul Motalib (Additional)",1711316764,netrokona@bdrcs.org,http://www.bdrcs.org/,Bangladesh Red Crescent Society,,24.8835291,90.7348928,BGD,Bangladesh,Bangladesh Red Crescent Society,,46,7-Feb-24,Yes,Yes
শেরপুর রেড ক্রিসেন্ট ইউনিট,Sherpur Red Crescent Unit,Administrative,1,Branch office,District,2,,"প্রধান পোস্ট অফিস রোড, মাধবপুর, শেরপুর টাউন, শেরপুর - 2100","Head Post Office Road, Madhobpur, Sherpur Town, Sherpur - 2100",,Sherpur,মো হায়দার আলী,Md. Haider Ali,0931-61845,sherpurrcunit@gmail.com,http://www.bdrcs.org/,Bangladesh Red Crescent Society,,25.0117672,90.0171115,BGD,Bangladesh,Bangladesh Red Crescent Society,,47,7-Feb-24,Yes,Yes
বগুড়া রেড ক্রিসেন্ট ইউনিট,Bogra Red Crescent Unit ,Administrative,1,Branch office,District,2,,"নবাব বাড়ি রোড, বগুড়া -5800","Nawabbari road, Bogura-5800",,Bogra,মোঃ নাজমুল শাহাদাত,Md. Nazmul Shahadat,1712130637,bogura@bdrcs.org,http://www.bdrcs.org/,Bangladesh Red Crescent Society,,24.8498445,89.3752497,BGD,Bangladesh,Bangladesh Red Crescent Society,,48,7-Feb-24,Yes,Yes
চাপাইনবাবগঞ্জ রেড ক্রিসেন্ট ইউনিট,Chapainawabganj Red Crescent Unit,Administrative,1,Branch office,District,2,,"জিলা পরিষদ ভাবন, হুজরাপুর, চাপাইনবাবগঞ্জ","Zilla Parishad Bhabon, Hujrapur, Chapainawabganj",,Chapainawabganj,এমডি মহামুদুর রহমান,Md Mahamudur Rahman,1712221009,Chapainawabganj@bdrcs.org,http://www.bdrcs.org/,Bangladesh Red Crescent Society,,24.6019952,88.279232,BGD,Bangladesh,Bangladesh Red Crescent Society,,49,7-Feb-24,Yes,Yes
জয়পুরহাট রেড ক্রিসেন্ট ইউনিট,Joypurhat Red Crescent Unit,Administrative,1,Branch office,District,2,,"শহীদ ডাঃ আবুল কাশেম ময়দান, জয়পুরহাট","Sohid Dr. Abul KashemMoidan, Joypurhat",,Joypurhat,মোঃ নুরুল করিম,Md. Nurul Karim,,joypurhat@bdrcs.org,http://www.bdrcs.org/,Bangladesh Red Crescent Society,,25.1020884,89.0271194,BGD,Bangladesh,Bangladesh Red Crescent Society,,50,7-Feb-24,Yes,Yes
নঁওগা রেড ক্রিসেন্ট ইউনিট,Naogaon Red Crescent Unit,Administrative,1,Branch office,District,2,,"উকিলপারা, নওগাঁও সদর, নওগাঁও","Ukilpara, Naogaon Sadar, Naogaon",,Naogaon,মো আকতার মিঠু,Md. Akter Mithu,1711377955,naogaon@bdrcs.org,http://www.bdrcs.org/,Bangladesh Red Crescent Society,,24.81852565,88.94232553,BGD,Bangladesh,Bangladesh Red Crescent Society,,51,7-Feb-24,Yes,Yes
নাটোর রেড ক্রিসেন্ট ইউনিট,Natore Red Crescent Unit,Administrative,1,Branch office,District,2,,"সদর হাসপাতাল রোড, মলিখাতি, নাটোর -6400","Sadar Hospital Rode,Molikhati, Nator-6400",,Natore,"মো আকতার মিঠু, শাম্মী আক্তার- এডমিন অফিসার, ব্লাড সেন্টার","Md.Akhtar Hossain Mithu, Shammi Akter- Administrative Officer, Blood Center",01717100378,nator@bdrcs.org,http://www.bdrcs.org/,Bangladesh Red Crescent Society,,24.4092417,88.9832052,BGD,Bangladesh,Bangladesh Red Crescent Society,,52,7-Feb-24,Yes,Yes
পাবনা রেড ক্রিসেন্ট ইউনিট,Pabna Red Crescent Unit,Administrative,1,Branch office,District,2,,"নবাব সিরাজ উদ দৌলা রোড, পাবনা","Nowab Siraj U Dolla Road, Pabna",,Pabna,সায়েদ মো শামিম রহমান,Sayed md Shamim Rahman,1711237473,pabna@bdrcs.org,http://www.bdrcs.org/,Bangladesh Red Crescent Society,,24.00601121,89.23363764,BGD,Bangladesh,Bangladesh Red Crescent Society,,53,7-Feb-24,Yes,Yes
রাজশাহী সিটি রেড ক্রিসেন্ট ইউনিট,Rajshahi City Red Crescent Unit,Administrative,1,Branch office,District,2,,"গ্রেটার রোড, নগর ভবন ১০ম তলা রাজশাহী।","Greater Road, Naghar Bhaban 10, Floor, Rajshahi.",,Rajshahi City,মির্জা শামিম আহাসন,Mirza Shamim Ahasan,01770330400,rajshahicity@bdrcs.org,http://www.bdrcs.org/,Bangladesh Red Crescent Society,,24.3742834,88.6011919,BGD,Bangladesh,Bangladesh Red Crescent Society,,54,7-Feb-24,Yes,Yes
রাজশাহী রেড ক্রিসেন্ট ইউনিট,Rajshahi District Red Crescent Unit,Administrative,1,Branch office,District,2,,"রেড ক্রিসেন্ট রাজশাহী জেলা ইউনিট অফিস, তৃতীয় তলা জিলা পরিষদ ভবন, আদালত, রাজশাহী ৬২০১","Red Crescent Rajshahi District Unit Office, 3rd Floor Zilla Parishad Bhaban, Court, Rajshahi 6201",,Rajshahi District,মির্জা শামিম আহাসন,Mirza Shamim Ahasan,01322349344,rajshahidist@bdrcs.org,http://www.bdrcs.org/,Bangladesh Red Crescent Society,,24.3728046,88.5635351,BGD,Bangladesh,Bangladesh Red Crescent Society,,55,7-Feb-24,Yes,Yes
সিরাজগঞ্জ রেড ক্রিসেন্ট ইউনিট,Sirajganj Red Crescent Unit,Administrative,1,Branch office,District,2,,"মারওয়ারিপোটি রোড - মুজিব সরক, সাদর, সিরাজগানজ -৬৭০০","Marwaripottie Rode - Mujib Sarak, Sader, Sirajganj-6700",,Sirajganj,মো রবিউল আলম,Md. Rabiul Alam,1715005436,sirajganj@bdrcs.org,http://www.bdrcs.org/,Bangladesh Red Crescent Society,,24.4610782,89.7050518,BGD,Bangladesh,Bangladesh Red Crescent Society,,56,7-Feb-24,Yes,Yes
দিনাজপুর রেড ক্রিসেন্ট ইউনিট,Dinajpur Red Crescent Unit,Administrative,1,Branch office,District,2,,"পাহাড়পুর সদর, পৌর অঞ্চল, কোটওয়াল, দিনাজপুর।","Paharpur Sadar, Pouro area, Kotwall, Dinajpur .",,Dinajpur,মো নাজমুল শাহাদাত,Md. Nazmul Shahadat,2589924021,dinajpur@bdrcs.org,http://www.bdrcs.org/,Bangladesh Red Crescent Society,,25.6291982,88.6275233,BGD,Bangladesh,Bangladesh Red Crescent Society,,57,7-Feb-24,Yes,Yes
গাইবান্দা রেড ক্রিসেন্ট ইউনিট,Gaibandha Red Crescent Unit,Administrative,1,Branch office,District,2,,গাইবন্ধা সদর - গাইবন্ধা 5700,Gaibandha Sadar - Gaibandha5700,,Gaibandha,রাকিবুল হাসান,Rakibul Hasan,,gaibandha@bdrcs.org,http://www.bdrcs.org/,Bangladesh Red Crescent Society,,25.3302865,89.5454881,BGD,Bangladesh,Bangladesh Red Crescent Society,,58,7-Feb-24,Yes,Yes
কুড়িগ্রাম রেড ক্রিসেন্ট ইউনিট,Kurigram Red Crescent Unit,Administrative,1,Branch office,District,2,,"দাদা মোর, বাজার রোড, কুড়িগ্রাম","Dada More, Bazar Road, Kurigram",,Kurigram,এ.বি.এম. বায়াজিদ,A.B.M. Bayazid,02589950528,kurigram@bdrc.org,http://www.bdrcs.org/,Bangladesh Red Crescent Society,,25.8128939,89.6484563,BGD,Bangladesh,Bangladesh Red Crescent Society,,59,7-Feb-24,Yes,Yes
লালমনিরহাট রেড ক্রিসেন্ট ইউনিট,Lalmonirhat Red Crescent Unit,Administrative,1,Branch office,District,2,,"রেড ক্রিসেন্ট ভবন, বিডিআর রোড, সদর, লালমনিরহাট- ৫৫০১","Red Crescent Bhaban, BDR Road, Sadar, Lalmonirhat-5501",,Lalmonirhat,মো ফরহাদ আলম,MD. Farhad Alam,,lalmonirhat@bdrcs.org,http://www.bdrcs.org/,Bangladesh Red Crescent Society,,25.9147823,89.4411077,BGD,Bangladesh,Bangladesh Red Crescent Society,,60,7-Feb-24,Yes,Yes
নীলফামারি রেড ক্রিসেন্ট ইউনিট,Nilphamari Red Crescent Unit,Administrative,1,Branch office,District,2,,"বেগম রোকেয়া সরক, বড় মাঠ, নীলফামারী","Begum Rokieya Surak, Bara math, Nilphamiri",,Nilphamari,মো ফজলুল করিম,Md. Fazlul Karim,,nilphamari@bdrcs.org,http://www.bdrcs.org/,Bangladesh Red Crescent Society,,25.9343067,88.8537307,BGD,Bangladesh,Bangladesh Red Crescent Society,,61,7-Feb-24,Yes,Yes
পঞ্চগড় রেড ক্রিসেন্ট ইউনিট,Panchagarh Red Crescent Unit,Administrative,1,Branch office,District,2,,"কলেজ রোড, পঞ্চগড়","MR Cllege Road, Panchagarh",,Panchagarh,মোহাম্মদ বাজলুল করিম চৌধুরী,Mohammed Bazlul Karim Chowdhury,1712295735,panchagarh@bdrcs.org,http://www.bdrcs.org/,Bangladesh Red Crescent Society,,26.3387022,88.5512521,BGD,Bangladesh,Bangladesh Red Crescent Society,,62,7-Feb-24,Yes,Yes
রংপুর রেড ক্রিসেন্ট ইউনিট,Rangpur RC unit,Administrative,1,Branch office,District,2,,"কাছারি বাজার (নতুন ডিসি অঞ্চল), রংপুর","Kachari Bazar (New DC area),Rangpur",,Rangpur,মো মিজানুর রহমান,Md.Mizanur Rahman,01711196114,rangpur@bdrcs.org,http://www.bdrcs.org/,Bangladesh Red Crescent Society,,25.7565705,89.2444851,BGD,Bangladesh,Bangladesh Red Crescent Society,,63,7-Feb-24,Yes,Yes
ঠাকুরগাঁও রেড ক্রিসেন্ট ইউনিট,Thakurgaon Red Crescent Unit,Administrative,1,Branch office,District,2,,"শহিদ মোহাম্মদ আলী রোড, ঠাকুরগাঁও, সদর, ঠাকুরগাঁও","Sahid Mohammad Ali road, Thankurgaon, Sadar, Thankurgaon",,Thakurgaon,মোহাম্মদ বাজলুল করিম চৌধুরী,Mohammed Bazlul Karim Chowdhury,1712295735,thankurgaon@bdrcs.org,http://www.bdrcs.org/,Bangladesh Red Crescent Society,,26.0306455,88.4628872,BGD,Bangladesh,Bangladesh Red Crescent Society,,64,7-Feb-24,Yes,Yes
হবিগঞ্জ রেড ক্রিসেন্ট ইউনিট,Habiganj Red Crescent Unit,Administrative,1,Branch office,District,2,,"রেড ক্রিসেন্ট ভবন, প্রেস ক্লাব রোড, হবিগঞ্জ","Red Crescent Bhaban, Press club road,Hobigonj",,Habiganj,পঙ্কজ কুমার সরকার,Pankaj Kumar Sarkar,1722009993,hobigonj@bdrcs.org,http://www.bdrcs.org/,Bangladesh Red Crescent Society,,24.3751986,91.4145338,BGD,Bangladesh,Bangladesh Red Crescent Society,,65,7-Feb-24,Yes,Yes
মৌলভীবাজার রেড ক্রিসেন্ট ইউনিট,Moulvibazar Red Crescent Unit,Administrative,1,Branch office,District,2,,"কোর্ট রোড, মৌলভিবাজার","Court Road, Moulvibazar",,Moulvibazar,মো নাজির সিকদার,Md. Nazir Sikder,01312-612326,moulvibazar@bdrcs.org,http://www.bdrcs.org/,Bangladesh Red Crescent Society,,24.485745,91.776266,BGD,Bangladesh,Bangladesh Red Crescent Society,,66,7-Feb-24,Yes,Yes
সুনামগঞ্জ রেড ক্রিসেন্ট ইউনিট,Sunamganj Red Crescent Unit,Administrative,1,Branch office,District,2,,"কালিবারি রোড, সুনামগঞ্জ সদর, সুনামগঞ্জ","Kalibari Road, Sunamganj Sadar,Sunamganj",,Sunamganj,কনিকা তালুকদার,Konica Talukdar,2996600597,sunamganj@bdrcs.org,http://www.bdrcs.org/,Bangladesh Red Crescent Society,,25.0697112,91.4001233,BGD,Bangladesh,Bangladesh Red Crescent Society,,67,7-Feb-24,Yes,Yes
সিলেট রেড ক্রিসেন্ট ইউনিট,Sylhet Red Crescent Unit,Administrative,1,Branch office,District,2,,"সরোদা হল, টুপখানা, সিলেট","Saroda Hall, Tupkhana, Sylhet",,Sylhet,মো আবদুস সালাম,Md. Abdus Salam,1715777540,sylhet@bdrcs.org,http://www.bdrcs.org/,Bangladesh Red Crescent Society,,24.8884603,91.8674095,BGD,Bangladesh,Bangladesh Red Crescent Society,,68,7-Feb-24,Yes,Yes
,Al-Hoban  Branch ,Administrative,1,Branch Office,District,2,,,,,Al-Hoban,,,(967) (1) 278103,info@yemenredcrescent.org,,Yemen Red Crescent Society,,13.589634,44.037027,YEM,Yemen,Yemen Red Crescent Society,,,7-Feb-24,Yes,Yes
,Damt Sub-Branch ,Administrative,1,Branch Office,District,2,,,,,Al-Dhale',,,(967) (1) 278104,info@yemenredcrescent.org,,Yemen Red Crescent Society,,14.114519,44.1971,YEM,Yemen,Yemen Red Crescent Society,,,7-Feb-24,Yes,Yes
,Zabid Branch Office,Administrative,1,Branch Office,District,2,,,,,Zabid,,,(967) (1) 278105,info@yemenredcrescent.org,,Yemen Red Crescent Society,,14.1939,43.3193,YEM,Yemen,Yemen Red Crescent Society,,,7-Feb-24,Yes,Yes
,Az Zuhrah Branch Office,Administrative,1,Branch Office,District,2,,,,,Az Zuhrah City,,,(967) (1) 278106,info@yemenredcrescent.org,,Yemen Red Crescent Society,,15.7255,43.0013,YEM,Yemen,Yemen Red Crescent Society,,,7-Feb-24,Yes,Yes
,Al-Mukalla Branch Office,Administrative,1,Branch Office,District,2,,,,,Al-Mukalla,,,(967) (1) 278107,info@yemenredcrescent.org,,Yemen Red Crescent Society,,,,YEM,Yemen,Yemen Red Crescent Society,,,7-Feb-24,Yes,Yes
,Al-Maharah Branch,Administrative,1,Governorate Branch,Provincial,1,,,,,Al-Ghaydah City,,,(967) (1) 278108,info@yemenredcrescent.org,,Yemen Red Crescent Society,,16.2129,52.2037,YEM,Yemen,Yemen Red Crescent Society,,,7-Feb-24,Yes,Yes
,Seyiun Branch ,Administrative,1,Governorate Branch,Provincial,1,,,,,Sayun,,,(967) (1) 278109,info@yemenredcrescent.org,,Yemen Red Crescent Society,,15.9391,48.7899,YEM,Yemen,Yemen Red Crescent Society,,,7-Feb-24,Yes,Yes
,Shabwah Branch ,Administrative,1,Governorate Branch,Provincial,1,,,,,Ataq City,,,(967) (1) 278110,info@yemenredcrescent.org,,Yemen Red Crescent Society,,14.5269,46.8451,YEM,Yemen,Yemen Red Crescent Society,,,7-Feb-24,Yes,Yes
,Abyan Branch ,Administrative,1,Governorate Branch,Provincial,1,,,,,Abyan,,,(967) (1) 278111,info@yemenredcrescent.org,,Yemen Red Crescent Society,,13.78509764,45.78174675,YEM,Yemen,Yemen Red Crescent Society,,,7-Feb-24,Yes,Yes
,Al-bayda Branch ,Administrative,1,Governorate Branch,Provincial,1,,,,,Al-Bayda,,,(967) (1) 278112,info@yemenredcrescent.org,,Yemen Red Crescent Society,,13.9895,45.5719,YEM,Yemen,Yemen Red Crescent Society,,,7-Feb-24,Yes,Yes
,Mareb Branch ,Administrative,1,Governorate Branch,Provincial,1,,,,,Mareb city,,,(967) (1) 278113,info@yemenredcrescent.org,,Yemen Red Crescent Society,,15.4603,45.3221,YEM,Yemen,Yemen Red Crescent Society,,,7-Feb-24,Yes,Yes
,Lahj Branch ,Administrative,1,Governorate Branch,Provincial,1,,,,,Al Hawtah,,,(967) (1) 278114,info@yemenredcrescent.org,,Yemen Red Crescent Society,,13.0519,44.8827,YEM,Yemen,Yemen Red Crescent Society,,,7-Feb-24,Yes,Yes
,Al-Jawf Branch ,Administrative,1,Governorate Branch,Provincial,1,,,,,Al Hazm,,,(967) (1) 278115,info@yemenredcrescent.org,,Yemen Red Crescent Society,,16.1495,44.7869,YEM,Yemen,Yemen Red Crescent Society,,,7-Feb-24,Yes,Yes
,Al-Dhale'  Branch ,Administrative,1,Governorate Branch,Provincial,1,,,,,Al-Dhale',,,(967) (1) 278116,info@yemenredcrescent.org,,Yemen Red Crescent Society,,13.7073,44.7347,YEM,Yemen,Yemen Red Crescent Society,,,7-Feb-24,Yes,Yes
,Sana'a Governorate  Branch ,Administrative,1,Governorate Branch,Provincial,1,,,,,Sana'a,,,(967) (1) 278117,info@yemenredcrescent.org,,Yemen Red Crescent Society,,15.2811,44.2225,YEM,Yemen,Yemen Red Crescent Society,,,7-Feb-24,Yes,Yes
,Ibb  Branch ,Administrative,1,Governorate Branch,Provincial,1,,,,,Ibb,,,(967) (1) 278118,info@yemenredcrescent.org,,Yemen Red Crescent Society,,13.9679,44.1653,YEM,Yemen,Yemen Red Crescent Society,,,7-Feb-24,Yes,Yes
,Taiz  Branch ,Administrative,1,Governorate Branch,Provincial,1,,,,,Taiz,,,(967) (1) 278119,info@yemenredcrescent.org,,Yemen Red Crescent Society,,13.6111,44.0925,YEM,Yemen,Yemen Red Crescent Society,,,7-Feb-24,Yes,Yes
,Al-Mahweet  Branch ,Administrative,1,Governorate Branch,Provincial,1,,,,,Al Mahwait,,,(967) (1) 278120,info@yemenredcrescent.org,,Yemen Red Crescent Society,,15.4647,43.5501,YEM,Yemen,Yemen Red Crescent Society,,,7-Feb-24,Yes,Yes
,Raymah  Branch ,Administrative,1,Governorate Branch,Provincial,1,,,,,Rayma,,,(967) (1) 278121,info@yemenredcrescent.org,,Yemen Red Crescent Society,,14.6695,43.5245,YEM,Yemen,Yemen Red Crescent Society,,,7-Feb-24,Yes,Yes
,Al-Hodeida  Branch ,Administrative,1,Governorate Branch,Provincial,1,,,,,Al Hudiada city,,,(967) (1) 278122,info@yemenredcrescent.org,,Yemen Red Crescent Society,,14.7779,42.9613,YEM,Yemen,Yemen Red Crescent Society,,,7-Feb-24,Yes,Yes
,Hajjah  Branch ,Administrative,1,Governorate Branch,Provincial,1,,,,,Hajiah,,,(967) (1) 278123,info@yemenredcrescent.org,,Yemen Red Crescent Society,,15.694247,43.60582,YEM,Yemen,Yemen Red Crescent Society,,,7-Feb-24,Yes,Yes
,Amran  Branch ,Administrative,1,Governorate Branch,Provincial,1,,,,,Amran,,,(967) (1) 278124,info@yemenredcrescent.org,,Yemen Red Crescent Society,,15.660971,43.931906,YEM,Yemen,Yemen Red Crescent Society,,,7-Feb-24,Yes,Yes
,Socatra  Branch ,Administrative,1,Governorate Branch,Provincial,1,,,,,Socatra,,,(967) (1) 278125,info@yemenredcrescent.org,,Yemen Red Crescent Society,,12.6493,54.0183,YEM,Yemen,Yemen Red Crescent Society,,,7-Feb-24,Yes,Yes
,Sadaa  Branch ,Administrative,1,Governorate Branch,Provincial,1,,,,,Sadaa,,,(967) (1) 278126,info@yemenredcrescent.org,,Yemen Red Crescent Society,,16.93965,43.76086,YEM,Yemen,Yemen Red Crescent Society,,,7-Feb-24,Yes,Yes
,Aden  Branch ,Administrative,1,Governorate Branch,Provincial,1,,,,,Aden,,,(967) (1) 278127,info@yemenredcrescent.org,,Yemen Red Crescent Society,,12.781064,45.017499,YEM,Yemen,Yemen Red Crescent Society,,,7-Feb-24,Yes,Yes
,Dhamar  Branch ,Administrative,1,Governorate Branch,Provincial,1,,,,,Dhamar City,,,(967) (1) 278128,info@yemenredcrescent.org,,Yemen Red Crescent Society,,14.5433,44.3999,YEM,Yemen,Yemen Red Crescent Society,,,7-Feb-24,Yes,Yes
,Sana'a Branch ,Administrative,1,Governorate Branch,Provincial,1,,,,,Amanat Al-Asima,,,(967) (1) 278129,info@yemenredcrescent.org,,Yemen Red Crescent Society,,15.3563,44.1971,YEM,Yemen,Yemen Red Crescent Society,,,7-Feb-24,Yes,Yes
,Manakhah  Sub-Branch ,Administrative,1,Sub-Branch,Ward,3,,,,,Manakhah,,,(967) (1) 278130,info@yemenredcrescent.org,,Yemen Red Crescent Society,,15.066,43.65443,YEM,Yemen,Yemen Red Crescent Society,,,7-Feb-24,Yes,Yes
,Bani Al-Harith  Sub-Branch ,Administrative,1,Sub-Branch,Ward,3,,,,,Bani Alharith,,,(967) (1) 278131,info@yemenredcrescent.org,,Yemen Red Crescent Society,,15.426173,44.23,YEM,Yemen,Yemen Red Crescent Society,,,7-Feb-24,Yes,Yes
,Al-Turbah Sub-Branch ,Administrative,1,Sub-Branch,Ward,3,,,,,Al Turbah,,,(967) (1) 278132,info@yemenredcrescent.org,,Yemen Red Crescent Society,,13.2157,44.1273,YEM,Yemen,Yemen Red Crescent Society,,,7-Feb-24,Yes,Yes
,Mabian  Sub-Branch ,Administrative,1,Sub-Branch,Ward,3,,,,,Mabian,,,(967) (1) 278133,info@yemenredcrescent.org,,Yemen Red Crescent Society,,15.737726,43.557007,YEM,Yemen,Yemen Red Crescent Society,,,7-Feb-24,Yes,Yes
,Abs  Sub-Branch ,Administrative,1,Sub-Branch,Ward,3,,,,,Abs,,,(967) (1) 278134,info@yemenredcrescent.org,,Yemen Red Crescent Society,,16.01629,43.042994,YEM,Yemen,Yemen Red Crescent Society,,,7-Feb-24,Yes,Yes
Verenigingskantoor,Verenigingskantoor,Administrative,1,Head Office,Head Office,0,2593 HT,Anna van Saksenlaan 50,Anna van Saksenlaan 50,'S-GRAVENHAGE,'S-GRAVENHAGE,,,(31) (70) 4455666,info@redcross.nl,http://www.rodekruis.nl,The Netherlands Red Cross,The Netherlands Red Cross,52.0812206,4.3459609,NLD,Netherlands,The Netherlands Red Cross,,,7-Feb-24,Yes,Yes
District Amsterdam-Amstelland,District Amsterdam-Amstelland,Administrative,1,District Office,District,2,1011 LZ,Valkenburgerstraat 24,Valkenburgerstraat 24,AMSTERDAM,AMSTERDAM,,,(31) (70) 4455667,vrijwilligerswerkamsterdam@redcross.nl,https://www.rodekruis.nl/,The Netherlands Red Cross,The Netherlands Red Cross,52.3702505,4.9080238,NLD,Netherlands,The Netherlands Red Cross,,,7-Feb-24,Yes,Yes
District Brabant-Noord,District Brabant-Noord,Administrative,1,District Office,District,2,5281 JL,Jan Kruijsenstraat 13,Jan Kruijsenstraat 13,BOXTEL,BOXTEL,,,(31) (70) 4455668,ssc.brabantnoord@rodekruis.nl,https://www.rodekruis.nl/,The Netherlands Red Cross,The Netherlands Red Cross,51.5901895,5.3207074,NLD,Netherlands,The Netherlands Red Cross,,,7-Feb-24,Yes,Yes
District Brabant-Zuidoost,District Brabant-Zuidoost,Administrative,1,District Office,District,2,5613 DW,Willem van Konijnenburglaan 6,Willem van Konijnenburglaan 6,EINDHOVEN,EINDHOVEN,,,(31) (70) 4455669,info.brabantzuidoost@rodekruis.nl,http://www.rodekruis.nl/brabantzuidoost,The Netherlands Red Cross,The Netherlands Red Cross,51.438807,5.4952712,NLD,Netherlands,The Netherlands Red Cross,,,7-Feb-24,Yes,Yes
District Drenthe,District Drenthe,Administrative,1,District Office,District,2,9405 CD,Zendmastweg 15,Zendmastweg 15,ASSEN,ASSEN,,,(31) (70) 4455670,drenthe@rodekruis.nl,http://www.rodekruis.nl/drenthe,The Netherlands Red Cross,The Netherlands Red Cross,52.9953638,6.532671,NLD,Netherlands,The Netherlands Red Cross,,,7-Feb-24,Yes,Yes
District Flevoland,District Flevoland,Administrative,1,District Office,District,2,8223 EE,Wigstraat 15,Wigstraat 15,LELYSTAD,LELYSTAD,,,(31) (70) 4455671,ssc.flevoland@rodekruis.nl,http://www.rodekruis.nl/flevoland,The Netherlands Red Cross,The Netherlands Red Cross,52.5232967,5.4941024,NLD,Netherlands,The Netherlands Red Cross,,,7-Feb-24,Yes,Yes
District Fryslân,District Fryslân,Administrative,1,District Office,District,2,8912 AM,Celsiusweg 39,Celsiusweg 39,LEEUWARDEN,LEEUWARDEN,,,(31) (70) 4455672,evenementenhulpdistrictfriesland@rodekruis.nl,http://www.rodekruis.nl/fryslan,The Netherlands Red Cross,The Netherlands Red Cross,53.1962311,5.7618149,NLD,Netherlands,The Netherlands Red Cross,,,7-Feb-24,Yes,Yes
District Gelderland,District Gelderland,Administrative,1,District Office,District,2,7314 LD,Schuttersweg 41,Schuttersweg 41,APELDOORN,APELDOORN,,,(31) (70) 4455673,info.gelderland@rodekruis.nl,http://www.rodekruis.nl,The Netherlands Red Cross,The Netherlands Red Cross,52.2138568,5.9434509,NLD,Netherlands,The Netherlands Red Cross,,,7-Feb-24,Yes,Yes
District Groningen,District Groningen,Administrative,1,District Office,District,2,9743 AK,Atoomweg 2,Atoomweg 2,GRONINGEN,GRONINGEN,,,(31) (70) 4455674,helpdeskgroningen@rodekruis.nl,http://www.rodekruis.nl/groningen,The Netherlands Red Cross,The Netherlands Red Cross,53.2137108,6.5393727,NLD,Netherlands,The Netherlands Red Cross,,,7-Feb-24,Yes,Yes
District Haaglanden,District Haaglanden,Administrative,1,District Office,District,2,2544 ER,Zilverstraat 2,Zilverstraat 2,'S-GRAVENHAGE,'S-GRAVENHAGE,,,(31) (70) 4455675,evenementenhulp.haaglanden@rodekruis.nl,https://www.rodekruis.nl/,The Netherlands Red Cross,The Netherlands Red Cross,52.0497759,4.2578303,NLD,Netherlands,The Netherlands Red Cross,,,7-Feb-24,Yes,Yes
District Hollands Midden,District Hollands Midden,Administrative,1,District Office,District,2,2324 BR,Apollolaan 1,Apollolaan 1,LEIDEN,LEIDEN,,,(31) (70) 4455676,evenementenhulp.hollandsmidden@rodekruis.nl,https://www.rodekruis.nl/,The Netherlands Red Cross,The Netherlands Red Cross,52.1395043,4.4751851,NLD,Netherlands,The Netherlands Red Cross,,,7-Feb-24,Yes,Yes
District IJsselland,District IJsselland,Administrative,1,District Office,District,2,7314 LD,Schuttersweg 41,Schuttersweg 41,APELDOORN,APELDOORN,,,(31) (70) 4455677,evenementenhulp.ijsselland@rodekruis.nl,https://rodekruis.nl/ijsselland,The Netherlands Red Cross,The Netherlands Red Cross,52.2138568,5.9434509,NLD,Netherlands,The Netherlands Red Cross,,,7-Feb-24,Yes,Yes
District Kennemerland,District Kennemerland,Administrative,1,District Office,District,2,2025 TK,P/A Vergierdeweg 52,P/A Vergierdeweg 52,HAARLEM,HAARLEM,,,(31) (70) 4455678,igerrits@redcross.nl,https://www.rodekruis.nl/,The Netherlands Red Cross,The Netherlands Red Cross,52.4144633,4.6521705,NLD,Netherlands,The Netherlands Red Cross,,,7-Feb-24,Yes,Yes
District Midden- en West-Brabant,District Midden- en West-Brabant,Administrative,1,District Office,District,2,5015 TC,Centaurusweg 57,Centaurusweg 57,TILBURG,TILBURG,,,(31) (70) 4455679,secretariaat.districtmwb@rodekruis.nl,https://www.rodekruis.nl/midden-en-west-brabant/,The Netherlands Red Cross,The Netherlands Red Cross,51.5777965,5.1066236,NLD,Netherlands,The Netherlands Red Cross,,,7-Feb-24,Yes,Yes
District Noord- en Midden-Limburg,District Noord- en Midden-Limburg,Administrative,1,District Office,District,2,5802 CG,Leunseweg 53,Leunseweg 53,VENRAY,VENRAY,,,(31) (70) 4455680,ssc.nmlimburg@redcross.nl,https://www.rodekruis.nl/,The Netherlands Red Cross,The Netherlands Red Cross,51.5166165,5.9806113,NLD,Netherlands,The Netherlands Red Cross,,,7-Feb-24,Yes,Yes
District Noord-Holland-Noord,District Noord-Holland-Noord,Administrative,1,District Office,District,2,1823 DL,Hertog Aalbrechtweg 10,Hertog Aalbrechtweg 10,ALKMAAR,ALKMAAR,,,(31) (70) 4455681,werving.nhn@rodekruis.nl,https://www.rodekruis.nl/,The Netherlands Red Cross,The Netherlands Red Cross,52.6443919,4.7675018,NLD,Netherlands,The Netherlands Red Cross,,,7-Feb-24,Yes,Yes
District Rotterdam-Rijnmond,District Rotterdam-Rijnmond,Administrative,1,District Office,District,2,3012 JV,Mauritsweg 37,Mauritsweg 37,ROTTERDAM,ROTTERDAM,,,(31) (70) 4455682,rotterdam@redcross.nl,https://www.rodekruis.nl/,The Netherlands Red Cross,The Netherlands Red Cross,51.9187026,4.4727266,NLD,Netherlands,The Netherlands Red Cross,,,7-Feb-24,Yes,Yes
District Twente,District Twente,Administrative,1,District Office,District,2,7314 LD,Schuttersweg 41,Schuttersweg 41,APELDOORN,APELDOORN,,,(31) (70) 4455683,evenementenhulp.twente@rodekruis.nl,http://www.rodekruis.nl/twente,The Netherlands Red Cross,The Netherlands Red Cross,52.2138568,5.9434509,NLD,Netherlands,The Netherlands Red Cross,,,7-Feb-24,Yes,Yes
District Utrecht,District Utrecht,Administrative,1,District Office,District,2,3582 GE,Koningsweg 2,Koningsweg 2,UTRECHT,UTRECHT,,,(31) (70) 4455684,ssc.districtutrecht@rodekruis.nl,https://www.rodekruis.nl/,The Netherlands Red Cross,The Netherlands Red Cross,52.0780485,5.1334263,NLD,Netherlands,The Netherlands Red Cross,,,7-Feb-24,Yes,Yes
District Zeeland,District Zeeland,Administrative,1,District Office,District,2,4334 CN,Olmenhof 2,Olmenhof 2,MIDDELBURG,MIDDELBURG,,,(31) (70) 4455685,cbos@redcross.nl,https://www.rodekruis.nl/zeeland,The Netherlands Red Cross,The Netherlands Red Cross,51.500726,3.602155,NLD,Netherlands,The Netherlands Red Cross,,,7-Feb-24,Yes,Yes
District Zuid-Holland Zuid,District Zuid-Holland Zuid,Administrative,1,District Office,District,2,3319 EK,Dubbelsteynlaan West 43,Dubbelsteynlaan West 43,DORDRECHT,DORDRECHT,,,(31) (70) 4455686,frontoffice.districtzhz@redcross.nl,https://www.rodekruis.nl/zuid-holland-zuid/over-ons/dordrecht/,The Netherlands Red Cross,The Netherlands Red Cross,51.7937796,4.6954033,NLD,Netherlands,The Netherlands Red Cross,,,7-Feb-24,Yes,Yes
District Zuid-Limburg,District Zuid-Limburg,Administrative,1,District Office,District,2,6166 AM,Kinkenweg 13,Kinkenweg 13,GELEEN,GELEEN,,,(31) (70) 4455687,zuidlimburg@rodekruis.nl,https://www.rodekruis.nl/,The Netherlands Red Cross,The Netherlands Red Cross,50.9690091,5.8370936,NLD,Netherlands,The Netherlands Red Cross,,,7-Feb-24,Yes,Yes
Afdeling Amersfoort-Eemland,Branch Amersfoort-Eemland,Administrative,1,Branch Office,Ward,3,3814 WE,Columbusweg 30,Columbusweg 30,AMERSFOORT,AMERSFOORT,,,(31) (70) 4455688,info.amersfoorteemland@rodekruis.nl,http://www.rodekruis.nl,The Netherlands Red Cross,The Netherlands Red Cross,52.1599371,5.4024587,NLD,Netherlands,The Netherlands Red Cross,,,7-Feb-24,Yes,Yes
Afdeling Amstelveen,Branch Amstelveen,Administrative,1,Branch Office,Ward,3,1185 DM,Van der Leeklaan 3,Van der Leeklaan 3,AMSTELVEEN,AMSTELVEEN,,,(31) (70) 4455689,info@rodekruisamstelveen.nl,https://www.rodekruis.nl/,The Netherlands Red Cross,The Netherlands Red Cross,52.2968517,4.8555433,NLD,Netherlands,The Netherlands Red Cross,,,7-Feb-24,Yes,Yes
Afdeling Amsterdam,Branch Amsterdam,Administrative,1,Branch Office,Ward,3,1011 LZ,Valkenburgerstraat 24,Valkenburgerstraat 24,AMSTERDAM,AMSTERDAM,,,(31) (70) 4455690,ReceptieAmsterdam@redcross.nl,http://www.rodekruis.nl/amsterdam,The Netherlands Red Cross,The Netherlands Red Cross,52.3702505,4.9080238,NLD,Netherlands,The Netherlands Red Cross,,,7-Feb-24,Yes,Yes
Afdeling Aruba,Branch Aruba,Administrative,1,Branch Office,Ward,3,,Pedro Gallegostraat  14,Pedro Gallegostraat  14,Oranjestad,Oranjestad,,,(31) (70) 4455691,info@redcrossaruba.com,http://www.redcrossaruba.com,The Netherlands Red Cross,The Netherlands Red Cross,12.5096387,-70.0196733,ABW,Netherlands,The Netherlands Red Cross,,,7-Feb-24,Yes,Yes
Afdeling Baarn-Soest,Branch Baarn-Soest,Administrative,1,Branch Office,Ward,3,3741 AH,Burgemeester Penstraat 6,Burgemeester Penstraat 6,BAARN,BAARN,,,(31) (70) 4455692,evenementenhulp.baarnsoest@rodekruis.nl,http://www.rodekruis.nl,The Netherlands Red Cross,The Netherlands Red Cross,52.2127923,5.2932989,NLD,Netherlands,The Netherlands Red Cross,,,7-Feb-24,Yes,Yes
Afdeling Bocholtz-Simpelveld-Vaals,Branch Bocholtz-Simpelveld-Vaals,Administrative,1,Branch Office,Ward,3,6351 GG,Kerkstraat 13,Kerkstraat 13,BOCHOLTZ,BOCHOLTZ,,,(31) (70) 4455693,truus.timmers11@gmail.com,www.rodekruisbocholtzsimpelveldvaals.nl,The Netherlands Red Cross,The Netherlands Red Cross,50.8178299,6.0069085,NLD,Netherlands,The Netherlands Red Cross,,,7-Feb-24,Yes,Yes
Afdeling Brunssum e.o.,Branch Brunssum e.o.,Administrative,1,Branch Office,Ward,3,6442 AJ,De Insel 18,De Insel 18,BRUNSSUM,BRUNSSUM,,,(31) (70) 4455694,brunssum@rodekruis.nl,http://www.rodekruis.nl/brunssum,The Netherlands Red Cross,The Netherlands Red Cross,50.9493552,5.9822728,NLD,Netherlands,The Netherlands Red Cross,,,7-Feb-24,Yes,Yes
Afdeling Bunschoten-Spakenburg,Branch Bunschoten-Spakenburg,Administrative,1,Branch Office,Ward,3,3752 WV,Bikkersweg 3,Bikkersweg 3,BUNSCHOTEN-SPAKENBURG,BUNSCHOTEN-SPAKENBURG,,,(31) (70) 4455695,admin.nrkbunschoten@kpnmail.nl,https://www.rodekruis.nl/,The Netherlands Red Cross,The Netherlands Red Cross,52.2434956,5.3723462,NLD,Netherlands,The Netherlands Red Cross,,,7-Feb-24,Yes,Yes
Afdeling De Bilt,Branch De Bilt,Administrative,1,Branch Office,Ward,3,3732 BA,Sint Laurensweg 13,Sint Laurensweg 13,DE BILT,DE BILT,,,(31) (70) 4455696,ssc.districtutrecht@rodekruis.nl,https://www.rodekruis.nl/,The Netherlands Red Cross,The Netherlands Red Cross,52.1122311,5.1860065,NLD,Netherlands,The Netherlands Red Cross,,,7-Feb-24,Yes,Yes
Afdeling Eijsden-Margraten,Branch Eijsden-Margraten,Administrative,1,Branch Office,Ward,3,6245 MH,Kerkweg 2,Kerkweg 2,EIJSDEN,EIJSDEN,,,(31) (70) 4455697,richonne2001@ziggo.nl,http://www.rodekruis.nl/eijsden-margraten,The Netherlands Red Cross,The Netherlands Red Cross,50.7773424,5.7077516,NLD,Netherlands,The Netherlands Red Cross,,,7-Feb-24,Yes,Yes
Afdeling Elburg en Oldebroek,Branch Elburg en Oldebroek,Administrative,1,Branch Office,Ward,3,8096 BB,Stouwdamsweg 2,Stouwdamsweg 2,OLDEBROEK,OLDEBROEK,,,(31) (70) 4455698,info.oldebroek@rodekruis.nl,https://afdeling.rodekruis.nl/gelderland/over-ons/elburg-en-oldebroek/,The Netherlands Red Cross,The Netherlands Red Cross,52.4465827,5.9065434,NLD,Netherlands,The Netherlands Red Cross,,,7-Feb-24,Yes,Yes
Afdeling Geleen e.o.,Branch Geleen e.o.,Administrative,1,Branch Office,Ward,3,6166 AM,Kinkenweg 13,Kinkenweg 13,GELEEN,GELEEN,,,(31) (70) 4455699,info.geleen@rodekruis.nl,http://rodekruis.nl/geleen,The Netherlands Red Cross,The Netherlands Red Cross,50.9690091,5.8370936,NLD,Netherlands,The Netherlands Red Cross,,,7-Feb-24,Yes,Yes
Afdeling Gooi en Vechtstreek,Branch Gooi en Vechtstreek,Administrative,1,Branch Office,Ward,3,1402 AT,Torenlaan 11,Torenlaan 11,BUSSUM,BUSSUM,,,(31) (70) 4455700,evenementengenv@rodekruis.nl,https://www.rodekruis.nl/,The Netherlands Red Cross,The Netherlands Red Cross,52.270967,5.1649636,NLD,Netherlands,The Netherlands Red Cross,,,7-Feb-24,Yes,Yes
Afdeling Haaksbergen,Branch Haaksbergen,Administrative,1,Branch Office,Ward,3,7482 ZK,Adriaen Brouwerstraat 10,Adriaen Brouwerstraat 10,HAAKSBERGEN,HAAKSBERGEN,,,(31) (70) 4455701,secretaris.haaksbergen@rodekruis.nl,https://www.rodekruis.nl/twente/,The Netherlands Red Cross,The Netherlands Red Cross,52.1612477,6.7276769,NLD,Netherlands,The Netherlands Red Cross,,,7-Feb-24,Yes,Yes
Afdeling Heerlen e.o.,Branch Heerlen e.o.,Administrative,1,Branch Office,Ward,3,6412 PP,Maasstraat 10,Maasstraat 10,HEERLEN,HEERLEN,,,(31) (70) 4455702,secretarisheerlen@rodekruis.nl,https://www.rodekruis.nl/,The Netherlands Red Cross,The Netherlands Red Cross,50.9028688,5.9620136,NLD,Netherlands,The Netherlands Red Cross,,,7-Feb-24,Yes,Yes
Afdeling Hellendoorn-Nijverdal,Branch Hellendoorn-Nijverdal,Administrative,1,Branch Office,Ward,3,7441 GZ,Piet Heinweg 16,Piet Heinweg 16,NIJVERDAL,NIJVERDAL,,,(31) (70) 4455703,hellendoornnijverdal@rodekruis.nl,http://www.rodekruis.nl/twente,The Netherlands Red Cross,The Netherlands Red Cross,52.367923,6.4483349,NLD,Netherlands,The Netherlands Red Cross,,,7-Feb-24,Yes,Yes
Afdeling Hengelo-Borne,Branch Hengelo-Borne,Administrative,1,Branch Office,Ward,3,7553 LC,Marnixstraat 1,Marnixstraat 1,HENGELO OV,HENGELO OV,,,(31) (70) 4455704,hengelo-borne@rodekruis.nl,https://www.rodekruis.nl/,The Netherlands Red Cross,The Netherlands Red Cross,52.2529109,6.7997445,NLD,Netherlands,The Netherlands Red Cross,,,7-Feb-24,Yes,Yes
Afdeling IJmond,Branch IJmond,Administrative,1,Branch Office,Ward,3,1981 AE,'s Gravenlust 35,'s Gravenlust 35,VELSEN-ZUID,VELSEN-ZUID,,,(31) (70) 4455705,secretaris.ijmond@rodekruis.nl,http://www.rodekruis.nl/ijmond,The Netherlands Red Cross,The Netherlands Red Cross,52.4597809,4.6507394,NLD,Netherlands,The Netherlands Red Cross,,,7-Feb-24,Yes,Yes
Afdeling Kerkrade,Branch Kerkrade,Administrative,1,Branch Office,Ward,3,6461 JK,Lambertistraat 10,Lambertistraat 10,KERKRADE,KERKRADE,,,(31) (70) 4455706,bestuur.kerkrade@rodekruis.nl,https://www.rodekruis.nl/kerkrade/,The Netherlands Red Cross,The Netherlands Red Cross,50.8638576,6.0755368,NLD,Netherlands,The Netherlands Red Cross,,,7-Feb-24,Yes,Yes
Afdeling Landgraaf,Branch Landgraaf,Administrative,1,Branch Office,Ward,3,6372 AC,Strijthagerweg 2,Strijthagerweg 2,LANDGRAAF,LANDGRAAF,,,(31) (70) 4455707,evenementenhulp.landgraaf@rodekruis.nl,http://www.rodekruislandgraaf.nl,The Netherlands Red Cross,The Netherlands Red Cross,50.884669,6.0179003,NLD,Netherlands,The Netherlands Red Cross,,,7-Feb-24,Yes,Yes
Afdeling Lekstroom,Branch Lekstroom,Administrative,1,Branch Office,Ward,3,3433 NN,Constructieweg 6,Constructieweg 6,NIEUWEGEIN,NIEUWEGEIN,,,(31) (70) 4455708,ssc.districtutrecht@rodekruis.nl,https://www.rodekruis.nl/,The Netherlands Red Cross,The Netherlands Red Cross,52.0128036,5.1020972,NLD,Netherlands,The Netherlands Red Cross,,,7-Feb-24,Yes,Yes
"Afdeling Maastricht, Meerssen, Mergelland","Branch Maastricht, Meerssen, Mergelland",Administrative,1,Branch Office,Ward,3,6211 HT,Cortenstraat 7,Cortenstraat 7,MAASTRICHT,MAASTRICHT,,,(31) (70) 4455709,info@rodekruisM3.nl,http://www.rodekruism3.nl,The Netherlands Red Cross,The Netherlands Red Cross,50.846811,5.69212,NLD,Netherlands,The Netherlands Red Cross,,,7-Feb-24,Yes,Yes
Afdeling Noord-Kennemerland,Branch Noord-Kennemerland,Administrative,1,Branch Office,Ward,3,1823 DL,Hertog Aalbrechtweg 10,Hertog Aalbrechtweg 10,ALKMAAR,ALKMAAR,,,(31) (70) 4455710,evenementenhulp.noord-kennemerland@rodekruis.nl,www.rodekruis.nl/noord-kennemerland,The Netherlands Red Cross,The Netherlands Red Cross,52.6443919,4.7675018,NLD,Netherlands,The Netherlands Red Cross,,,7-Feb-24,Yes,Yes
Afdeling Noordkop,Branch Noordkop,Administrative,1,Branch Office,Ward,3,1782 TA,Bankastraat 27,Bankastraat 27,DEN HELDER,DEN HELDER,,,(31) (70) 4455711,secretaris.noordkop@rodekruis.nl,https://www.rodekruis.nl/,The Netherlands Red Cross,The Netherlands Red Cross,52.9583694,4.7496693,NLD,Netherlands,The Netherlands Red Cross,,,7-Feb-24,Yes,Yes
Afdeling Ouder Amstel,Branch Ouder Amstel,Administrative,1,Branch Office,Ward,3,1115 GP,In de Korenmolen 30,In de Korenmolen 30,DUIVENDRECHT,DUIVENDRECHT,,,(31) (70) 4455712,vvanderdoes@hotmail.com,http://www.rodekruis.nl/ouder-amstel,The Netherlands Red Cross,The Netherlands Red Cross,52.3310155,4.9422962,NLD,Netherlands,The Netherlands Red Cross,,,7-Feb-24,Yes,Yes
Afdeling Rhenen,Branch Rhenen,Administrative,1,Branch Office,Ward,3,3911 LD,Kerkstraat 1,Kerkstraat 1,RHENEN,RHENEN,,,(31) (70) 4455713,hulpverlening@rodekruisrhenen.nl,http://www.rodekruisrhenen.nl,The Netherlands Red Cross,The Netherlands Red Cross,51.9570295,5.5652263,NLD,Netherlands,The Netherlands Red Cross,,,7-Feb-24,Yes,Yes
Afdeling Sittard e.o.,Branch Sittard e.o.,Administrative,1,Branch Office,Ward,3,6136 HM,Hemelsley 20,Hemelsley 20,SITTARD,SITTARD,,,(31) (70) 4455714,info.sittard@rodekruis.nl,https://www.rodekruis.nl/zuid-limburg/over-ons/sittard/,The Netherlands Red Cross,The Netherlands Red Cross,51.0047685,5.8790188,NLD,Netherlands,The Netherlands Red Cross,,,7-Feb-24,Yes,Yes
Afdeling Texel,Branch Texel,Administrative,1,Branch Office,Ward,3,1791 GN,Jonkerstraat 13,Jonkerstraat 13,DEN BURG,DEN BURG,,,(31) (70) 4455715,rvandersande@rodekruis.nl,https://www.rodekruis.nl/,The Netherlands Red Cross,The Netherlands Red Cross,53.0560031,4.7920095,NLD,Netherlands,The Netherlands Red Cross,,,7-Feb-24,Yes,Yes
Afdeling Uithoorn,Branch Uithoorn,Administrative,1,Branch Office,Ward,3,1422 CX,Achterberglaan 63,Achterberglaan 63,UITHOORN,UITHOORN,,,(31) (70) 4455716,ag.nyland@planet.nl,http://www.rodekruis.nl/uithoorn,The Netherlands Red Cross,The Netherlands Red Cross,52.2452468,4.8323609,NLD,Netherlands,The Netherlands Red Cross,,,7-Feb-24,Yes,Yes
Afdeling Utrecht,Branch Utrecht,Administrative,1,Branch Office,Ward,3,3582 GE,Koningsweg 2,Koningsweg 2,UTRECHT,UTRECHT,,,(31) (70) 4455717,info.utrecht@rodekruis.nl,http://www.rodekruis.nl/utrecht,The Netherlands Red Cross,The Netherlands Red Cross,52.0780485,5.1334263,NLD,Netherlands,The Netherlands Red Cross,,,7-Feb-24,Yes,Yes
Afdeling Utrechtse Heuvelrug,Branch Utrechtse Heuvelrug,Administrative,1,Branch Office,Ward,3,3972 GM,Dennenhorst 22,Dennenhorst 22,DRIEBERGEN-RIJSENBURG,DRIEBERGEN-RIJSENBURG,,,(31) (70) 4455718,utrechtseheuvelrug@rodekruis.nl,http://www.rodekruis.nl/utrechtseheuvelrug,The Netherlands Red Cross,The Netherlands Red Cross,52.0475307,5.2907549,NLD,Netherlands,The Netherlands Red Cross,,,7-Feb-24,Yes,Yes
Afdeling Valkenburg aan de Geul/Nuth,Branch Valkenburg aan de Geul/Nuth,Administrative,1,Branch Office,Ward,3,6301 HM,Bosstraat 5,Bosstraat 5,VALKENBURG LB,VALKENBURG LB,,,(31) (70) 4455719,relshout@rodekruis.nl,https://www.rodekruis.nl/,The Netherlands Red Cross,The Netherlands Red Cross,50.8717929,5.8233347,NLD,Netherlands,The Netherlands Red Cross,,,7-Feb-24,Yes,Yes
Afdeling Veenendaal,Branch Veenendaal,Administrative,1,Branch Office,Ward,3,3901 ER,De Sterke Arm 10,De Sterke Arm 10,VEENENDAAL,VEENENDAAL,,,(31) (70) 4455720,info.veenendaal@rodekruis.nl,http://www.rodekruis.nl/veenendaal/,The Netherlands Red Cross,The Netherlands Red Cross,52.0220626,5.5563065,NLD,Netherlands,The Netherlands Red Cross,,,7-Feb-24,Yes,Yes
Afdeling Vijfheerenlanden,Branch Vijfheerenlanden,Administrative,1,Branch Office,Ward,3,4121 EC,Bingse Boogaard 47,Bingse Boogaard 47,EVERDINGEN,EVERDINGEN,,,(31) (70) 4455721,info.vijfheerenlanden@rodekruis.nl,https://www.rodekruis.nl/,The Netherlands Red Cross,The Netherlands Red Cross,51.9637516,5.1556423,NLD,Netherlands,The Netherlands Red Cross,,,7-Feb-24,Yes,Yes
Afdeling West-Friesland,Branch West-Friesland,Administrative,1,Branch Office,Ward,3,1624 XG,Vredehofstraat 9,Vredehofstraat 9,HOORN NH,HOORN NH,,,(31) (70) 4455722,helpdesknhn@rodekruis.nl,https://www.rodekruis.nl/,The Netherlands Red Cross,The Netherlands Red Cross,52.6507454,5.0596737,NLD,Netherlands,The Netherlands Red Cross,,,7-Feb-24,Yes,Yes
Afdeling Zaanstreek-Waterland,Branch Zaanstreek-Waterland,Administrative,1,Branch Office,Ward,3,1441 RT,Waterlandlaan 101,Waterlandlaan 101,PURMEREND,PURMEREND,,,(31) (70) 4455723,frontoffice.districtnhn@rodekruis.nl,https://www.rodekruis.nl/,The Netherlands Red Cross,The Netherlands Red Cross,52.503141,4.961024,NLD,Netherlands,The Netherlands Red Cross,,,7-Feb-24,Yes,Yes
Afdeling Zeist,Branch Zeist,Administrative,1,Branch Office,Ward,3,3704 ET,Kwartellaan 13,Kwartellaan 13,ZEIST,ZEIST,,,(31) (70) 4455724,ssc.districtutrecht@rodekruis.nl,https://www.rodekruis.nl/,The Netherlands Red Cross,The Netherlands Red Cross,52.092394,5.2134048,NLD,Netherlands,The Netherlands Red Cross,,,7-Feb-24,Yes,Yes
Afdeling Zuid-Kennemerland,Branch Zuid-Kennemerland,Administrative,1,Branch Office,Ward,3,2025 TK,Vergierdeweg 52,Vergierdeweg 52,HAARLEM,HAARLEM,,,(31) (70) 4455725,supportkennemerland@redcross.nl,https://www.rodekruis.nl/,The Netherlands Red Cross,The Netherlands Red Cross,52.4144633,4.6521705,NLD,Netherlands,The Netherlands Red Cross,,,7-Feb-24,Yes,Yes
Locatie Achterhoek Oost,Location Achterhoek Oost,Administrative,1,Branch Office,Ward,3,7101 DX,Gasthuisstraat 78,Gasthuisstraat 78,WINTERSWIJK,WINTERSWIJK,,,(31) (70) 4455726,evenementenhulp.achterhoekoost@rodekruis.nl,https://www.rodekruis.nl/,The Netherlands Red Cross,The Netherlands Red Cross,51.9734838,6.7153659,NLD,Netherlands,The Netherlands Red Cross,,,7-Feb-24,Yes,Yes
Locatie Alblasserwaard,Location Alblasserwaard,Administrative,1,Branch Office,Ward,3,3356 LX,Buitendijks 2,Buitendijks 2,PAPENDRECHT,PAPENDRECHT,,,(31) (70) 4455727,info.alblasserwaard@rodekruis.nl,https://www.rodekruis.nl/zuid-holland-zuid/over-ons/alblasserwaard/,The Netherlands Red Cross,The Netherlands Red Cross,51.8284543,4.729691,NLD,Netherlands,The Netherlands Red Cross,,,7-Feb-24,Yes,Yes
Locatie Almelo,Location Almelo,Administrative,1,Branch Office,Ward,3,7607 NJ,Hofkampstraat 102,Hofkampstraat 102,ALMELO,ALMELO,,,(31) (70) 4455728,almelo@rodekruis.nl,http://www.rodekruis.nl/almelo,The Netherlands Red Cross,The Netherlands Red Cross,52.3532884,6.6735415,NLD,Netherlands,The Netherlands Red Cross,,,7-Feb-24,Yes,Yes
Locatie Almere,Location Almere,Administrative,1,Branch Office,Ward,3,1315 BC,Wagenmakerbaan 47,Wagenmakerbaan 47,ALMERE,ALMERE,,,(31) (70) 4455729,ssc.flevoland@rodekruis.nl,http://www.rodekruisalmere.nl,The Netherlands Red Cross,The Netherlands Red Cross,52.3694673,5.2145011,NLD,Netherlands,The Netherlands Red Cross,,,7-Feb-24,Yes,Yes
Locatie Alphen aan den Rijn,Location Alphen aan den Rijn,Administrative,1,Branch Office,Ward,3,2404 EV,Dillenburg 2,Dillenburg 2,ALPHEN AAN DEN RIJN,ALPHEN AAN DEN RIJN,,,(31) (70) 4455730,hulpverlening.alphenadrijn@rodekruis.nl,http://www.rodekruis.nl/alphenaandenrijn,The Netherlands Red Cross,The Netherlands Red Cross,52.1333675,4.6529252,NLD,Netherlands,The Netherlands Red Cross,,,7-Feb-24,Yes,Yes
Locatie Apeldoorn,Location Apeldoorn,Administrative,1,Branch Office,Ward,3,7314 LD,Schuttersweg 41,Schuttersweg 41,APELDOORN,APELDOORN,,,(31) (70) 4455731,secretariaat.apeldoorn@rodekruis.nl,http://www.rodekruis.nl/apeldoorn,The Netherlands Red Cross,The Netherlands Red Cross,52.2138568,5.9434509,NLD,Netherlands,The Netherlands Red Cross,,,7-Feb-24,Yes,Yes
Locatie Arnhem,Location Arnhem,Administrative,1,Branch Office,Ward,3,6815 CD,Cattepoelseweg 263,Cattepoelseweg 263,ARNHEM,ARNHEM,,,(31) (70) 4455732,arnhem@redcross.nl,http://www.rodekruis.nl/arnhem,The Netherlands Red Cross,The Netherlands Red Cross,52.0036832,5.9097733,NLD,Netherlands,The Netherlands Red Cross,,,7-Feb-24,Yes,Yes
Locatie Assen-Vries,Location Assen-Vries,Administrative,1,Branch Office,Ward,3,9405 CD,Zendmastweg 15,Zendmastweg 15,ASSEN,ASSEN,,,(31) (70) 4455733,evenementenhulp.assenvries@rodekruis.nl,https://www.rodekruis.nl/,The Netherlands Red Cross,The Netherlands Red Cross,52.9953638,6.532671,NLD,Netherlands,The Netherlands Red Cross,,,7-Feb-24,Yes,Yes
Locatie Barneveld,Location Barneveld,Administrative,1,Branch Office,Ward,3,3771 LA,Nijkerkerweg 119,Nijkerkerweg 119,BARNEVELD,BARNEVELD,,,(31) (70) 4455734,barneveldserodekruis@gmail.com,http://www.rodekruis.nl/afdeling/barneveld,The Netherlands Red Cross,The Netherlands Red Cross,52.1505605,5.5667645,NLD,Netherlands,The Netherlands Red Cross,,,7-Feb-24,Yes,Yes
Locatie Bergen op Zoom e.o.,Location Bergen op Zoom e.o.,Administrative,1,Branch Office,Ward,3,4611 PC,Koevoetstraat 52,Koevoetstraat 52,BERGEN OP ZOOM,BERGEN OP ZOOM,,,(31) (70) 4455735,evenementenhulp.districtmwb@rodekruis.nl,https://afdeling.rodekruis.nl/midden-en-west-brabant/,The Netherlands Red Cross,The Netherlands Red Cross,51.4938356,4.2895245,NLD,Netherlands,The Netherlands Red Cross,,,7-Feb-24,Yes,Yes
Locatie Berkelland,Location Berkelland,Administrative,1,Branch Office,Ward,3,7271 BT,Haarloseweg 2,Haarloseweg 2,BORCULO,BORCULO,,,(31) (70) 4455736,info.berkelland@rodekruis.nl,http://rodekruis.nl/berkelland,The Netherlands Red Cross,The Netherlands Red Cross,52.1117226,6.5222163,NLD,Netherlands,The Netherlands Red Cross,,,7-Feb-24,Yes,Yes
Locatie Bodegraven e.o.,Location Bodegraven e.o.,Administrative,1,Branch Office,Ward,3,2411 XK,Koninginneweg 3,Koninginneweg 3,BODEGRAVEN,BODEGRAVEN,,,(31) (70) 4455737,info@rodekruisbodegraven.nl,http://www.rodekruisbodegraven.nl,The Netherlands Red Cross,The Netherlands Red Cross,52.0870989,4.7562827,NLD,Netherlands,The Netherlands Red Cross,,,7-Feb-24,Yes,Yes
Locatie Brummen-Eerbeek-Hall-Loenen,Location Brummen-Eerbeek-Hall-Loenen,Administrative,1,Branch Office,Ward,3,6961 AB,Handelstraat 45,Handelstraat 45,EERBEEK,EERBEEK,,,(31) (70) 4455738,secretaris.behl@rodekruis.nl,https://www.rodekruis.nl/brummen-eerbeek-hall-loenen/,The Netherlands Red Cross,The Netherlands Red Cross,52.1103778,6.0554156,NLD,Netherlands,The Netherlands Red Cross,,,7-Feb-24,Yes,Yes
Locatie Centraal Groningen,Location Centraal Groningen,Administrative,1,Branch Office,Ward,3,9743 AK,Atoomweg 2,Atoomweg 2,GRONINGEN,GRONINGEN,,,(31) (70) 4455739,info.centraalgroningen@rodekruis.nl,https://www.rodekruis.nl/,The Netherlands Red Cross,The Netherlands Red Cross,53.2137108,6.5393727,NLD,Netherlands,The Netherlands Red Cross,,,7-Feb-24,Yes,Yes
Locatie De Baronie,Location De Baronie,Administrative,1,Branch Office,Ward,3,4815 HV,Spinveld 47,Spinveld 47,BREDA,BREDA,,,(31) (70) 4455740,secretariaat.districtmwb@rodekruis.nl,https://www.rodekruis.nl/midden-en-west-brabant/,The Netherlands Red Cross,The Netherlands Red Cross,51.5984174,4.7528858,NLD,Netherlands,The Netherlands Red Cross,,,7-Feb-24,Yes,Yes
Locatie De Graafschap,Location De Graafschap,Administrative,1,Branch Office,Ward,3,7203 EL,Van Drinenstraat 4,Van Drinenstraat 4,ZUTPHEN,ZUTPHEN,,,(31) (70) 4455741,evenementenhulp.degraafschap@rodekruis.nl,http://www.rodekruis.nl/afdeling/de-graafschap,The Netherlands Red Cross,The Netherlands Red Cross,52.1500629,6.2165193,NLD,Netherlands,The Netherlands Red Cross,,,7-Feb-24,Yes,Yes
Locatie De Liemers,Location De Liemers,Administrative,1,Branch Office,Ward,3,6901 DK,Vincent van Goghstraat 4,Vincent van Goghstraat 4,ZEVENAAR,ZEVENAAR,,,(31) (70) 4455742,cgerritsen@rodekruis.nl,https://www.rodekruis.nl/,The Netherlands Red Cross,The Netherlands Red Cross,51.9304632,6.0683146,NLD,Netherlands,The Netherlands Red Cross,,,7-Feb-24,Yes,Yes
Locatie Delft Midden-Delfland,Location Delft Midden-Delfland,Administrative,1,Branch Office,Ward,3,2624 AV,Vulcanusweg 263,Vulcanusweg 263,DELFT,DELFT,,,(31) (70) 4455743,info.delft@rodekruis.nl,http://www.rodekruis.nl/delft-midden-delfland,The Netherlands Red Cross,The Netherlands Red Cross,51.996536,4.360647,NLD,Netherlands,The Netherlands Red Cross,,,7-Feb-24,Yes,Yes
Locatie Den Haag-Rijswijk-Wassenaar,Location Den Haag-Rijswijk-Wassenaar,Administrative,1,Branch Office,Ward,3,2544 ER,Zilverstraat 2,Zilverstraat 2,'S-GRAVENHAGE,'S-GRAVENHAGE,,,(31) (70) 4455744,info.denhaag@rodekruis.nl,https://www.rodekruis.nl/,The Netherlands Red Cross,The Netherlands Red Cross,52.0497759,4.2578303,NLD,Netherlands,The Netherlands Red Cross,,,7-Feb-24,Yes,Yes
Locatie Deventer,Location Deventer,Administrative,1,Branch Office,Ward,3,7411 GZ,Waltorenpad 3,Waltorenpad 3,DEVENTER,DEVENTER,,,(31) (70) 4455745,secretariaat.deventer@rodekruis.nl,http://www.rodekruis.nl/deventer,The Netherlands Red Cross,The Netherlands Red Cross,52.2531221,6.1642809,NLD,Netherlands,The Netherlands Red Cross,,,7-Feb-24,Yes,Yes
Locatie Dinkelland-Oldenzaal-Tubbergen,Location Dinkelland-Oldenzaal-Tubbergen,Administrative,1,Branch Office,Ward,3,7591 BH,Nordhornsestraat 64,Nordhornsestraat 64,DENEKAMP,DENEKAMP,,,(31) (70) 4455746,evenementenhulpdot@rodekruis.nl,https://www.rodekruis.nl/,The Netherlands Red Cross,The Netherlands Red Cross,52.3796845,7.0113573,NLD,Netherlands,The Netherlands Red Cross,,,7-Feb-24,Yes,Yes
Locatie Doetinchem,Location Doetinchem,Administrative,1,Branch Office,Ward,3,7002 MZ,Bachlaan 7,Bachlaan 7,DOETINCHEM,DOETINCHEM,,,(31) (70) 4455747,secretaris.doetinchem@rodekruis.nl,http://www.rodekruis.nl/doetinchem,The Netherlands Red Cross,The Netherlands Red Cross,51.9668038,6.3016812,NLD,Netherlands,The Netherlands Red Cross,,,7-Feb-24,Yes,Yes
Locatie Dokkum,Location Dokkum,Administrative,1,Branch Office,Ward,3,9101 PL,Oostergoweg 4,Oostergoweg 4,DOKKUM,DOKKUM,,,(31) (70) 4455748,helpdeskfriesland@rodekruis.nl,www.rodekruis.nl/fryslan,The Netherlands Red Cross,The Netherlands Red Cross,53.3270056,5.9785093,NLD,Netherlands,The Netherlands Red Cross,,,7-Feb-24,Yes,Yes
Locatie Dordrecht,Location Dordrecht,Administrative,1,Branch Office,Ward,3,3319 EK,Dubbelsteynlaan West 43,Dubbelsteynlaan West 43,DORDRECHT,DORDRECHT,,,(31) (70) 4455749,evenementenhulp.zuidhollandzuid@rodekruis.nl,https://www.rodekruis.nl/zuid-holland-zuid/over-ons/dordrecht/,The Netherlands Red Cross,The Netherlands Red Cross,51.7937796,4.6954033,NLD,Netherlands,The Netherlands Red Cross,,,7-Feb-24,Yes,Yes
Locatie Drachten,Location Drachten,Administrative,1,Branch Office,Ward,3,9201 CC,Omloop 42,Omloop 42,DRACHTEN,DRACHTEN,,,(31) (70) 4455750,helpdeskfriesland@rodekruis.nl,www.rodekruis.nl/fryslan,The Netherlands Red Cross,The Netherlands Red Cross,53.1096115,6.0841238,NLD,Netherlands,The Netherlands Red Cross,,,7-Feb-24,Yes,Yes
Locatie Driestromenland,Location Driestromenland,Administrative,1,Branch Office,Ward,3,6641 MS,Ornament 34,Ornament 34,BEUNINGEN GLD,BEUNINGEN GLD,,,(31) (70) 4455751,evenementenhulp.driestromenland@rodekruis.nl,https://www.rodekruis.nl/,The Netherlands Red Cross,The Netherlands Red Cross,51.8632221,5.7621313,NLD,Netherlands,The Netherlands Red Cross,,,7-Feb-24,Yes,Yes
Locatie Dronten,Location Dronten,Administrative,1,Branch Office,Ward,3,8253 PA,De Gouwe 50,De Gouwe 50,DRONTEN,DRONTEN,,,(31) (70) 4455752,ssc.flevoland@rodekruis.nl,http://www.rodekruis.nl/dronten,The Netherlands Red Cross,The Netherlands Red Cross,52.5396772,5.7012507,NLD,Netherlands,The Netherlands Red Cross,,,7-Feb-24,Yes,Yes
Locatie Ede e.o.,Location Ede e.o.,Administrative,1,Branch Office,Ward,3,6711 MK,Klinkenbergerweg 30,Klinkenbergerweg 30,EDE,EDE,,,(31) (70) 4455753,info@rodekruisede.nl,http://www.rodekruis.nl/ede,The Netherlands Red Cross,The Netherlands Red Cross,52.0411455,5.6719435,NLD,Netherlands,The Netherlands Red Cross,,,7-Feb-24,Yes,Yes
Locatie Eindhoven e.o.,Location Eindhoven e.o.,Administrative,1,Branch Office,Ward,3,5613 DW,Willem van Konijnenburglaan 6,Willem van Konijnenburglaan 6,EINDHOVEN,EINDHOVEN,,,(31) (70) 4455754,info.brabantzuidoost@rodekruis.nl,http://www.rodekruis.nl/brabantzuidoost,The Netherlands Red Cross,The Netherlands Red Cross,51.438807,5.4952712,NLD,Netherlands,The Netherlands Red Cross,,,7-Feb-24,Yes,Yes
Locatie Emmen,Location Emmen,Administrative,1,Branch Office,Ward,3,7821 CE,Nijbracht 140,Nijbracht 140,EMMEN,EMMEN,,,(31) (70) 4455755,bestuur.emmen@rodekruis.nl,http://www.rodekruis.nl/emmen,The Netherlands Red Cross,The Netherlands Red Cross,52.7705586,6.901888,NLD,Netherlands,The Netherlands Red Cross,,,7-Feb-24,Yes,Yes
Locatie Enschede,Location Enschede,Administrative,1,Branch Office,Ward,3,7522 CB,Deurningerstraat 209,Deurningerstraat 209,ENSCHEDE,ENSCHEDE,,,(31) (70) 4455756,ehbo.enschede@rodekruis.nl,http://www.rodekruis.nl/enschede,The Netherlands Red Cross,The Netherlands Red Cross,52.2304801,6.8888447,NLD,Netherlands,The Netherlands Red Cross,,,7-Feb-24,Yes,Yes
Locatie Franeker-Harlingen,Location Franeker-Harlingen,Administrative,1,Branch Office,Ward,3,8801 PN,Edisonstraat 32,Edisonstraat 32,FRANEKER,FRANEKER,,,(31) (70) 4455757,helpdeskfriesland@rodekruis.nl,www.rodekruis.nl/fryslan,The Netherlands Red Cross,The Netherlands Red Cross,53.1829632,5.5117601,NLD,Netherlands,The Netherlands Red Cross,,,7-Feb-24,Yes,Yes
Locatie Gieten-Gasselte,Location Gieten-Gasselte,Administrative,1,Branch Office,Ward,3,9461 LP,Speenkruid 1,Speenkruid 1,GIETEN,GIETEN,,,(31) (70) 4455758,MTenBerge@RodeKruis.nl,https://www.rodekruis.nl/,The Netherlands Red Cross,The Netherlands Red Cross,52.9971756,6.7733789,NLD,Netherlands,The Netherlands Red Cross,,,7-Feb-24,Yes,Yes
Locatie Goeree-Overflakkee,Location Goeree-Overflakkee,Administrative,1,Branch Office,Ward,3,3245 ME,Marnix Gijsenstraat 7,Marnix Gijsenstraat 7,SOMMELSDIJK,SOMMELSDIJK,,,(31) (70) 4455759,evenementenhulp.go@rodekruis.nl,https://www.rodekruis.nl/,The Netherlands Red Cross,The Netherlands Red Cross,51.7637203,4.1539073,NLD,Netherlands,The Netherlands Red Cross,,,7-Feb-24,Yes,Yes
Locatie Gouda e.o.,Location Gouda e.o.,Administrative,1,Branch Office,Ward,3,2801 PZ,Punt 6,Punt 6,GOUDA,GOUDA,,,(31) (70) 4455760,info@rodekruisgouda.nl,http://www.rodekruisgouda.nl,The Netherlands Red Cross,The Netherlands Red Cross,52.0072497,4.7142978,NLD,Netherlands,The Netherlands Red Cross,,,7-Feb-24,Yes,Yes
Locatie Haarlemmermeer,Location Haarlemmermeer,Administrative,1,Branch Office,Ward,3,2132 CK,Nieuweweg 33,Nieuweweg 33,HOOFDDORP,HOOFDDORP,,,(31) (70) 4455761,haarlemmermeer@rodekruis.nl,http://www.rodekruis.nl/haarlemmermeer,The Netherlands Red Cross,The Netherlands Red Cross,52.3052126,4.7000306,NLD,Netherlands,The Netherlands Red Cross,,,7-Feb-24,Yes,Yes
Locatie Harderwijk-Ermelo-Putten,Location Harderwijk-Ermelo-Putten,Administrative,1,Branch Office,Ward,3,3842 AZ,Maltezerlaan 3,Maltezerlaan 3,HARDERWIJK,HARDERWIJK,,,(31) (70) 4455762,evenementenhulp.hep@rodekruis.nl,https://www.rodekruis.nl/,The Netherlands Red Cross,The Netherlands Red Cross,52.3438846,5.6249403,NLD,Netherlands,The Netherlands Red Cross,,,7-Feb-24,Yes,Yes
Locatie Hardinxveld-Giessendam,Location Hardinxveld-Giessendam,Administrative,1,Branch Office,Ward,3,3371 AD,Damstraat 26,Damstraat 26,HARDINXVELD-GIESSENDAM,HARDINXVELD-GIESSENDAM,,,(31) (70) 4455763,gvanrossum@rodekruis.nl,https://www.rodekruis.nl/zuid-holland-zuid/over-ons/hardinxveld-giessendam/,The Netherlands Red Cross,The Netherlands Red Cross,51.829691,4.8353787,NLD,Netherlands,The Netherlands Red Cross,,,7-Feb-24,Yes,Yes
Locatie Helmond e.o.,Location Helmond e.o.,Administrative,1,Branch Office,Ward,3,5702 KM,Nachtegaallaan 215,Nachtegaallaan 215,HELMOND,HELMOND,,,(31) (70) 4455764,info.brabantzuidoost@rodekruis.nl,https://www.rodekruis.nl/,The Netherlands Red Cross,The Netherlands Red Cross,51.4978617,5.6658926,NLD,Netherlands,The Netherlands Red Cross,,,7-Feb-24,Yes,Yes
Locatie Hoeksche Waard,Location Hoeksche Waard,Administrative,1,Branch Office,Ward,3,3262 SH,Julianastraat 11,Julianastraat 11,OUD-BEIJERLAND,OUD-BEIJERLAND,,,(31) (70) 4455765,ehv.hoekschewaard@rodekruis.nl,https://www.rodekruis.nl/zuid-holland-zuid/over-ons/hoeksche-waard/,The Netherlands Red Cross,The Netherlands Red Cross,51.823786,4.4134264,NLD,Netherlands,The Netherlands Red Cross,,,7-Feb-24,Yes,Yes
Locatie Hoogeveen,Location Hoogeveen,Administrative,1,Branch Office,Ward,3,9405 CD,Zendmastweg 15,Zendmastweg 15,ASSEN,ASSEN,,,(31) (70) 4455766,evenementenhulp.hoogeveen@rodekruis.nl,http://www.rodekruis.nl/hoogeveen,The Netherlands Red Cross,The Netherlands Red Cross,52.9953638,6.532671,NLD,Netherlands,The Netherlands Red Cross,,,7-Feb-24,Yes,Yes
Locatie Horst aan de Maas,Location Horst aan de Maas,Administrative,1,Branch Office,Ward,3,5961 BB,Gebr. van Doornelaan 63,Gebr. van Doornelaan 63,HORST,HORST,,,(31) (70) 4455767,administratie.horstaandemaas@rodekruis.nl,http://www.rodekruis.nl/horst,The Netherlands Red Cross,The Netherlands Red Cross,51.4644941,6.0471667,NLD,Netherlands,The Netherlands Red Cross,,,7-Feb-24,Yes,Yes
Locatie Kampen-Zwartewaterland,Location Kampen-Zwartewaterland,Administrative,1,Branch Office,Ward,3,8262 DE,Wilhelminalaan 20,Wilhelminalaan 20,KAMPEN,KAMPEN,,,(31) (70) 4455768,evenementenhulp.ijsselland@rodekruis.nl,http://www.rodekruis.nl/kampen,The Netherlands Red Cross,The Netherlands Red Cross,52.5608703,5.9072775,NLD,Netherlands,The Netherlands Red Cross,,,7-Feb-24,Yes,Yes
Locatie Katwijk,Location Katwijk,Administrative,1,Branch Office,Ward,3,2225 TZ,Prins Hendrikkade 12,Prins Hendrikkade 12,KATWIJK ZH,KATWIJK ZH,,,(31) (70) 4455769,info@rodekruiskatwijk.nl,http://www.rodekruiskatwijk.nl,The Netherlands Red Cross,The Netherlands Red Cross,52.2053295,4.4078294,NLD,Netherlands,The Netherlands Red Cross,,,7-Feb-24,Yes,Yes
Locatie Kop van Overijssel,Location Kop van Overijssel,Administrative,1,Branch Office,Ward,3,8356 VS,Kanaalweg 4,Kanaalweg 4,BLOKZIJL,BLOKZIJL,,,(31) (70) 4455770,info@rodekruis-kopvanoverijssel.nl,http://www.rodekruis.nl/kop-van-overijssel,The Netherlands Red Cross,The Netherlands Red Cross,52.7234959,5.953345,NLD,Netherlands,The Netherlands Red Cross,,,7-Feb-24,Yes,Yes
Locatie Leeuwarden,Location Leeuwarden,Administrative,1,Branch Office,Ward,3,8912 AM,Celsiusweg 39,Celsiusweg 39,LEEUWARDEN,LEEUWARDEN,,,(31) (70) 4455771,helpdeskfriesland@rodekruis.nl,www.rodekruis.nl/fryslan,The Netherlands Red Cross,The Netherlands Red Cross,53.1962311,5.7618149,NLD,Netherlands,The Netherlands Red Cross,,,7-Feb-24,Yes,Yes
Locatie Leiden e.o.,Location Leiden e.o.,Administrative,1,Branch Office,Ward,3,2324 BR,Apollolaan 1,Apollolaan 1,LEIDEN,LEIDEN,,,(31) (70) 4455772,evenementenhulp.leiden@rodekruis.nl,https://www.rodekruis.nl/,The Netherlands Red Cross,The Netherlands Red Cross,52.1395043,4.4751851,NLD,Netherlands,The Netherlands Red Cross,,,7-Feb-24,Yes,Yes
Locatie Leidschendam-Voorburg,Location Leidschendam-Voorburg,Administrative,1,Branch Office,Ward,3,2271 CE,Herenstraat 165,Herenstraat 165,VOORBURG,VOORBURG,,,(31) (70) 4455773,info.LV@rodekruis.nl,http://www.rodekruis.nl/leidschendam-voorburg,The Netherlands Red Cross,The Netherlands Red Cross,52.0665359,4.3619171,NLD,Netherlands,The Netherlands Red Cross,,,7-Feb-24,Yes,Yes
Locatie Lelystad,Location Lelystad,Administrative,1,Branch Office,Ward,3,8223 EE,Wigstraat 15,Wigstraat 15,LELYSTAD,LELYSTAD,,,(31) (70) 4455774,ssc.flevoland@rodekruis.nl,http://www.rodekruislelystad.nl,The Netherlands Red Cross,The Netherlands Red Cross,52.5232967,5.4941024,NLD,Netherlands,The Netherlands Red Cross,,,7-Feb-24,Yes,Yes
Locatie Lingewaard-Overbetuwe,Location Lingewaard-Overbetuwe,Administrative,1,Branch Office,Ward,3,6665 NC,Elster Grindweg 3,Elster Grindweg 3,DRIEL,DRIEL,,,(31) (70) 4455775,evenementenhulp.lingewaardoverbetuwe@rodekruis.nl,https://www.rodekruis.nl/,The Netherlands Red Cross,The Netherlands Red Cross,51.9497665,5.8174031,NLD,Netherlands,The Netherlands Red Cross,,,7-Feb-24,Yes,Yes
Locatie Maasduinen,Location Maasduinen,Administrative,1,Branch Office,Ward,3,6598 DL,De Grens 4,De Grens 4,HEIJEN,HEIJEN,,,(31) (70) 4455776,bhoenselaar@rodekruis.nl,https://www.rodekruis.nl/,The Netherlands Red Cross,The Netherlands Red Cross,51.6639192,5.9943645,NLD,Netherlands,The Netherlands Red Cross,,,7-Feb-24,Yes,Yes
Locatie Meierijstad Boxtel Boekel,Location Meierijstad Boxtel Boekel,Administrative,1,Branch Office,Ward,3,5463 HM,Evertsenstraat 9,Evertsenstraat 9,VEGHEL,VEGHEL,,,(31) (70) 4455777,ssc.brabantnoord@rodekruis.nl,https://www.rodekruis.nl/,The Netherlands Red Cross,The Netherlands Red Cross,51.6078748,5.5467325,NLD,Netherlands,The Netherlands Red Cross,,,7-Feb-24,Yes,Yes
Locatie Meppel/Nijeveen,Location Meppel/Nijeveen,Administrative,1,Branch Office,Ward,3,7941 LC,Vledderstraat 3,Vledderstraat 3,MEPPEL,MEPPEL,,,(31) (70) 4455778,webmasterdistrictdrenthe@redcross.nl,https://www.rodekruis.nl/,The Netherlands Red Cross,The Netherlands Red Cross,52.6977114,6.1940004,NLD,Netherlands,The Netherlands Red Cross,,,7-Feb-24,Yes,Yes
Locatie Nieuwe Waterweg Noord,Location Nieuwe Waterweg Noord,Administrative,1,Branch Office,Ward,3,3135 GA,Trimpad 4,Trimpad 4,VLAARDINGEN,VLAARDINGEN,,,(31) (70) 4455779,info.nieuwewaterwegnoord@rodekruis.nl,https://www.rodekruis.nl/,The Netherlands Red Cross,The Netherlands Red Cross,51.9225033,4.3634001,NLD,Netherlands,The Netherlands Red Cross,,,7-Feb-24,Yes,Yes
Locatie Nijkerk,Location Nijkerk,Administrative,1,Branch Office,Ward,3,3861 VS,Havenstraat 5,Havenstraat 5,NIJKERK,NIJKERK,,,(31) (70) 4455780,info.nijkerk@rodekruis.nl,https://www.rodekruis.nl/,The Netherlands Red Cross,The Netherlands Red Cross,52.2260765,5.4805658,NLD,Netherlands,The Netherlands Red Cross,,,7-Feb-24,Yes,Yes
Locatie Nijmegen e.o.,Location Nijmegen e.o.,Administrative,1,Branch Office,Ward,3,6523 LJ,Gelderselaan 14,Gelderselaan 14,NIJMEGEN,NIJMEGEN,,,(31) (70) 4455781,info.gelderland@rodekruis.nl,www.rodekruis.nl/gelderland/,The Netherlands Red Cross,The Netherlands Red Cross,51.832361,5.8736354,NLD,Netherlands,The Netherlands Red Cross,,,7-Feb-24,Yes,Yes
Locatie Noord Oost Veluwe,Location Noord Oost Veluwe,Administrative,1,Branch Office,Ward,3,8051 VC,van Galenstraat 40,van Galenstraat 40,HATTEM,HATTEM,,,(31) (70) 4455782,info.nov@rodekruis.nl,http://www.rodekruis.nl/noord-oost-veluwe,The Netherlands Red Cross,The Netherlands Red Cross,52.4727341,6.0641534,NLD,Netherlands,The Netherlands Red Cross,,,7-Feb-24,Yes,Yes
Locatie Noordenveld,Location Noordenveld,Administrative,1,Branch Office,Ward,3,9301 PG,Hoppad 17,Hoppad 17,RODEN,RODEN,,,(31) (70) 4455783,info@rknoordenveld.nl,https://www.rodekruis.nl/,The Netherlands Red Cross,The Netherlands Red Cross,53.1458523,6.4244369,NLD,Netherlands,The Netherlands Red Cross,,,7-Feb-24,Yes,Yes
Locatie Noord-Groningen,Location Noord-Groningen,Administrative,1,Branch Office,Ward,3,9621 AN,Hoofdweg 88,Hoofdweg 88,SLOCHTEREN,SLOCHTEREN,,,(31) (70) 4455784,helpdeskgroningen@rodekruis.nl,www.rodekruis.nl/groningen,The Netherlands Red Cross,The Netherlands Red Cross,53.2100766,6.800297,NLD,Netherlands,The Netherlands Red Cross,,,7-Feb-24,Yes,Yes
Locatie Noordoost-Brabant,Location Noordoost-Brabant,Administrative,1,Branch Office,Ward,3,5345 AA,Kromstraat 45,Kromstraat 45,OSS,OSS,,,(31) (70) 4455785,ssc.brabantnoord@rodekruis.nl,https://www.rodekruis.nl/,The Netherlands Red Cross,The Netherlands Red Cross,51.7618343,5.514194,NLD,Netherlands,The Netherlands Red Cross,,,7-Feb-24,Yes,Yes
Locatie Noordoostpolder,Location Noordoostpolder,Administrative,1,Branch Office,Ward,3,8303 HW,Oude Espelerweg 4,Oude Espelerweg 4,Emmeloord,Emmeloord,,,(31) (70) 4455786,ssc.flevoland@rodekruis.nl,http://www.rodekruis.nl/noordoostpolder,The Netherlands Red Cross,The Netherlands Red Cross,52.7232226,5.7439586,NLD,Netherlands,The Netherlands Red Cross,,,7-Feb-24,Yes,Yes
Locatie Noord-West Groningen,Location Noord-West Groningen,Administrative,1,Branch Office,Ward,3,9801 HG,Boslaan 10,Boslaan 10,ZUIDHORN,ZUIDHORN,,,(31) (70) 4455787,helpdeskgroningen@rodekruis.nl,https://www.rodekruis.nl/,The Netherlands Red Cross,The Netherlands Red Cross,53.2458531,6.4029419,NLD,Netherlands,The Netherlands Red Cross,,,7-Feb-24,Yes,Yes
Locatie Nunspeet e.o.,Location Nunspeet e.o.,Administrative,1,Branch Office,Ward,3,8071 TA,Elburgerweg 11,Elburgerweg 11,NUNSPEET,NUNSPEET,,,(31) (70) 4455788,info.nunspeet@rodekruis.nl,https://afdeling.rodekruis.nl/gelderland/over-ons/nunspeet/,The Netherlands Red Cross,The Netherlands Red Cross,52.3824537,5.7835469,NLD,Netherlands,The Netherlands Red Cross,,,7-Feb-24,Yes,Yes
Locatie Oisterwijk,Location Oisterwijk,Administrative,1,Branch Office,Ward,3,5061 HA,Blokshekken 6,Blokshekken 6,OISTERWIJK,OISTERWIJK,,,(31) (70) 4455789,evenementenhulp.districtmwb@rodekruis.nl,https://afdeling.rodekruis.nl/midden-en-west-brabant/,The Netherlands Red Cross,The Netherlands Red Cross,51.5809603,5.1902251,NLD,Netherlands,The Netherlands Red Cross,,,7-Feb-24,Yes,Yes
Locatie Oost en Zuidoost-Groningen,Location Oost en Zuidoost-Groningen,Administrative,1,Branch Office,Ward,3,9641 HV,Schippersstraat 30,Schippersstraat 30,VEENDAM,VEENDAM,,,(31) (70) 4455790,helpdeskgroningen@rodekruis.nl,www.rodekruis.nl/groningen,The Netherlands Red Cross,The Netherlands Red Cross,53.1001907,6.8792811,NLD,Netherlands,The Netherlands Red Cross,,,7-Feb-24,Yes,Yes
Locatie Renkum-Wageningen,Location Renkum-Wageningen,Administrative,1,Branch Office,Ward,3,7314 LD,Schuttersweg 41,Schuttersweg 41,APELDOORN,APELDOORN,,,(31) (70) 4455791,bestuur.renkumwageningen@rodekruis.nl,https://www.rodekruis.nl/,The Netherlands Red Cross,The Netherlands Red Cross,52.2138568,5.9434509,NLD,Netherlands,The Netherlands Red Cross,,,7-Feb-24,Yes,Yes
Locatie Rijssen,Location Rijssen,Administrative,1,Branch Office,Ward,3,7462 MZ,Roelf Bosmastraat 47,Roelf Bosmastraat 47,RIJSSEN,RIJSSEN,,,(31) (70) 4455792,info.rijssen@rodekruis.nl,http://www.rodekruis.nl/twente,The Netherlands Red Cross,The Netherlands Red Cross,52.3018463,6.5005692,NLD,Netherlands,The Netherlands Red Cross,,,7-Feb-24,Yes,Yes
Locatie Rivierenland,Location Rivierenland,Administrative,1,Branch Office,Ward,3,4191 GM,Van Limburg Stirumstraat 1,Van Limburg Stirumstraat 1,GELDERMALSEN,GELDERMALSEN,,,(31) (70) 4455793,ckrol@rodekruis.nl,https://www.rodekruis.nl/,The Netherlands Red Cross,The Netherlands Red Cross,51.8775434,5.2905419,NLD,Netherlands,The Netherlands Red Cross,,,7-Feb-24,Yes,Yes
Locatie Roermond,Location Roermond,Administrative,1,Branch Office,Ward,3,6042 PB,Zuidhoven 7,Zuidhoven 7,ROERMOND,ROERMOND,,,(31) (70) 4455794,secretaris@rodekruisroermond.nl,http://www.rodekruisroermond.nl,The Netherlands Red Cross,The Netherlands Red Cross,51.1940655,6.0250456,NLD,Netherlands,The Netherlands Red Cross,,,7-Feb-24,Yes,Yes
Locatie Rolde,Location Rolde,Administrative,1,Branch Office,Ward,3,9451 BW,Plein 15,Plein 15,ROLDE,ROLDE,,,(31) (70) 4455795,lkoppelaar@rodekruis.nl,https://www.rodekruis.nl/,The Netherlands Red Cross,The Netherlands Red Cross,52.9873738,6.6443356,NLD,Netherlands,The Netherlands Red Cross,,,7-Feb-24,Yes,Yes
Locatie Roosendaal,Location Roosendaal,Administrative,1,Branch Office,Ward,3,4707 CD,Gezellelaan 18,Gezellelaan 18,ROOSENDAAL,ROOSENDAAL,,,(31) (70) 4455796,evenementenhulp.districtmwb@rodekruis.nl,https://afdeling.rodekruis.nl/midden-en-west-brabant/,The Netherlands Red Cross,The Netherlands Red Cross,51.5200042,4.4626201,NLD,Netherlands,The Netherlands Red Cross,,,7-Feb-24,Yes,Yes
Locatie Rotterdam,Location Rotterdam,Administrative,1,Branch Office,Ward,3,3067 KZ,Tweelingenstraat 80,Tweelingenstraat 80,ROTTERDAM,ROTTERDAM,,,(31) (70) 4455797,rotterdam@redcross.nl,http://www.rodekruis.nl/rotterdam,The Netherlands Red Cross,The Netherlands Red Cross,51.9484516,4.554295,NLD,Netherlands,The Netherlands Red Cross,,,7-Feb-24,Yes,Yes
Locatie Salland Midden,Location Salland Midden,Administrative,1,Branch Office,Ward,3,8101 PP,Westdorplaan 132,Westdorplaan 132,RAALTE,RAALTE,,,(31) (70) 4455798,secretariaatsallandmidden@rodekruis.nl,http://www.rodekruis.nl/salland-midden,The Netherlands Red Cross,The Netherlands Red Cross,52.3780004,6.2704385,NLD,Netherlands,The Netherlands Red Cross,,,7-Feb-24,Yes,Yes
Locatie 's-Hertogenbosch e.o.,Location 's-Hertogenbosch e.o.,Administrative,1,Branch Office,Ward,3,5211 KV,Oude Dieze 12,Oude Dieze 12,'S-HERTOGENBOSCH,'S-HERTOGENBOSCH,,,(31) (70) 4455799,ssc.brabantnoord@rodekruis.nl,https://www.rodekruis.nl/,The Netherlands Red Cross,The Netherlands Red Cross,51.6856761,5.3081869,NLD,Netherlands,The Netherlands Red Cross,,,7-Feb-24,Yes,Yes
Locatie Staphorst,Location Staphorst,Administrative,1,Branch Office,Ward,3,7951 PP,Lankhorsterweg 16,Lankhorsterweg 16,STAPHORST,STAPHORST,,,(31) (70) 4455800,mbalder@rodekruis.nl,https://www.rodekruis.nl/,The Netherlands Red Cross,The Netherlands Red Cross,52.6734407,6.2457066,NLD,Netherlands,The Netherlands Red Cross,,,7-Feb-24,Yes,Yes
Locatie Tilburg e.o.,Location Tilburg e.o.,Administrative,1,Branch Office,Ward,3,5015 TC,Centaurusweg 57,Centaurusweg 57,TILBURG,TILBURG,,,(31) (70) 4455801,secretariaat.districtmwb@rodekruis.nl,https://www.rodekruis.nl/midden-en-west-brabant/,The Netherlands Red Cross,The Netherlands Red Cross,51.5777965,5.1066236,NLD,Netherlands,The Netherlands Red Cross,,,7-Feb-24,Yes,Yes
Locatie Twenterand,Location Twenterand,Administrative,1,Branch Office,Ward,3,7676 AK,Hoofdweg 166,Hoofdweg 166,WESTERHAAR,WESTERHAAR,,,(31) (70) 4455802,twenterand@rodekruis.nl,http://www.rodekruis.nl/twenterand,The Netherlands Red Cross,The Netherlands Red Cross,52.4596973,6.6195883,NLD,Netherlands,The Netherlands Red Cross,,,7-Feb-24,Yes,Yes
Locatie Valkenswaard/A2,Location Valkenswaard/A2,Administrative,1,Branch Office,Ward,3,5552 LD,Gelukken 15,Gelukken 15,VALKENSWAARD,VALKENSWAARD,,,(31) (70) 4455803,info.brabantzuidoost@rodekruis.nl,https://www.rodekruis.nl/,The Netherlands Red Cross,The Netherlands Red Cross,51.3591871,5.4517506,NLD,Netherlands,The Netherlands Red Cross,,,7-Feb-24,Yes,Yes
Locatie Vechtdal,Location Vechtdal,Administrative,1,Branch Office,Ward,3,7772 BJ,Bruchterweg 88,Bruchterweg 88,HARDENBERG,HARDENBERG,,,(31) (70) 4455804,evenementenhulp.vp@rodekruis.nl,http://www.rodekruis.nl/afdeling/vechtdal,The Netherlands Red Cross,The Netherlands Red Cross,52.5678161,6.6219997,NLD,Netherlands,The Netherlands Red Cross,,,7-Feb-24,Yes,Yes
Locatie Venlo,Location Venlo,Administrative,1,Branch Office,Ward,3,5916 PT,Nijmeegseweg 40,Nijmeegseweg 40,VENLO,VENLO,,,(31) (70) 4455805,venlo@rodekruis.nl,http://www.rodekruis.nl/Venlo,The Netherlands Red Cross,The Netherlands Red Cross,51.3894741,6.1763022,NLD,Netherlands,The Netherlands Red Cross,,,7-Feb-24,Yes,Yes
Locatie Venray,Location Venray,Administrative,1,Branch Office,Ward,3,5802 CG,Leunseweg 53,Leunseweg 53,VENRAY,VENRAY,,,(31) (70) 4455806,evenementenvenray@rodekruis.nl,https://www.rodekruis.nl/,The Netherlands Red Cross,The Netherlands Red Cross,51.5166165,5.9806113,NLD,Netherlands,The Netherlands Red Cross,,,7-Feb-24,Yes,Yes
Locatie Voorne-Putten,Location Voorne-Putten,Administrative,1,Branch Office,Ward,3,3232 LE,Plantageweg 4,Plantageweg 4,BRIELLE,BRIELLE,,,(31) (70) 4455807,evenementenhulp.vp@rodekruis.nl,https://www.rodekruis.nl/voorne-putten/,The Netherlands Red Cross,The Netherlands Red Cross,51.8971353,4.1655048,NLD,Netherlands,The Netherlands Red Cross,,,7-Feb-24,Yes,Yes
Locatie Weert,Location Weert,Administrative,1,Branch Office,Ward,3,6001 AV,Boerhaavestraat 15,Boerhaavestraat 15,WEERT,WEERT,,,(31) (70) 4455808,info.weert@rodekruis.nl,http://www.rodekruis.nl/weert,The Netherlands Red Cross,The Netherlands Red Cross,51.255549,5.7112828,NLD,Netherlands,The Netherlands Red Cross,,,7-Feb-24,Yes,Yes
Locatie Zeewolde,Location Zeewolde,Administrative,1,Branch Office,Ward,3,3892 DB,Patroonsweg 10,Patroonsweg 10,ZEEWOLDE,ZEEWOLDE,,,(31) (70) 4455809,ssc.flevoland@rodekruis.nl,http://www.rodekruis.nl/afdeling/zeewolde,The Netherlands Red Cross,The Netherlands Red Cross,52.325093,5.5321967,NLD,Netherlands,The Netherlands Red Cross,,,7-Feb-24,Yes,Yes
Locatie Zoetermeer-Pijnacker-Nootdorp,Location Zoetermeer-Pijnacker-Nootdorp,Administrative,1,Branch Office,Ward,3,2713 VN,Clauslaan 2,Clauslaan 2,ZOETERMEER,ZOETERMEER,,,(31) (70) 4455810,info.zpn@rodekruis.nl,https://www.rodekruis.nl/,The Netherlands Red Cross,The Netherlands Red Cross,52.0546558,4.4877971,NLD,Netherlands,The Netherlands Red Cross,,,7-Feb-24,Yes,Yes
Locatie Zuidoost Drenthe,Location Zuidoost Drenthe,Administrative,1,Branch Office,Ward,3,9405 CD,Zendmastweg 15,Zendmastweg 15,ASSEN,ASSEN,,,(31) (70) 4455811,evenementenhulp.zuidoostdrenthe@rodekruis.nl,https://www.rodekruis.nl/,The Netherlands Red Cross,The Netherlands Red Cross,52.9953638,6.532671,NLD,Netherlands,The Netherlands Red Cross,,,7-Feb-24,Yes,Yes
Locatie Zuidoost Friesland,Location Zuidoost Friesland,Administrative,1,Branch Office,Ward,3,8447 GM,de Ynfeart 7,de Ynfeart 7,HEERENVEEN,HEERENVEEN,,,(31) (70) 4455812,helpdeskfriesland@rodekruis.nl,www.rodekruis.nl/fryslan,The Netherlands Red Cross,The Netherlands Red Cross,52.9739324,5.8896132,NLD,Netherlands,The Netherlands Red Cross,,,7-Feb-24,Yes,Yes
Locatie Zuidwest Friesland,Location Zuidwest Friesland,Administrative,1,Branch Office,Ward,3,8607 AB,Selfhelpweg 2,Selfhelpweg 2,SNEEK,SNEEK,,,(31) (70) 4455813,helpdeskfriesland@rodekruis.nl,www.rodekruis.nl/fryslan,The Netherlands Red Cross,The Netherlands Red Cross,53.0280306,5.661685,NLD,Netherlands,The Netherlands Red Cross,,,7-Feb-24,Yes,Yes
Locatie Zwijndrechtsewaard,Location Zwijndrechtsewaard,Administrative,1,Branch Office,Ward,3,3333 CA,Kapitein Rietbergenflat 26,Kapitein Rietbergenflat 26,ZWIJNDRECHT,ZWIJNDRECHT,,,(31) (70) 4455814,secretaris.zwijndrechtsewaard@rodekruis.nl,https://www.rodekruis.nl/zuid-holland-zuid/over-ons/zwijndrechtsewaard/,The Netherlands Red Cross,The Netherlands Red Cross,51.8096891,4.6329279,NLD,Netherlands,The Netherlands Red Cross,,,7-Feb-24,Yes,Yes
Locatie Zwolle,Location Zwolle,Administrative,1,Branch Office,Ward,3,8031 DB,Brahmsstraat 5,Brahmsstraat 5,ZWOLLE,ZWOLLE,,,(31) (70) 4455815,info.zwolle@rodekruis.nl,http://www.rodekruis.nl/zwolle,The Netherlands Red Cross,The Netherlands Red Cross,52.5265285,6.0927651,NLD,Netherlands,The Netherlands Red Cross,,,7-Feb-24,Yes,Yes
Studentendesk Amsterdam,Studentdesk Amsterdam,Administrative,1,Branch Office,Ward,3,1011 LZ,Valkenburgerstraat 24,Valkenburgerstraat 24,AMSTERDAM,AMSTERDAM,,,(31) (70) 4455816,contactcenter@redcross.nl,https://www.rodekruis.nl/,The Netherlands Red Cross,The Netherlands Red Cross,52.3702505,4.9080238,NLD,Netherlands,The Netherlands Red Cross,,,7-Feb-24,Yes,Yes
Studentendesk Delft,Studentdesk Delft,Administrative,1,Branch Office,Ward,3,2624 AV,Vulcanusweg 263,Vulcanusweg 263,DELFT,DELFT,,,(31) (70) 4455817,studentendesk.delft@rodekruis.nl,http://www.rodekruisstudentendelft.nl,The Netherlands Red Cross,The Netherlands Red Cross,51.996536,4.360647,NLD,Netherlands,The Netherlands Red Cross,,,7-Feb-24,Yes,Yes
Studentendesk Den Haag,Studentdesk Den Haag,Administrative,1,Branch Office,Ward,3,2544 ER,Zilverstraat 2,Zilverstraat 2,'S-GRAVENHAGE,'S-GRAVENHAGE,,,(31) (70) 4455818,studentendeskdenhaag@redcross.nl,https://www.rodekruis.nl/,The Netherlands Red Cross,The Netherlands Red Cross,52.0497759,4.2578303,NLD,Netherlands,The Netherlands Red Cross,,,7-Feb-24,Yes,Yes
Studentendesk Groningen,Studentdesk Groningen,Administrative,1,Branch Office,Ward,3,9743 AK,Atoomweg 2,Atoomweg 2,GRONINGEN,GRONINGEN,,,(31) (70) 4455819,studentendeskgroningen@rodekruis.nl,https://www.rodekruis.nl/,The Netherlands Red Cross,The Netherlands Red Cross,53.2137108,6.5393727,NLD,Netherlands,The Netherlands Red Cross,,,7-Feb-24,Yes,Yes
Studentendesk Leiden,Studentdesk Leiden,Administrative,1,Branch Office,Ward,3,2324 BR,Apollolaan 1,Apollolaan 1,LEIDEN,LEIDEN,,,(31) (70) 4455820,StudentendeskLeiden@rodekruis.nl,https://www.rodekruis.nl/,The Netherlands Red Cross,The Netherlands Red Cross,52.1395043,4.4751851,NLD,Netherlands,The Netherlands Red Cross,,,7-Feb-24,Yes,Yes
Studentendesk Maastricht,Studentdesk Maastricht,Administrative,1,Branch Office,Ward,3,6211 HT,Cortenstraat 7,Cortenstraat 7,MAASTRICHT,MAASTRICHT,,,(31) (70) 4455821,studentendeskmaastricht@redcross.nl,https://www.rodekruis.nl/,The Netherlands Red Cross,The Netherlands Red Cross,50.846811,5.69212,NLD,Netherlands,The Netherlands Red Cross,,,7-Feb-24,Yes,Yes
Studentendesk Nijmegen e.o.,Studentdesk Nijmegen e.o.,Administrative,1,Branch Office,Ward,3,6523 LJ,Gelderselaan 14,Gelderselaan 14,NIJMEGEN,NIJMEGEN,,,(31) (70) 4455822,studentendesknijmegen@rodekruis.nl,http://www.studentendesknijmegen.nl,The Netherlands Red Cross,The Netherlands Red Cross,51.832361,5.8736354,NLD,Netherlands,The Netherlands Red Cross,,,7-Feb-24,Yes,Yes
Studentendesk Rotterdam,Studentdesk Rotterdam,Administrative,1,Branch Office,Ward,3,3135 GA,Trimpad 4,Trimpad 4,VLAARDINGEN,VLAARDINGEN,,,(31) (70) 4455823,studentendeskrotterdam@redcross.nl,https://www.rodekruis.nl/,The Netherlands Red Cross,The Netherlands Red Cross,51.9225033,4.3634001,NLD,Netherlands,The Netherlands Red Cross,,,7-Feb-24,Yes,Yes
Studentendesk Tilburg,Studentdesk Tilburg,Administrative,1,Branch Office,Ward,3,5015 TC,Centaurusweg 57,Centaurusweg 57,TILBURG,TILBURG,,,(31) (70) 4455824,studentendesktilburg@rodekruis.nl,https://www.rodekruis.nl/,The Netherlands Red Cross,The Netherlands Red Cross,51.5777965,5.1066236,NLD,Netherlands,The Netherlands Red Cross,,,7-Feb-24,Yes,Yes
Studentendesk Utrecht,Studentdesk Utrecht,Administrative,1,Branch Office,Ward,3,3582 GE,Koningsweg 2,Koningsweg 2,UTRECHT,UTRECHT,,,(31) (70) 4455825,studentendeskutrecht@rodekruis.nl,https://www.rodekruis.nl/,The Netherlands Red Cross,The Netherlands Red Cross,52.0780485,5.1334263,NLD,Netherlands,The Netherlands Red Cross,,,7-Feb-24,Yes,Yes
Studentendesk Wageningen,Studentdesk Wageningen,Administrative,1,Branch Office,Ward,3,6708 PB,Droevendaalsesteeg 2,Droevendaalsesteeg 2,WAGENINGEN,WAGENINGEN,,,(31) (70) 4455826,studentendeskwageningen@rodekruis.nl,https://www.rodekruis.nl/,The Netherlands Red Cross,The Netherlands Red Cross,51.9852881,5.6637184,NLD,Netherlands,The Netherlands Red Cross,,,7-Feb-24,Yes,Yes
Studentendesk Zeeland,Studentdesk Zeeland,Administrative,1,Branch Office,Ward,3,4331 RG,Klein Vlaanderen 59,Klein Vlaanderen 59,MIDDELBURG,MIDDELBURG,,,(31) (70) 4455827,studentendeskzeeland@redcross.nl,https://www.rodekruis.nl/,The Netherlands Red Cross,The Netherlands Red Cross,51.5015756,3.6080898,NLD,Netherlands,The Netherlands Red Cross,,,7-Feb-24,Yes,Yes
Zimbabwe Red Cross Society Head Office,Zimbabwe Red Cross Society Head Office,Administrative,1,Head Office,Head Office,0,,"10 St Annes, Avondale, Harare Zimbabwe","10 St Annes, Avondale, Harare Zimbabwe",Harare,Harare,Elias Hwenga,Elias Hwenga,00263242 333158,info@redcrosszim.org.zw,https://www.redcrosszim.org.zw/,Zimbabwe Red Cross Society,Zimbabwe Red Cross Society,-17.787687,31.032,ZWE,Zimbabwe,Zimbabwe Red Cross Society,,,5-Jun-23,Yes,Yes
Manicaland Office,Manicaland Office,Administrative,1,Provincial Office,Provincial,1,,12 Chimanimani Road Sakubva Mutare,12 Chimanimani Road Sakubva Mutare,Mutare,Mutare,Munyaradzi Chikukwa,Munyaradzi Chikukwa,00263772 911531,info@redcrosszim.org.zw,https://www.redcrosszim.org.zw/,Zimbabwe Red Cross Society,Zimbabwe Red Cross Society,-18.99997,32.637864,ZWE,Zimbabwe,Zimbabwe Red Cross Society,,,5-Jun-23,Yes,Yes
Mutare Clinic,Mutare Clinic,Health Care,2,Clinic,,,,25 Geoge Silundika Avenue,25 Geoge Silundika Avenue,Mutare,Mutare,Munyaradzi Chikukwa,Munyaradzi Chikukwa,00263772911531,info@redcrosszim.org.zw,https://www.redcrosszim.org.zw/,Zimbabwe Red Cross Society,Zimbabwe Red Cross Society,-18.96898591,32.67079195,ZWE,Zimbabwe,Zimbabwe Red Cross Society,,,5-Jun-23,Yes,Yes
Mashonaland East Office,Mashonaland East Office,Administrative,1,Provincial Office,Provincial,1,,"Mbuya Nehambo, Chikomo Drive, Dombotombo, Marondera","Mbuya Nehambo, Chikomo Drive, Dombotombo, Marondera",Marondera,Marondera,Thulani Sibanda,Thulani Sibanda,00263772 389112,info@redcrosszim.org.zw,https://www.redcrosszim.org.zw/,Zimbabwe Red Cross Society,Zimbabwe Red Cross Society,-18.181113,31.565915,ZWE,Zimbabwe,Zimbabwe Red Cross Society,,,5-Jun-23,Yes,Yes
Mashonaland Central Office,Mashonaland Central Office,Administrative,1,Provincial Office,Provincial,1,,"7433 Jabavu Drive, Old Highfield, Harare","7433 Jabavu Drive, Old Highfield, Harare",Harare,Harare,Vongai Masara,Vongai Masara,00263772 947006,info@redcrosszim.org.zw,https://www.redcrosszim.org.zw/,Zimbabwe Red Cross Society,Zimbabwe Red Cross Society,-17.893015,30.988224,ZWE,Zimbabwe,Zimbabwe Red Cross Society,,,5-Jun-23,Yes,Yes
Masvingo Office,Masvingo Office,Administrative,1,Provincial Office,Provincial,1,,Makuva Street Mucheke Masvingo,Makuva Street Mucheke Masvingo,Masvingo,Masvingo,Mable Zinange Chabururuka,Mable Zinange Chabururuka,00263772 760931,info@redcrosszim.org.zw,https://www.redcrosszim.org.zw/,Zimbabwe Red Cross Society,Zimbabwe Red Cross Society,-20.079475,30.814205,ZWE,Zimbabwe,Zimbabwe Red Cross Society,,,5-Jun-23,Yes,Yes
Mashonaland West Office,Mashonaland West Office,Administrative,1,Provincial Office,Provincial,1,,5390 MAGAMBA Way Chinhoyi,5390 MAGAMBA Way Chinhoyi,Chinhoyi,Chinhoyi,Amon Choba,Amon Choba,00263772 912897,info@redcrosszim.org.zw,https://www.redcrosszim.org.zw/,Zimbabwe Red Cross Society,Zimbabwe Red Cross Society,-17.355428,30.204572,ZWE,Zimbabwe,Zimbabwe Red Cross Society,,,5-Jun-23,Yes,Yes
Midlands Office,Midlands Office,Administrative,1,Provincial Office,Provincial,1,,"9051 Gymkhana Grounds, Gweru","9051 Gymkhana Grounds, Gweru",Gweru,Gweru,Mathias Begede,Mathias Begede,00263773 217888,info@redcrosszim.org.zw,https://www.redcrosszim.org.zw/,Zimbabwe Red Cross Society,Zimbabwe Red Cross Society,-19.461936,29.808442,ZWE,Zimbabwe,Zimbabwe Red Cross Society,,,5-Jun-23,Yes,Yes
Matebeleland South Office,Matebeleland South Office,Administrative,1,Provincial Office,Provincial,1,,"Stand L53 Jahunda Township, Gwanda","Stand L53 Jahunda Township, Gwanda",Gwanda,Gwanda,Johnson Sibanda,Johnson Sibanda,00263773 048935,info@redcrosszim.org.zw,https://www.redcrosszim.org.zw/,Zimbabwe Red Cross Society,Zimbabwe Red Cross Society,-20.940761,29.010885,ZWE,Zimbabwe,Zimbabwe Red Cross Society,,,5-Jun-23,Yes,Yes
Matebeleland North Office,Matebeleland North Office,Administrative,1,Provincial Office,Provincial,1,,"Basch street and 3rd avenue, Bulawayo","Basch street and 3rd avenue, Bulawayo",Bulawayo,Bulawayo,Thembelihle Valo,Thembelihle Valo,00263772 972437,info@redcrosszim.org.zw,https://www.redcrosszim.org.zw/,Zimbabwe Red Cross Society,Zimbabwe Red Cross Society,-20.146843,28.577934,ZWE,Zimbabwe,Zimbabwe Red Cross Society,,,5-Jun-23,Yes,Yes
Chimanimani Office,Chimanimani Office,Administrative,1,District Office,District,2,,Stand 179 Village Chimaninani,Stand 179 Village Chimaninani,Chimanimani,Chimanimani,Munyaradzi Chikukwa,Munyaradzi Chikukwa,00263773 394513,info@redcrosszim.org.zw,https://www.redcrosszim.org.zw/,Zimbabwe Red Cross Society,Zimbabwe Red Cross Society,-19.806282,32.873903,ZWE,Zimbabwe,Zimbabwe Red Cross Society,,,5-Jun-23,Yes,Yes
Chipinge Office,Chipinge Office,Administrative,1,District Office,District,2,,Room 213 Government Complex Chipinge,Room 213 Government Complex Chipinge,Chipinge,Chipinge,Munyaradzi Chikukwa,Munyaradzi Chikukwa,00263772 531368,info@redcrosszim.org.zw,https://www.redcrosszim.org.zw/,Zimbabwe Red Cross Society,Zimbabwe Red Cross Society,-20.195618,32.619596,ZWE,Zimbabwe,Zimbabwe Red Cross Society,,,5-Jun-23,Yes,Yes
Nyanga Office,Nyanga Office,Administrative,1,District Office,District,2,,Mangondoza Township ,Mangondoza Township ,Nyanga,Nyanga,Munyaradzi Chikukwa,Munyaradzi Chikukwa,,info@redcrosszim.org.zw,https://www.redcrosszim.org.zw/,Zimbabwe Red Cross Society,Zimbabwe Red Cross Society,-18.19989464,32.74451684,ZWE,Zimbabwe,Zimbabwe Red Cross Society,,,5-Jun-23,Yes,Yes
Buhera Office,Buhera Office,Administrative,1,District Office,District,2,,Stand 79 Murambinda G/P,Stand 79 Murambinda G/P,Buhera,Buhera,Munyaradzi Chikukwa,Munyaradzi Chikukwa,00263772911531,info@redcrosszim.org.zw,https://www.redcrosszim.org.zw/,Zimbabwe Red Cross Society,Zimbabwe Red Cross Society,-19.27075218,31.64707427,ZWE,Zimbabwe,Zimbabwe Red Cross Society,,,5-Jun-23,Yes,Yes
Bindura Office,Bindura Office,Administrative,1,District Office,District,2,,"743 Artherstone, Chipindura, Bindura, Zimbabwe","743 Artherstone, Chipindura, Bindura, Zimbabwe",Bindura,Bindura,Lucy Mtata,Lucy Mtata,00263772 694607,info@redcrosszim.org.zw,https://www.redcrosszim.org.zw/,Zimbabwe Red Cross Society,Zimbabwe Red Cross Society,-17.322745,31.334073,ZWE,Zimbabwe,Zimbabwe Red Cross Society,,,5-Jun-23,Yes,Yes
Muzarabani Office,Muzarabani Office,Administrative,1,District Office,District,2,,"Stand Number 213, Muzarabani Business Center, Muzarabani","Stand Number 213, Muzarabani Business Center, Muzarabani",Muzarabani,Muzarabani,Vongai Masara,Vongai Masara,00263773 063490,info@redcrosszim.org.zw,https://www.redcrosszim.org.zw/,Zimbabwe Red Cross Society,Zimbabwe Red Cross Society,-16.39188,30.993798,ZWE,Zimbabwe,Zimbabwe Red Cross Society,,,5-Jun-23,Yes,Yes
Neshuro Office,Neshuro Office,Administrative,1,District Office,District,2,,Neshuro Township Mwenezi,Neshuro Township Mwenezi,Mwenezi,Mwenezi,Alfred Chabinduka,Alfred Chabinduka,00263771 583086,info@redcrosszim.org.zw,https://www.redcrosszim.org.zw/,Zimbabwe Red Cross Society,Zimbabwe Red Cross Society,-20.941379,30.637869,ZWE,Zimbabwe,Zimbabwe Red Cross Society,,,5-Jun-23,Yes,Yes
Beitbridge Office,Beitbridge Office,Administrative,1,District Office,District,2,,"Beitbridge District Hospital P O Box 57, Beitbridge","Beitbridge District Hospital P O Box 57, Beitbridge",Beitbridge,Beitbridge,Ndabezinhle Ncube,Ndabezinhle Ncube,00263776 483104,info@redcrosszim.org.zw,https://www.redcrosszim.org.zw/,Zimbabwe Red Cross Society,Zimbabwe Red Cross Society,-22.203749,29.988647,ZWE,Zimbabwe,Zimbabwe Red Cross Society,,,5-Jun-23,Yes,Yes
Plumtree Office,Plumtree Office,Administrative,1,District Office,District,2,,"514 Medium Density, Plumtree","514 Medium Density, Plumtree",Bulilimangwe,Bulilimangwe,Johnson Sibanda,Johnson Sibanda,00263782 116696,info@redcrosszim.org.zw,https://www.redcrosszim.org.zw/,Zimbabwe Red Cross Society,Zimbabwe Red Cross Society,-20.492078,27.802768,ZWE,Zimbabwe,Zimbabwe Red Cross Society,,,5-Jun-23,Yes,Yes
Binga Office,Binga Office,Administrative,1,District Office,District,2,,Kulima Mbobumi Training Centre P. Bag 5716 Binga,Kulima Mbobumi Training Centre P. Bag 5716 Binga,Binga,Binga,Siphiwe Nyathi,Siphiwe Nyathi,00263778 484885,info@redcrosszim.org.zw,https://www.redcrosszim.org.zw/,Zimbabwe Red Cross Society,Zimbabwe Red Cross Society,-17.621888,27.360236,ZWE,Zimbabwe,Zimbabwe Red Cross Society,,,5-Jun-23,Yes,Yes
Tongogara Office,Tongogara Office,Administrative,1,Branch Office,Ward,3,,Red Cross kiosk Tongogara Camp,Red Cross kiosk Tongogara Camp,Chipinge,Chipinge,Tichaona Nduna,Munyaradzi Chikukwa,00263776 987477,info@redcrosszim.org.zw,https://www.redcrosszim.org.zw/,Zimbabwe Red Cross Society,Zimbabwe Red Cross Society,-20.346739,32.308901,ZWE,Zimbabwe,Zimbabwe Red Cross Society,,,5-Jun-23,Yes,Yes
Chitungwiza Office,Chitungwiza Office,Administrative,1,Branch Office,Ward,3,,Chitungwiza (Close to Chitungwiza General Hospital),Chitungwiza (Close to Chitungwiza General Hospital),Chitungwiza,Chitungwiza,Memory Batani,Memory Batani,00263734 400734,info@redcrosszim.org.zw,https://www.redcrosszim.org.zw/,Zimbabwe Red Cross Society,Zimbabwe Red Cross Society,-18.017218,31.063569,ZWE,Zimbabwe,Zimbabwe Red Cross Society,,,5-Jun-23,Yes,Yes
Benue  Branch Office,Benue  Branch Office,Administrative,1,State Branch,Provincial,1,,"No 1 Ogiri Oko Road Opposite Police Headquarters Makurdi Benue State, Nigeria ","No 1 Ogiri Oko Road Opposite Police Headquarters Makurdi Benue State, Nigeria ",Makurdi ,Makurdi ,,,(234) 803 713 33 45,admin@redcrossnigeria.org,http://www.redcrossnigeria.org/,Nigerian Red Cross Society,Nigerian Red Cross Society,7.722032507,8.537948537,NGA,Nigeria,Nigerian Red Cross Society,,1,7-Feb-24,Yes,Yes
Bauchi Branch Office,Bauchi Branch Office,Administrative,1,State Branch,Provincial,1,,No. 1 Ahmad Abdulkadir Bank Road Behind State Swimming Pool Bauchi,No. 1 Ahmad Abdulkadir Bank Road Behind State Swimming Pool Bauchi,Bauchi ,Bauchi ,,,(234) 803 713 33 46,admin@redcrossnigeria.org,http://www.redcrossnigeria.org/,Nigerian Red Cross Society,Nigerian Red Cross Society,10.31345767,9.831374737,NGA,Nigeria,Nigerian Red Cross Society,,2,7-Feb-24,Yes,Yes
Edo Branch Office,Edo Branch Office,Administrative,1,State Branch,Provincial,1,,"Plot 32A, 8, Red Cross Crescent, Off Ikpokpan Road, G.R.A., Benin, Nigeria","Plot 32A, 8, Red Cross Crescent, Off Ikpokpan Road, G.R.A., Benin, Nigeria",Benin,Benin,,,(234) 803 713 33 47,admin@redcrossnigeria.org,http://www.redcrossnigeria.org/,Nigerian Red Cross Society,Nigerian Red Cross Society,6.31215073,5.625848646,NGA,Nigeria,Nigerian Red Cross Society,,3,7-Feb-24,Yes,Yes
Kaduna Branch Office,Kaduna Branch Office,Administrative,1,State Branch,Provincial,1,,"No 6 North Road, Opposite Abakpa Phcn, Kaduna North L.G.A. Kaduna State","No 6 North Road, Opposite Abakpa Phcn, Kaduna North L.G.A. Kaduna State",Kaduna,Kaduna,,,(234) 803 713 33 48,admin@redcrossnigeria.org,http://www.redcrossnigeria.org/,Nigerian Red Cross Society,Nigerian Red Cross Society,10.5462038,7.434458503,NGA,Nigeria,Nigerian Red Cross Society,,4,7-Feb-24,Yes,Yes
Ekiti Branch Office,Ekiti Branch Office,Administrative,1,State Branch,Provincial,1,,"K/L 2 Old Iyin Road, Better Life Training Center, Basiri, Ado-Ekiti.","K/L 2 Old Iyin Road, Better Life Training Center, Basiri, Ado-Ekiti.",Adoekiti,Adoekiti,,,(234) 803 713 33 49,admin@redcrossnigeria.org,http://www.redcrossnigeria.org/,Nigerian Red Cross Society,Nigerian Red Cross Society,7.652921692,5.205867994,NGA,Nigeria,Nigerian Red Cross Society,,5,7-Feb-24,Yes,Yes
Adamawa Branch Office,Adamawa Branch Office,Administrative,1,State Branch,Provincial,1,,"Opposite Lamido Zubairu Teaching Hospital,Yola","Opposite Lamido Zubairu Teaching Hospital,Yola",Yola ,Yola ,,,(234) 803 713 33 50,admin@redcrossnigeria.org,http://www.redcrossnigeria.org/,Nigerian Red Cross Society,Nigerian Red Cross Society,9.197215473,12.49012638,NGA,Nigeria,Nigerian Red Cross Society,,6,7-Feb-24,Yes,Yes
Kano Branch Office,Kano Branch Office,Administrative,1,State Branch,Provincial,1,,No 1 Nasarawa Hospital Road Kano,No 1 Nasarawa Hospital Road Kano,Kano,Kano,,,(234) 803 713 33 51,admin@redcrossnigeria.org,http://www.redcrossnigeria.org/,Nigerian Red Cross Society,Nigerian Red Cross Society,12.0010129,8.544298238,NGA,Nigeria,Nigerian Red Cross Society,,7,7-Feb-24,Yes,Yes
Osun Branch Office,Osun Branch Office,Administrative,1,State Branch,Provincial,1,,"No 3, Omo-Oba Adeyeye Str., Gbodofon, Aregbe Area, Off Gbongan Rd, Osogbo Osun State ","No 3, Omo-Oba Adeyeye Str., Gbodofon, Aregbe Area, Off Gbongan Rd, Osogbo Osun State ",Oshogbo ,Oshogbo ,,,(234) 803 713 33 52,admin@redcrossnigeria.org,http://www.redcrossnigeria.org/,Nigerian Red Cross Society,Nigerian Red Cross Society,7.768849023,4.541295681,NGA,Nigeria,Nigerian Red Cross Society,,8,7-Feb-24,Yes,Yes
Abia  Branch Office,Abia  Branch Office,Administrative,1,State Branch,Provincial,1,,"No 1 Red Cross Avenue, Km 58 Aba-Umuahia Exp.Way, Mgbarakuma Ubakala, Umuahia South Lga ","No 1 Red Cross Avenue, Km 58 Aba-Umuahia Exp.Way, Mgbarakuma Ubakala, Umuahia South Lga ",Umuahia,Umuahia,,,(234) 803 713 33 53,admin@redcrossnigeria.org,http://www.redcrossnigeria.org/,Nigerian Red Cross Society,Nigerian Red Cross Society,5.534204002,7.504904822,NGA,Nigeria,Nigerian Red Cross Society,,9,7-Feb-24,Yes,Yes
Jigawa Branch Office,Jigawa Branch Office,Administrative,1,State Branch,Provincial,1,,Block 24 Old Secretarial Behind Unicef Office,Block 24 Old Secretarial Behind Unicef Office,Dutse ,Dutse ,,,(234) 803 713 33 54,admin@redcrossnigeria.org,http://www.redcrossnigeria.org/,Nigerian Red Cross Society,Nigerian Red Cross Society,9.921232056,8.905850708,NGA,Nigeria,Nigerian Red Cross Society,,10,7-Feb-24,Yes,Yes
Borno Branch Office,Borno Branch Office,Administrative,1,State Branch,Provincial,1,,"Behind One Million Water Tank, Kirikasamma Maiduguri, Borno State.","Behind One Million Water Tank, Kirikasamma Maiduguri, Borno State.",Maiduguri ,Maiduguri ,,,(234) 803 713 33 55,admin@redcrossnigeria.org,http://www.redcrossnigeria.org/,Nigerian Red Cross Society,Nigerian Red Cross Society,11.85381058,13.14693416,NGA,Nigeria,Nigerian Red Cross Society,,11,7-Feb-24,Yes,Yes
Ogun Branch Office,Ogun Branch Office,Administrative,1,State Branch,Provincial,1,,"9, Olatunde Abudu Close Ibara Housing Estate Abeokuta ","9, Olatunde Abudu Close Ibara Housing Estate Abeokuta ",Abeokuta ,Abeokuta ,,,(234) 803 713 33 56,admin@redcrossnigeria.org,http://www.redcrossnigeria.org/,Nigerian Red Cross Society,Nigerian Red Cross Society,7.147594138,3.30777336,NGA,Nigeria,Nigerian Red Cross Society,,12,7-Feb-24,Yes,Yes
Anambra Branch Office,Anambra Branch Office,Administrative,1,State Branch,Provincial,1,,"No 10 Ziks Avenue By Governor'S Lodge Amawbia, Anambra State","No 10 Ziks Avenue By Governor'S Lodge Amawbia, Anambra State",Awka ,Awka ,,,(234) 803 713 33 57,admin@redcrossnigeria.org,http://www.redcrossnigeria.org/,Nigerian Red Cross Society,Nigerian Red Cross Society,6.194826561,7.056745708,NGA,Nigeria,Nigerian Red Cross Society,,13,7-Feb-24,Yes,Yes
Enugu Branch Office,Enugu Branch Office,Administrative,1,State Branch,Provincial,1,,"1/3 Red Cross Way, Opposite Ogbete Main Market, Enugu ","1/3 Red Cross Way, Opposite Ogbete Main Market, Enugu ",Enugu ,Enugu ,,,(234) 803 713 33 58,admin@redcrossnigeria.org,http://www.redcrossnigeria.org/,Nigerian Red Cross Society,Nigerian Red Cross Society,6.437997108,7.488400549,NGA,Nigeria,Nigerian Red Cross Society,,14,7-Feb-24,Yes,Yes
Rivers Branch Office,Rivers Branch Office,Administrative,1,State Branch,Provincial,1,,"23 Station Road, Town, Port Harcourt.","23 Station Road, Town, Port Harcourt.",Portharcourt ,Portharcourt ,,,(234) 803 713 33 59,admin@redcrossnigeria.org,http://www.redcrossnigeria.org/,Nigerian Red Cross Society,Nigerian Red Cross Society,4.767261487,7.017518322,NGA,Nigeria,Nigerian Red Cross Society,,15,7-Feb-24,Yes,Yes
Gombe Branch Office,Gombe Branch Office,Administrative,1,State Branch,Provincial,1,,"Along Phcn Transmission Station Adjacent Jibwis College Dukku Road Gombe, Gombe State.","Along Phcn Transmission Station Adjacent Jibwis College Dukku Road Gombe, Gombe State.",Gombe ,Gombe ,,,(234) 803 713 33 60,admin@redcrossnigeria.org,http://www.redcrossnigeria.org/,Nigerian Red Cross Society,Nigerian Red Cross Society,10.32161243,11.13383217,NGA,Nigeria,Nigerian Red Cross Society,,16,7-Feb-24,Yes,Yes
Delta Branch Office,Delta Branch Office,Administrative,1,State Branch,Provincial,1,,"No.5, Amaechi Iyoh Street, Off Mariam Babangida Way ,Asaba.","No.5, Amaechi Iyoh Street, Off Mariam Babangida Way ,Asaba.",Asaba ,Asaba ,,,(234) 803 713 33 61,admin@redcrossnigeria.org,http://www.redcrossnigeria.org/,Nigerian Red Cross Society,Nigerian Red Cross Society,6.215345794,6.683215981,NGA,Nigeria,Nigerian Red Cross Society,,17,7-Feb-24,Yes,Yes
Ondo Branch Office,Ondo Branch Office,Administrative,1,State Branch,Provincial,1,,"No 48, Igbalaye Street, Opposite Commercial Junction ,Oke Aro, Akure","No 48, Igbalaye Street, Opposite Commercial Junction ,Oke Aro, Akure",Akure ,Akure ,,,(234) 803 713 33 62,admin@redcrossnigeria.org,http://www.redcrossnigeria.org/,Nigerian Red Cross Society,Nigerian Red Cross Society,7.225338932,5.180244999,NGA,Nigeria,Nigerian Red Cross Society,,18,7-Feb-24,Yes,Yes
Akwa Ibom Branch Office,Akwa Ibom Branch Office,Administrative,1,State Branch,Provincial,1,,"164 Aka Road, Opposite De Choice Eatery, Uyo.","164 Aka Road, Opposite De Choice Eatery, Uyo.",Uyo ,Uyo ,,,(234) 803 713 33 63,admin@redcrossnigeria.org,http://www.redcrossnigeria.org/,Nigerian Red Cross Society,Nigerian Red Cross Society,5.017444307,7.921389909,NGA,Nigeria,Nigerian Red Cross Society,,19,7-Feb-24,Yes,Yes
Kebbi Branch Office,Kebbi Branch Office,Administrative,1,State Branch,Provincial,1,,Inside Malaria Complex Beside Sir Yahaya Memorial Hospital Opposite Union Bank,Inside Malaria Complex Beside Sir Yahaya Memorial Hospital Opposite Union Bank,Birnin Kebbi ,Birnin Kebbi ,,,(234) 803 713 33 64,admin@redcrossnigeria.org,http://www.redcrossnigeria.org/,Nigerian Red Cross Society,Nigerian Red Cross Society,12.45772848,4.201269093,NGA,Nigeria,Nigerian Red Cross Society,,20,7-Feb-24,Yes,Yes
Oyo Branch Office,Oyo Branch Office,Administrative,1,State Branch,Provincial,1,,"No.2 Onireke Layout, Beside Ibadan Northwest Local Govt. Ibadan","No.2 Onireke Layout, Beside Ibadan Northwest Local Govt. Ibadan",Ibadan ,Ibadan ,,,(234) 803 713 33 65,admin@redcrossnigeria.org,http://www.redcrossnigeria.org/,Nigerian Red Cross Society,Nigerian Red Cross Society,7.390998126,3.87955341,NGA,Nigeria,Nigerian Red Cross Society,,21,7-Feb-24,Yes,Yes
Taraba  Branch Office,Taraba  Branch Office,Administrative,1,State Branch,Provincial,1,,"Adjacent Ascon Office, Opposite Abbattior ,Wuro Sembe Road, Jalingo","Adjacent Ascon Office, Opposite Abbattior ,Wuro Sembe Road, Jalingo",Jalingo,Jalingo,,,(234) 803 713 33 66,admin@redcrossnigeria.org,http://www.redcrossnigeria.org/,Nigerian Red Cross Society,Nigerian Red Cross Society,8.881364981,11.37571853,NGA,Nigeria,Nigerian Red Cross Society,,22,7-Feb-24,Yes,Yes
Kogi  Branch Office,Kogi  Branch Office,Administrative,1,State Branch,Provincial,1,,"State Universal Basic Education Board Compound,  Taiwo Road Lokoja","State Universal Basic Education Board Compound,  Taiwo Road Lokoja",Lokoja ,Lokoja ,,,(234) 803 713 33 67,admin@redcrossnigeria.org,http://www.redcrossnigeria.org/,Nigerian Red Cross Society,Nigerian Red Cross Society,7.807186842,6.737903579,NGA,Nigeria,Nigerian Red Cross Society,,23,7-Feb-24,Yes,Yes
Nasarawa  Branch Office,Nasarawa  Branch Office,Administrative,1,State Branch,Provincial,1,," Low Cost Opposite State Water Board, Shendam Road, Lafia, Nasarawa State "," Low Cost Opposite State Water Board, Shendam Road, Lafia, Nasarawa State ",Lafia ,Lafia ,,,(234) 803 713 33 68,admin@redcrossnigeria.org,http://www.redcrossnigeria.org/,Nigerian Red Cross Society,Nigerian Red Cross Society,8.502964116,8.528774623,NGA,Nigeria,Nigerian Red Cross Society,,24,7-Feb-24,Yes,Yes
Bayelsa Branch Office,Bayelsa Branch Office,Administrative,1,State Branch,Provincial,1,,"Transparency Plaza, Block B, 6Th Floor, Ox- Bow Lake Road Yenagoa, Bayelsa State.","Transparency Plaza, Block B, 6Th Floor, Ox- Bow Lake Road Yenagoa, Bayelsa State.",Yenagoa ,Yenagoa ,,,(234) 803 713 33 69,admin@redcrossnigeria.org,http://www.redcrossnigeria.org/,Nigerian Red Cross Society,Nigerian Red Cross Society,4.893052866,6.29366258,NGA,Nigeria,Nigerian Red Cross Society,,25,7-Feb-24,Yes,Yes
Niger Branch Office,Niger Branch Office,Administrative,1,State Branch,Provincial,1,,Old Tawiyi Village Off Maitumbi Eastern Bypass Minna,Old Tawiyi Village Off Maitumbi Eastern Bypass Minna,Minna ,Minna ,,,(234) 803 713 33 70,admin@redcrossnigeria.org,http://www.redcrossnigeria.org/,Nigerian Red Cross Society,Nigerian Red Cross Society,9.61684212,6.544299117,NGA,Nigeria,Nigerian Red Cross Society,,26,7-Feb-24,Yes,Yes
Fct Branch Office,Fct Branch Office,Administrative,1,State Branch,Provincial,1,,"Suite 316B Dbm Plaza Wuse Zone 1, Abuja","Suite 316B Dbm Plaza Wuse Zone 1, Abuja",Fct ,Fct ,,,(234) 803 713 33 71,admin@redcrossnigeria.org,http://www.redcrossnigeria.org/,Nigerian Red Cross Society,Nigerian Red Cross Society,9.052667886,7.466133794,NGA,Nigeria,Nigerian Red Cross Society,,27,7-Feb-24,Yes,Yes
Zamfara Branch Office,Zamfara Branch Office,Administrative,1,State Branch,Provincial,1,,58 Housing Behind State Eoc Zamfara State,58 Housing Behind State Eoc Zamfara State,Gusau ,Gusau ,,,(234) 803 713 33 72,admin@redcrossnigeria.org,http://www.redcrossnigeria.org/,Nigerian Red Cross Society,Nigerian Red Cross Society,12.16288794,6.674460751,NGA,Nigeria,Nigerian Red Cross Society,,28,7-Feb-24,Yes,Yes
Sokoto Branch Office,Sokoto Branch Office,Administrative,1,State Branch,Provincial,1,,"Opposite State Sub-Treasury, Ibrahim Dasuki Road Sokoto.","Opposite State Sub-Treasury, Ibrahim Dasuki Road Sokoto.",Sokoto ,Sokoto ,,,(234) 803 713 33 73,admin@redcrossnigeria.org,http://www.redcrossnigeria.org/,Nigerian Red Cross Society,Nigerian Red Cross Society,13.04291724,5.243784672,NGA,Nigeria,Nigerian Red Cross Society,,29,7-Feb-24,Yes,Yes
Lagos Branch Office,Lagos Branch Office,Administrative,1,State Branch,Provincial,1,,"2, Makoko Road, Adekunle,Yaba, Lagos ","2, Makoko Road, Adekunle,Yaba, Lagos ",Ikeja ,Ikeja ,,,(234) 803 713 33 74,admin@redcrossnigeria.org,http://www.redcrossnigeria.org/,Nigerian Red Cross Society,Nigerian Red Cross Society,6.493441678,3.382131941,NGA,Nigeria,Nigerian Red Cross Society,,30,7-Feb-24,Yes,Yes
Ebonyi  Branch Office,Ebonyi  Branch Office,Administrative,1,State Branch,Provincial,1,,"3 Nsugbe Street Abakaliki, Ebonyi State ","3 Nsugbe Street Abakaliki, Ebonyi State ",Abakaliki  ,Abakaliki  ,,,(234) 803 713 33 75,admin@redcrossnigeria.org,http://www.redcrossnigeria.org/,Nigerian Red Cross Society,Nigerian Red Cross Society,6.326578067,8.11109775,NGA,Nigeria,Nigerian Red Cross Society,,31,7-Feb-24,Yes,Yes
Imo Branch Office,Imo Branch Office,Administrative,1,State Branch,Provincial,1,,No 2 Sam Mbakwe Road By Emmanuel College Wetheral Round About Opposite Deeper Life Church,No 2 Sam Mbakwe Road By Emmanuel College Wetheral Round About Opposite Deeper Life Church,Owerri ,Owerri ,,,(234) 803 713 33 76,admin@redcrossnigeria.org,http://www.redcrossnigeria.org/,Nigerian Red Cross Society,Nigerian Red Cross Society,5.486615617,7.014973889,NGA,Nigeria,Nigerian Red Cross Society,,32,7-Feb-24,Yes,Yes
Kwara Branch Office,Kwara Branch Office,Administrative,1,State Branch,Provincial,1,,"No.5 Red Cross Road Off Offa Road, G.R.A, Ilorin, Kwara State.","No.5 Red Cross Road Off Offa Road, G.R.A, Ilorin, Kwara State.",Ilorin ,Ilorin ,,,(234) 803 713 33 77,admin@redcrossnigeria.org,http://www.redcrossnigeria.org/,Nigerian Red Cross Society,Nigerian Red Cross Society,8.48762955,4.572941901,NGA,Nigeria,Nigerian Red Cross Society,,33,7-Feb-24,Yes,Yes
Plateau Branch Office,Plateau Branch Office,Administrative,1,State Branch,Provincial,1,,"Nos 71 Bauchi Road,Opposite University Staff Quarter, Jos,Plateau State","Nos 71 Bauchi Road,Opposite University Staff Quarter, Jos,Plateau State",Jos ,Jos ,,,(234) 803 713 33 78,admin@redcrossnigeria.org,http://www.redcrossnigeria.org/,Nigerian Red Cross Society,Nigerian Red Cross Society,9.941620244,8.892458493,NGA,Nigeria,Nigerian Red Cross Society,,34,7-Feb-24,Yes,Yes
Katsina  Branch Office,Katsina  Branch Office,Administrative,1,State Branch,Provincial,1,,"No 1 Bala Abdullahi Road, Sardauna  Estate Katsina","No 1 Bala Abdullahi Road, Sardauna  Estate Katsina",Katsina ,Katsina ,,,(234) 803 713 33 79,admin@redcrossnigeria.org,http://www.redcrossnigeria.org/,Nigerian Red Cross Society,Nigerian Red Cross Society,12.96683199,7.600979773,NGA,Nigeria,Nigerian Red Cross Society,,35,7-Feb-24,Yes,Yes
Cross River Branch Office,Cross River Branch Office,Administrative,1,State Branch,Provincial,1,,"No 1 Garden Street, Calabar ","No 1 Garden Street, Calabar ",Calabar ,Calabar ,,,(234) 803 713 33 80,admin@redcrossnigeria.org,http://www.redcrossnigeria.org/,Nigerian Red Cross Society,Nigerian Red Cross Society,4.959623923,8.321363344,NGA,Nigeria,Nigerian Red Cross Society,,36,7-Feb-24,Yes,Yes
Yobe State  Branch Office,Yobe State  Branch Office,Administrative,1,State Branch,Provincial,1,,"House No. 1, 300 Housing Estate Along Potiskum-Maiduguri Bypass, Damaturu, Yobe State.","House No. 1, 300 Housing Estate Along Potiskum-Maiduguri Bypass, Damaturu, Yobe State.",Damaturu ,Damaturu ,,,(234) 803 713 33 81,admin@redcrossnigeria.org,http://www.redcrossnigeria.org/,Nigerian Red Cross Society,Nigerian Red Cross Society,11.72358523,11.96603055,NGA,Nigeria,Nigerian Red Cross Society,,37,7-Feb-24,Yes,Yes
Kenya Red Cross Society Head Office,Kenya Red Cross Society Head Office,Administrative,1,Head Office,Head Office,0,,"Red Cross, Nairobi, Kenya","Red Cross, Nairobi, Kenya",,Nairobi,,,(254)(20) 395 0000,info@redcross.or.ke,http://www.redcross.or.ke/,Kenya Red Cross Society,Kenya Red Cross Society,-1.32371091,36.83351956,KEN,Kenya,Kenya Red Cross Society,,,22-Mar-17,Yes,Yes
Nairobi Branch Office,Nairobi Branch Office,Administrative,1,Branch Office,Provincial,1,,Nyayo House 18Th Flr,Nyayo House 18Th Flr,,Nairobi,,Caroline Kimathi ,717898330,nairobicounty@redcross.or.ke,http://www.redcross.or.ke/,Kenya Red Cross Society,Kenya Red Cross Society,-1.287107342,36.81813296,KEN,Kenya,Kenya Red Cross Society,,,22-Mar-17,Yes,Yes
Nairobi Satelite office,Nairobi Satelite office,Administrative,1,Satelite Office,District,2,,"Racecourse Rd, Nairobi","Racecourse Rd, Nairobi",,Nairobi,,Beatrice Akinyi,710306892,nairobicounty@redcross.or.ke,http://www.redcross.or.ke/,Kenya Red Cross Society,Kenya Red Cross Society,-1.287338,36.830486,KEN,Kenya,Kenya Red Cross Society,,,22-Mar-17,Yes,Yes
Parklands Satelite office,Parklands Satelite office,Administrative,1,Satelite Office,District,2,,City Park Hockey Stadium,City Park Hockey Stadium,,Nairobi,,Maureen Akinyi,719258515,nairobicounty@redcross.or.ke,http://www.redcross.or.ke/,Kenya Red Cross Society,Kenya Red Cross Society,-1.260646,36.827336,KEN,Kenya,Kenya Red Cross Society,,,22-Mar-17,Yes,Yes
Karen Lang'Ata Satelite office,Karen Lang'Ata Satelite office,Administrative,1,Satelite Office,District,2,,"Dagoretti Rd, Nairobi","Dagoretti Rd, Nairobi",,Nairobi,,Faith Mutemi,725851918,nairobicounty@redcross.or.ke,http://www.redcross.or.ke/,Kenya Red Cross Society,Kenya Red Cross Society,-1.321969,36.706952,KEN,Kenya,Kenya Red Cross Society,,,22-Mar-17,Yes,Yes
Mandera Branch Office,Mandera Branch Office,Administrative,1,Branch Office,Provincial,1,,Along Suftu Road Behind County Commissioner'S Resident Adjacent To Mandera County Referral Hospital. ,Along Suftu Road Behind County Commissioner'S Resident Adjacent To Mandera County Referral Hospital. ,,Mandera,,Mustafa Aden,720059344,mandera@redcross.or.ke,http://www.redcross.or.ke/,Kenya Red Cross Society,Kenya Red Cross Society,3.936999,41.855543,KEN,Kenya,Kenya Red Cross Society,,,22-Mar-17,Yes,Yes
Lamu Branch Office,Lamu Branch Office,Administrative,1,Branch Office,Provincial,1,,Lamu Rehabilitation Center,Lamu Rehabilitation Center,,Mokowe,,Abdulhakim  Mahmoud ,700482906,lamu@redcross.or.ke,http://www.redcross.or.ke/,Kenya Red Cross Society,Kenya Red Cross Society,-2.194408575,40.81718809,KEN,Kenya,Kenya Red Cross Society,,,22-Mar-17,Yes,Yes
Mpeketoni Satelite office,Mpeketoni Satelite office,Administrative,1,Satelite Office,District,2,,"Mpeketoni, Opposite Law Courts ","Mpeketoni, Opposite Law Courts ",,Mpeketoni,,Dickson Njuma,759535954,lamu@redcross.or.ke,http://www.redcross.or.ke/,Kenya Red Cross Society,Kenya Red Cross Society,-2.390678,40.696449,KEN,Kenya,Kenya Red Cross Society,,,22-Mar-17,Yes,Yes
Garissa Branch Office,Garissa Branch Office,Administrative,1,Branch Office,Provincial,1,,Location Next To Minsitry Of Works.,Location Next To Minsitry Of Works.,,Garissa,,Abu Ahmed ,720891593,garissa@redcross.or.ke,http://www.redcross.or.ke/,Kenya Red Cross Society,Kenya Red Cross Society,-0.440582127,39.6562823,KEN,Kenya,Kenya Red Cross Society,,,22-Mar-17,Yes,Yes
Ijara Satelite office,Ijara Satelite office,Administrative,1,Satelite Office,District,2,,Masarani,Masarani,,Masarani,,Mohamed Bare,724830185,garissa@redcross.or.ke,http://www.redcross.or.ke/,Kenya Red Cross Society,Kenya Red Cross Society,-1.546658,40.43391,KEN,Kenya,Kenya Red Cross Society,,,22-Mar-17,Yes,Yes
Wajir Branch Office,Wajir Branch Office,Administrative,1,Branch Office,Provincial,1,,Next To Wajir Stadium,Next To Wajir Stadium,,Wajir,,Abdia Adan,724474194,wajir@redcross.or.ke,http://www.redcross.or.ke/,Kenya Red Cross Society,Kenya Red Cross Society,1.748958,40.055809,KEN,Kenya,Kenya Red Cross Society,,,22-Mar-17,Yes,Yes
Hola Branch Office,Hola Branch Office,Administrative,1,Branch Office,Provincial,1,,In Hola Near  Catholic Mission,In Hola Near  Catholic Mission,,Hola,,Jerald Bombe,722303634,tanariver@redcross.or.ke,http://www.redcross.or.ke/,Kenya Red Cross Society,Kenya Red Cross Society,-1.497575,40.029545,KEN,Kenya,Kenya Red Cross Society,,,22-Mar-17,Yes,Yes
Kilifi Branch Office,Kilifi Branch Office,Administrative,1,Branch Office,Provincial,1,, Next To St. Thomas Primary School, Next To St. Thomas Primary School,,Malindi,,Kawthar Mohamed,721681730,kilifi@redcross.or.ke,http://www.redcross.or.ke/,Kenya Red Cross Society,Kenya Red Cross Society,-3.198295326,40.11443339,KEN,Kenya,Kenya Red Cross Society,,,22-Mar-17,Yes,Yes
Kilifi Satelite office,Kilifi Satelite office,Administrative,1,Satelite Office,District,2,, Next To St. Thomas Primary School, Next To St. Thomas Primary School,,Kilifi,,Zipporah Kuria,717017184,kilifi@redcross.or.ke,http://www.redcross.or.ke/,Kenya Red Cross Society,Kenya Red Cross Society,-3.629753,39.862239,KEN,Kenya,Kenya Red Cross Society,,,22-Mar-17,Yes,Yes
Mombasa Branch Office,Mombasa Branch Office,Administrative,1,Branch Office,Provincial,1,,"Off Moi Avenue Along Aghakhan Road,Opposite Uon Mombasa Campus Next To Lions Eye Center At Koblenz Hall.","Off Moi Avenue Along Aghakhan Road,Opposite Uon Mombasa Campus Next To Lions Eye Center At Koblenz Hall.",,Mombasa,,Aisha Mohamed ,721664435,mombasa@redcross.or.ke,http://www.redcross.or.ke/,Kenya Red Cross Society,Kenya Red Cross Society,-4.052733,39.664716,KEN,Kenya,Kenya Red Cross Society,,,22-Mar-17,Yes,Yes
Kwale Branch Office,Kwale Branch Office,Administrative,1,Branch Office,Provincial,1,,Along Likoni Lunga Lunga Road Next To Biashara Centre,Along Likoni Lunga Lunga Road Next To Biashara Centre,,Diani/Ukunda,,Mohamed Mwaenzi,726125953,kwale@redcross.or.ke,http://www.redcross.or.ke/,Kenya Red Cross Society,Kenya Red Cross Society,-4.293933,39.56342,KEN,Kenya,Kenya Red Cross Society,,,22-Mar-17,Yes,Yes
Samburu Branch Office,Samburu Branch Office,Administrative,1,Branch Office,Provincial,1,,Maralal,Maralal,,Maralal,,Lydia Maina,716435148,samburu@redcross.or.ke,http://www.redcross.or.ke/,Kenya Red Cross Society,Kenya Red Cross Society,-3.779323,39.2789,KEN,Kenya,Kenya Red Cross Society,,,22-Mar-17,Yes,Yes
Voi-Taita Taveta Branch Office,Voi-Taita Taveta Branch Office,Administrative,1,Branch Office,Provincial,1,,"Along Kcb Bank, Off Moi Referal Hospital Road, Vawug Building","Along Kcb Bank, Off Moi Referal Hospital Road, Vawug Building",,Voi,,Joram Oranga,728730717,taitataveta@redcross.or.ke,http://www.redcross.or.ke/,Kenya Red Cross Society,Kenya Red Cross Society,-3.396689,38.557334,KEN,Kenya,Kenya Red Cross Society,,,22-Mar-17,Yes,Yes
Kitui Branch Office,Kitui Branch Office,Administrative,1,Branch Office,Provincial,1,,Kitui- Kwa Ngindu Road (Next To The County Commissioners Residence),Kitui- Kwa Ngindu Road (Next To The County Commissioners Residence),,Kitui,,Elizabeth Aballa,728386346,kitui@redcross.or.ke,http://www.redcross.or.ke/,Kenya Red Cross Society,Kenya Red Cross Society,-1.374231,37.995647,KEN,Kenya,Kenya Red Cross Society,,,22-Mar-17,Yes,Yes
Mwingi satelite Office,Mwingi satelite Office,Administrative,1,Satelite Office,District,2,,Mwingi At Education Office,Mwingi At Education Office,,Mwingi,,Elizabeth Aballa,728386346,kitui@redcross.or.ke,http://www.redcross.or.ke/,Kenya Red Cross Society,Kenya Red Cross Society,-0.919583,38.06237,KEN,Kenya,Kenya Red Cross Society,,,22-Mar-17,Yes,Yes
Ikutha Satelite Office,Ikutha Satelite Office,Administrative,1,Satelite Office,District,2,,Ikutha -Kitui  South,Ikutha -Kitui  South,,Kitui-south,,Elizabeth Aballa,728386346,kitui@redcross.or.ke,http://www.redcross.or.ke/,Kenya Red Cross Society,Kenya Red Cross Society,-1.36333582,38.0163728,KEN,Kenya,Kenya Red Cross Society,,,22-Mar-17,Yes,Yes
Marsabit Branch Office,Marsabit Branch Office,Administrative,1,Branch Office,Provincial,1,,Located In The Compound Of St. Stephen Training Center Same Compound With Fh. About 300 M East Of Marsabit Market,Located In The Compound Of St. Stephen Training Center Same Compound With Fh. About 300 M East Of Marsabit Market,,Marsabit,,Sabdio Galgalo,727566057,marsabit@redcross.or.ke,http://www.redcross.or.ke/,Kenya Red Cross Society,Kenya Red Cross Society,2.333284,37.984071,KEN,Kenya,Kenya Red Cross Society,,,22-Mar-17,Yes,Yes
Meru Branch Office,Meru Branch Office,Administrative,1,Branch Office,Provincial,1,,"North Imenti Cdf Building -Off Mwendantu Road,  100 Meters From Tuskys Meru.","North Imenti Cdf Building -Off Mwendantu Road,  100 Meters From Tuskys Meru.",,Mweru,,Malcom Kanyoko,734350144,meru@redcross.or.ke,http://www.redcross.or.ke/,Kenya Red Cross Society,Kenya Red Cross Society,0.052829,37.645941,KEN,Kenya,Kenya Red Cross Society,,,22-Mar-17,Yes,Yes
Isiolo Branch Office,Isiolo Branch Office,Administrative,1,Branch Office,Provincial,1,,Off The Isiolo-Meru Road Opposite Oil Libya Petrol Station 2Kms From Isiolo Town,Off The Isiolo-Meru Road Opposite Oil Libya Petrol Station 2Kms From Isiolo Town,,Isiolo,,Gregory Macharia,720920743,isiolo@redcross.or.ke,http://www.redcross.or.ke/,Kenya Red Cross Society,Kenya Red Cross Society,0.309993,37.576513,KEN,Kenya,Kenya Red Cross Society,,,22-Mar-17,Yes,Yes
Embu Branch Office,Embu Branch Office,Administrative,1,Branch Office,Provincial,1,,Embu Town Off Mama Ngina Street Along Kws Road..500Metres From Kws Offices Next To Embu Urban Primary And Secondary School,Embu Town Off Mama Ngina Street Along Kws Road..500Metres From Kws Offices Next To Embu Urban Primary And Secondary School,,Embu,,Pauline Mureithi,725117268,embu@redcross.or.ke,http://www.redcross.or.ke/,Kenya Red Cross Society,Kenya Red Cross Society,-0.538107,37.458865,KEN,Kenya,Kenya Red Cross Society,,,22-Mar-17,Yes,Yes
Kirinyaga Branch Office,Kirinyaga Branch Office,Administrative,1,Branch Office,Provincial,1,,Kerugoya Municiple Council Office Grounds,Kerugoya Municiple Council Office Grounds,,Kirinyanga,,Martin Githua Kagunda,727820120,kirinyaga@redcross.or.ke,http://www.redcross.or.ke/,Kenya Red Cross Society,Kenya Red Cross Society,-0.150507,37.316127,KEN,Kenya,Kenya Red Cross Society,,,22-Mar-17,Yes,Yes
Machakos Branch Office,Machakos Branch Office,Administrative,1,Branch Office,Provincial,1,,Red Cross Complex Building. (Next To A.C.K All- Soul’S Cathedral),Red Cross Complex Building. (Next To A.C.K All- Soul’S Cathedral),,Machakos,,Faith Kavuli ,722722151,machakos@redcross.or.ke,http://www.redcross.or.ke/,Kenya Red Cross Society,Kenya Red Cross Society,-1.516955,37.261527,KEN,Kenya,Kenya Red Cross Society,,,22-Mar-17,Yes,Yes
Muranga Branch Office,Muranga Branch Office,Administrative,1,Branch Office,Provincial,1,,"Next To Juvenile Home, Murang'A Town","Next To Juvenile Home, Murang'A Town",,Muranga,,Immaculate Iteba,716179761,muranga@redcross.or.ke,http://www.redcross.or.ke/,Kenya Red Cross Society,Kenya Red Cross Society,-0.718776,37.163326,KEN,Kenya,Kenya Red Cross Society,,,22-Mar-17,Yes,Yes
Maragua Satelite Office,Maragua Satelite Office,Administrative,1,Satelite Office,District,2,,Murang'A,Murang'A,,Muranga,,Immaculate Iteba,716179761,muranga@redcross.or.ke,http://www.redcross.or.ke/,Kenya Red Cross Society,Kenya Red Cross Society,-0.793951,37.131214,KEN,Kenya,Kenya Red Cross Society,,,22-Mar-17,Yes,Yes
Laikipia Branch Office,Laikipia Branch Office,Administrative,1,Branch Office,Provincial,1,,"Majengo, Stadium Road Opposite Deb Primary","Majengo, Stadium Road Opposite Deb Primary",,Nanyuki,,Bilhah Nguru,721672593,laikipia@redcross.or.ke,http://www.redcross.or.ke/,Kenya Red Cross Society,Kenya Red Cross Society,0.015613,37.068775,KEN,Kenya,Kenya Red Cross Society,,,22-Mar-17,Yes,Yes
Nyeri Branch Office,Nyeri Branch Office,Administrative,1,Branch Office,Provincial,1,,Next To Boma Inn. Opposite Ruringu Stadium,Next To Boma Inn. Opposite Ruringu Stadium,,Nyeri,,,722774693,kenyaredcross.nyeri@gmail.com,http://www.redcross.or.ke/,Kenya Red Cross Society,Kenya Red Cross Society,-0.415631,36.949554,KEN,Kenya,Kenya Red Cross Society,,,22-Mar-17,Yes,Yes
Kiambu Branch Office,Kiambu Branch Office,Administrative,1,Branch Office,Provincial,1,,Kiambu,Kiambu,,Kiambu,,Susan Maina ,722543487,kiambu@redcross.or.ke,http://www.redcross.or.ke/,Kenya Red Cross Society,Kenya Red Cross Society,-1.173721,36.841486,KEN,Kenya,Kenya Red Cross Society,,,22-Mar-17,Yes,Yes
Thika Satelite office,Thika Satelite office,Administrative,1,Satelite Office,District,2,,"Thika, Kiambu","Thika, Kiambu",,Thika,,Eva Nduta ,795718063,kiambu@redcross.or.ke,http://www.redcross.or.ke/,Kenya Red Cross Society,Kenya Red Cross Society,-1.037032,37.084007,KEN,Kenya,Kenya Red Cross Society,,,22-Mar-17,Yes,Yes
Limuru Satelite office,Limuru Satelite office,Administrative,1,Satelite Office,District,2,,Limuru,Limuru,,Limuru,,Susan Nduta,712168119,kiambu@redcross.or.ke,http://www.redcross.or.ke/,Kenya Red Cross Society,Kenya Red Cross Society,-1.194872,36.727601,KEN,Kenya,Kenya Red Cross Society,,,22-Mar-17,Yes,Yes
Kajiado Branch Office,Kajiado Branch Office,Administrative,1,Branch Office,Provincial,1,,Nairobi- Namanga Road (Opposite Maasai Technical Institute),Nairobi- Namanga Road (Opposite Maasai Technical Institute),,Nairobi,,Christine Nzilani ,718166905,kajiado@redcross.or.ke,http://www.redcross.or.ke/,Kenya Red Cross Society,Kenya Red Cross Society,-1.849995,36.787572,KEN,Kenya,Kenya Red Cross Society,,,22-Mar-17,Yes,Yes
Kajiado South Satelite office,Kajiado South Satelite office,Administrative,1,Satelite Office,District,2,,Kajiado South Unit,Kajiado South Unit,,Loitoktok,,Edward Lodamu,728121845,kajiado@redcross.or.ke,http://www.redcross.or.ke/,Kenya Red Cross Society,Kenya Red Cross Society,-1.852476317,36.77917449,KEN,Kenya,Kenya Red Cross Society,,,22-Mar-17,Yes,Yes
Kajiado East  Satelite office,Kajiado East  Satelite office,Administrative,1,Satelite Office,District,2,,Kajiado East Unit,Kajiado East Unit,,Kitengela ,,Shakila Yusuf Omwanda,740813782,kajiado@redcross.or.ke,http://www.redcross.or.ke/,Kenya Red Cross Society,Kenya Red Cross Society,-1.852476317,36.77917449,KEN,Kenya,Kenya Red Cross Society,,,22-Mar-17,Yes,Yes
Elgeyo Marakwet Branch Office,Elgeyo Marakwet Branch Office,Administrative,1,Branch Office,Provincial,1,,Iten Vocatopnal Training College,Iten Vocatopnal Training College,,Nairobi,,Abraham K.  Cheruiyot,720903030,marakwet@redcross.or.ke,http://www.redcross.or.ke/,Kenya Red Cross Society,Kenya Red Cross Society,-1.291049,36.77885,KEN,Kenya,Kenya Red Cross Society,,,22-Mar-17,Yes,Yes
Nakuru Branch Office,Nakuru Branch Office,Administrative,1,Branch Office,Provincial,1,,Ronald Ngala Road Next To Mama Ngina Primary School.,Ronald Ngala Road Next To Mama Ngina Primary School.,,Nakuru,,Elizabeth Achieng,727540883,nakuru@redcross.or.ke,http://www.redcross.or.ke/,Kenya Red Cross Society,Kenya Red Cross Society,-0.294318,36.064366,KEN,Kenya,Kenya Red Cross Society,,,22-Mar-17,Yes,Yes
Naivasha Satelite office,Naivasha Satelite office,Administrative,1,Satelite Office,District,2,,"Naivasha, Nakuru","Naivasha, Nakuru",,Naivasha,,Stephen Kamau,727303465,nakuru@redcross.or.ke,http://www.redcross.or.ke/,Kenya Red Cross Society,Kenya Red Cross Society,-0.712314,36.433812,KEN,Kenya,Kenya Red Cross Society,,,22-Mar-17,Yes,Yes
Molo Satelite office,Molo Satelite office,Administrative,1,Satelite Office,District,2,,Molo,Molo,,Molo,,Charles Kahuha,728855876,nakuru@redcross.or.ke,http://www.redcross.or.ke/,Kenya Red Cross Society,Kenya Red Cross Society,-0.239073342,35.72083932,KEN,Kenya,Kenya Red Cross Society,,,22-Mar-17,Yes,Yes
Turkana Branch Office,Turkana Branch Office,Administrative,1,Branch Office,Provincial,1,,Located Along Lodwar Lorugum Road In Nakwamekwi Area,Located Along Lodwar Lorugum Road In Nakwamekwi Area,,Turkana,,Rukia Abubakar,720248626,turkana@redcross.or.ke,http://www.redcross.or.ke/,Kenya Red Cross Society,Kenya Red Cross Society,3.672238,36.378179,KEN,Kenya,Kenya Red Cross Society,,,22-Mar-17,Yes,Yes
Nyandarua Branch Office,Nyandarua Branch Office,Administrative,1,Branch Office,Provincial,1,,Olkalou Town Housed By Cdf Olkalou Constituency,Olkalou Town Housed By Cdf Olkalou Constituency,,Ol Kalou,,Benedict Omondi,721297550,olkalou@redcross.or.ke,http://www.redcross.or.ke/,Kenya Red Cross Society,Kenya Red Cross Society,-0.271996,36.377492,KEN,Kenya,Kenya Red Cross Society,,,22-Mar-17,Yes,Yes
Baringo Branch Office,Baringo Branch Office,Administrative,1,Branch Office,Provincial,1,,Along Nakuru- Loruk Road Adjacent To Ministry Of Health Lab Next To Marigat Pri.And Aic Fellowship Church,Along Nakuru- Loruk Road Adjacent To Ministry Of Health Lab Next To Marigat Pri.And Aic Fellowship Church,,Marigat,,Caleb Kibet ,700387323,baringo@redcross.or.ke,http://www.redcross.or.ke/,Kenya Red Cross Society,Kenya Red Cross Society,0.492011115,35.7454058,KEN,Kenya,Kenya Red Cross Society,,,22-Mar-17,Yes,Yes
Koibatek Satelite office,Koibatek Satelite office,Administrative,1,Satelite Office,District,2,,Baringo,Baringo,,Baringo,,Caleb Kibet ,722267309,baringo@redcross.or.ke,http://www.redcross.or.ke/,Kenya Red Cross Society,Kenya Red Cross Society,0.101398,36.034598,KEN,Kenya,Kenya Red Cross Society,,,22-Mar-17,Yes,Yes
East Pokot Satelite office,East Pokot Satelite office,Administrative,1,Satelite Office,District,2,,West Pokot,West Pokot,,East Pokot,,Caleb Kibet ,712029622,baringo@redcross.or.ke,http://www.redcross.or.ke/,Kenya Red Cross Society,Kenya Red Cross Society,1.927222,35.274181,KEN,Kenya,Kenya Red Cross Society,,,22-Mar-17,Yes,Yes
West Pokot Branch Office,West Pokot Branch Office,Administrative,1,Branch Office,Provincial,1,,Next To Kenya Police Head Quarters Kapenguria Division,Next To Kenya Police Head Quarters Kapenguria Division,,West Pokot,,Scholstic Jelangat Kapello,726743594,westpokot@redcross.or.ke,http://www.redcross.or.ke/,Kenya Red Cross Society,Kenya Red Cross Society,2.024093,35.258247,KEN,Kenya,Kenya Red Cross Society,,,22-Mar-17,Yes,Yes
Narok Branch Office,Narok Branch Office,Administrative,1,Branch Office,Provincial,1,,Naivas C57,Naivas C57,,Narok,,Celestine Ogutu,718023341,narok@redcross.or.ke,http://www.redcross.or.ke/,Kenya Red Cross Society,Kenya Red Cross Society,-1.086626,35.866086,KEN,Kenya,Kenya Red Cross Society,,,22-Mar-17,Yes,Yes
Kericho Branch Office,Kericho Branch Office,Administrative,1,Branch Office,Provincial,1,,"Along Law Court. Via Moi Road, Temple Road Kericho, Ministry Of Information Building.","Along Law Court. Via Moi Road, Temple Road Kericho, Ministry Of Information Building.",,Kericho,,Siphia Tuwei,729373867,kericho@redcross.or.ke,http://www.redcross.or.ke/,Kenya Red Cross Society,Kenya Red Cross Society,-0.36849,35.286745,KEN,Kenya,Kenya Red Cross Society,,,22-Mar-17,Yes,Yes
Uasin Gishu Branch Office,Uasin Gishu Branch Office,Administrative,1,Branch Office,Provincial,1,,In Chinese Race Course Along Eldoret International Airport Route,In Chinese Race Course Along Eldoret International Airport Route,,Eldoret,,Alice Njari ,711133268,uasingishu@redcross.or.ke,http://www.redcross.or.ke/,Kenya Red Cross Society,Kenya Red Cross Society,0.524296,35.249212,KEN,Kenya,Kenya Red Cross Society,,,22-Mar-17,Yes,Yes
Bomet Branch Office,Bomet Branch Office,Administrative,1,Branch Office,Provincial,1,,Office Located Along Narok Kaplong Highway Inside The Bomet County Assembly Offices,Office Located Along Narok Kaplong Highway Inside The Bomet County Assembly Offices,,BOMET,,Joseph Kosgei,723690733,bomet@redcross.or.ke,http://www.redcross.or.ke/,Kenya Red Cross Society,Kenya Red Cross Society,-0.781711183,35.34467076,KEN,Kenya,Kenya Red Cross Society,,,22-Mar-17,Yes,Yes
Nandi Branch Office,Nandi Branch Office,Administrative,1,Branch Office,Provincial,1,,Tinderet/Kapsabet,Tinderet/Kapsabet,,Nandi,,Julius Sang,722227131,nandi@redcross.or.ke,http://www.redcross.or.ke/,Kenya Red Cross Society,Kenya Red Cross Society,0.203151814,35.10603743,KEN,Kenya,Kenya Red Cross Society,,,22-Mar-17,Yes,Yes
Kisumu Branch Office,Kisumu Branch Office,Administrative,1,Branch Office,Provincial,1,,The Branch Is Located At Behind Jaramogi Oginga Odinga Refferral Hospital Next To Mortuary,The Branch Is Located At Behind Jaramogi Oginga Odinga Refferral Hospital Next To Mortuary,,Kisumu,,George Opidi ,723573420,kisumu@redcross.or.ke ,http://www.redcross.or.ke/,Kenya Red Cross Society,Kenya Red Cross Society,-0.090825,34.772627,KEN,Kenya,Kenya Red Cross Society,,,22-Mar-17,Yes,Yes
Nyando Branch Office,Nyando Branch Office,Administrative,1,Branch Office,Provincial,1,,"B1, Kisumu","B1, Kisumu",,Nyando,,,,kisumu@redcross.or.ke ,http://www.redcross.or.ke/,Kenya Red Cross Society,Kenya Red Cross Society,-0.165503,35.080032,KEN,Kenya,Kenya Red Cross Society,,,22-Mar-17,Yes,Yes
Trans Nzoia Branch Office,Trans Nzoia Branch Office,Administrative,1,Branch Office,Provincial,1,,"Kitale, Trans Nzoia","Kitale, Trans Nzoia",,Kitale,,Ruth Miningwo,722530639,transnzoia@redcross.or.ke,http://www.redcross.or.ke/,Kenya Red Cross Society,Kenya Red Cross Society,1.024903,34.999624,KEN,Kenya,Kenya Red Cross Society,,,22-Mar-17,Yes,Yes
Nyamira Branch Office,Nyamira Branch Office,Administrative,1,Branch Office,Provincial,1,,Next To The Governor'S Office Opposite Kcb Bank Nyamira,Next To The Governor'S Office Opposite Kcb Bank Nyamira,,Nyamira,,Esther Ocholla ,705725034,nyamira@redcross.or.ke ,http://www.redcross.or.ke/,Kenya Red Cross Society,Kenya Red Cross Society,-0.566677,34.935268,KEN,Kenya,Kenya Red Cross Society,,,22-Mar-17,Yes,Yes
Kisii Branch Office,Kisii Branch Office,Administrative,1,Branch Office,Provincial,1,,Hosted By Katc Premises Next To Kisii School On Your Way To Nairobi,Hosted By Katc Premises Next To Kisii School On Your Way To Nairobi,,Kisii,,Wycliffe Likhaya ,725781411,kisii@redcross.or.ke ,http://www.redcross.or.ke/,Kenya Red Cross Society,Kenya Red Cross Society,-0.781765,34.762931,KEN,Kenya,Kenya Red Cross Society,,,22-Mar-17,Yes,Yes
Kakamega Branch Office,Kakamega Branch Office,Administrative,1,Branch Office,Provincial,1,,Housed With County Govt Ministry Of Environment Kotecha Plaza 5Th Floor,Housed With County Govt Ministry Of Environment Kotecha Plaza 5Th Floor,,Kakamega,,Euphresia Musundi ,711927217,kakamega@redcross.or.ke ,http://www.redcross.or.ke/,Kenya Red Cross Society,Kenya Red Cross Society,0.276771,34.757341,KEN,Kenya,Kenya Red Cross Society,,,22-Mar-17,Yes,Yes
Vihiga Branch Office,Vihiga Branch Office,Administrative,1,Branch Office,Provincial,1,,At The County Comissioners Office 4Th Floor Room 422,At The County Comissioners Office 4Th Floor Room 422,,Mbale,,Edwin Lahalwa ,740702038,vihiga@redcross.or.ke ,http://www.redcross.or.ke/,Kenya Red Cross Society,Kenya Red Cross Society,0.088511,34.723066,KEN,Kenya,Kenya Red Cross Society,,,22-Mar-17,Yes,Yes
Bungoma Branch Office,Bungoma Branch Office,Administrative,1,Branch Office,Provincial,1,,Along Kanduyi-Malaba Road Opposite Bungoma Stadium,Along Kanduyi-Malaba Road Opposite Bungoma Stadium,,Bungoma,,Margaret Wanyonyi,721222703,bungoma@redcross.or.ke,http://www.redcross.or.ke/,Kenya Red Cross Society,Kenya Red Cross Society,0.570185,34.561443,KEN,Kenya,Kenya Red Cross Society,,,22-Mar-17,Yes,Yes
Migori Branch Office,Migori Branch Office,Administrative,1,Branch Office,Provincial,1,,Next To The Governor'S Residence Opposite Former Bat,Next To The Governor'S Residence Opposite Former Bat,,Migori,,Kevin Ondiek ,728990838,migori@redcross.or.ke ,http://www.redcross.or.ke/,Kenya Red Cross Society,Kenya Red Cross Society,-1.066342,34.46703,KEN,Kenya,Kenya Red Cross Society,,,22-Mar-17,Yes,Yes
Homabay Branch Office,Homabay Branch Office,Administrative,1,Branch Office,Provincial,1,,Kabunde Along Homabay Rongo Road 6Km From Homabay Town,Kabunde Along Homabay Rongo Road 6Km From Homabay Town,,Homabay,,Samwel Omondi ,702049149,homabay@redcross.or.ke ,http://www.redcross.or.ke/,Kenya Red Cross Society,Kenya Red Cross Society,-0.535275,34.451516,KEN,Kenya,Kenya Red Cross Society,,,22-Mar-17,Yes,Yes
Siaya Branch Office,Siaya Branch Office,Administrative,1,Branch Office,Provincial,1,,Along Hospital Road Behind The County Commisioners Office,Along Hospital Road Behind The County Commisioners Office,,Siaya,,James Akello ,720462268,siaya@redcross.or.ke ,http://www.redcross.or.ke/,Kenya Red Cross Society,Kenya Red Cross Society,0.058365,34.286957,KEN,Kenya,Kenya Red Cross Society,,,22-Mar-17,Yes,Yes
Busia Branch Office,Busia Branch Office,Administrative,1,Branch Office,Provincial,1,,"Busia- Mayenje Ward, Along Busia Mundika Road, Through Busia Referral Hospital Adjusent To Farmview Hotel.","Busia- Mayenje Ward, Along Busia Mundika Road, Through Busia Referral Hospital Adjusent To Farmview Hotel.",,Busia,,Partrick Lwango ,714309912,busia@redcross.or.ke ,http://www.redcross.or.ke/,Kenya Red Cross Society,Kenya Red Cross Society,0.444663,34.111347,KEN,Kenya,Kenya Red Cross Society,,,22-Mar-17,Yes,Yes
Tharaka Nithi Branch Office,Tharaka Nithi Branch Office,Administrative,1,Branch Office,Provincial,1,,"Chuka Town, Next To Huduma Centre","Chuka Town, Next To Huduma Centre",,Chuka Town,,Jerusha Nyagah,704509695,tharakanithi@redcross.or.ke,http://www.redcross.or.ke/,Kenya Red Cross Society,Kenya Red Cross Society,-0.332783601,37.64542725,KEN,Kenya,Kenya Red Cross Society,,,22-Mar-17,Yes,Yes
Makueni Branch Office,Makueni Branch Office,Administrative,1,Branch Office,Provincial,1,,Wote- Makindu Highway (Opposite The Office Of The Governor),Wote- Makindu Highway (Opposite The Office Of The Governor),,Wote,,Evans Peter,704058992,makueni@redcross.or.ke,http://www.redcross.or.ke/,Kenya Red Cross Society,Kenya Red Cross Society,-1.788103884,37.62257017,KEN,Kenya,Kenya Red Cross Society,,,22-Mar-17,Yes,Yes
Consejo Departamental Atlántida,,Administrative,1,Consejo Departamental,Provincial,1,,,,La Ceiba,,,,(504) 2237-1800,josejuan.castro@cruzroja.org.hn,http://www.cruzroja.org.hn/,Honduran Red Cross,Honduran Red Cross,15.77996012,-86.78997478,HND,Honduras,Honduran Red Cross,,2,7-Feb-24,Yes,Yes
Consejo Departamental Comayagua,,Administrative,1,Consejo Departamental,Provincial,1,,,,Comayagua,,,,(504) 2237-1801,josejuan.castro@cruzroja.org.hn,http://www.cruzroja.org.hn/,Honduran Red Cross,Honduran Red Cross,14.45852364,-87.64303807,HND,Honduras,Honduran Red Cross,,4,7-Feb-24,Yes,Yes
Consejo Departamental Copán,,Administrative,1,Consejo Departamental,Provincial,1,,,,Santa Rosa de Copán,,,,(504) 2237-1802,josejuan.castro@cruzroja.org.hn,http://www.cruzroja.org.hn/,Honduran Red Cross,Honduran Red Cross,14.76526929,-88.77745983,HND,Honduras,Honduran Red Cross,,7,7-Feb-24,Yes,Yes
Consejo Departamental Cortés,,Administrative,1,Consejo Departamental,Provincial,1,,,,San Pedro Sula,,,,(504) 2237-1803,josejuan.castro@cruzroja.org.hn,http://www.cruzroja.org.hn/,Honduran Red Cross,Honduran Red Cross,15.49492149,-88.0209261,HND,Honduras,Honduran Red Cross,,16,7-Feb-24,Yes,Yes
Consejo Departamental Valle,,Administrative,1,Consejo Departamental,Provincial,1,,,,Nacaome,,,,(504) 2237-1804,josejuan.castro@cruzroja.org.hn,http://www.cruzroja.org.hn/,Honduran Red Cross,Honduran Red Cross,13.52931611,-87.48812746,HND,Honduras,Honduran Red Cross,,18,7-Feb-24,Yes,Yes
Consejo Departamental Choluteca,,Administrative,1,Consejo Departamental,Provincial,1,,,,Choluteca,,,,(504) 2237-1805,josejuan.castro@cruzroja.org.hn,http://www.cruzroja.org.hn/,Honduran Red Cross,Honduran Red Cross,13.29451905,-87.19572636,HND,Honduras,Honduran Red Cross,,19,7-Feb-24,Yes,Yes
Consejo Departamental El Paraíso,,Administrative,1,Consejo Departamental,Provincial,1,,,,Yuscarán,,,,(504) 2237-1806,josejuan.castro@cruzroja.org.hn,http://www.cruzroja.org.hn/,Honduran Red Cross,Honduran Red Cross,13.94365552,-86.85253114,HND,Honduras,Honduran Red Cross,,24,7-Feb-24,Yes,Yes
Sede Central,,Administrative,1,Consejo Departamental,Provincial,1,,,,Distrito Central,,,,(504) 2237-1807,josejuan.castro@cruzroja.org.hn,http://www.cruzroja.org.hn/,Honduran Red Cross,Honduran Red Cross,14.10382755,-87.20420275,HND,Honduras,Honduran Red Cross,,25,7-Feb-24,Yes,Yes
Consejo Departamental Intibucá,,Administrative,1,Consejo Departamental,Provincial,1,,,,La Esperanza,,,,(504) 2237-1808,josejuan.castro@cruzroja.org.hn,http://www.cruzroja.org.hn/,Honduran Red Cross,Honduran Red Cross,14.30447366,-88.17866362,HND,Honduras,Honduran Red Cross,,27,7-Feb-24,Yes,Yes
Consejo Departamental Islas de la Bahía,,Administrative,1,Consejo Departamental,Provincial,1,,,,Roatán,,,,(504) 2237-1809,josejuan.castro@cruzroja.org.hn,http://www.cruzroja.org.hn/,Honduran Red Cross,Honduran Red Cross,16.3132996,-86.53783817,HND,Honduras,Honduran Red Cross,,29,7-Feb-24,Yes,Yes
Consejo Departamental Olancho,,Administrative,1,Consejo Departamental,Provincial,1,,,,Juticalpa,,,,(504) 2237-1810,josejuan.castro@cruzroja.org.hn,http://www.cruzroja.org.hn/,Honduran Red Cross,Honduran Red Cross,14.66883148,-86.21835544,HND,Honduras,Honduran Red Cross,,33,7-Feb-24,Yes,Yes
Consejo Departamental Santa Bárbara,,Administrative,1,Consejo Departamental,Provincial,1,,,,Santa Bárbara,,,,(504) 2237-1811,josejuan.castro@cruzroja.org.hn,http://www.cruzroja.org.hn/,Honduran Red Cross,Honduran Red Cross,14.91640071,-88.23540578,HND,Honduras,Honduran Red Cross,,35,7-Feb-24,Yes,Yes
Consejo Departamental Yoro,,Administrative,1,Consejo Departamental,Provincial,1,,,,Yoro,,,,(504) 2237-1812,josejuan.castro@cruzroja.org.hn,http://www.cruzroja.org.hn/,Honduran Red Cross,Honduran Red Cross,15.13685643,-87.12635071,HND,Honduras,Honduran Red Cross,,39,7-Feb-24,Yes,Yes
Consejo Departamental La Paz,,Administrative,1,Consejo Departamental,Provincial,1,,,,La Paz,,,,(504) 2237-1813,josejuan.castro@cruzroja.org.hn,http://www.cruzroja.org.hn/,Honduran Red Cross,Honduran Red Cross,14.3305169,-87.67133999,HND,Honduras,Honduran Red Cross,,45,7-Feb-24,Yes,Yes
Consejo Departamental Colón,,Administrative,1,Consejo Departamental,Provincial,1,,,,Trujillo,,,,(504) 2237-1814,josejuan.castro@cruzroja.org.hn,http://www.cruzroja.org.hn/,Honduran Red Cross,Honduran Red Cross,15.91431705,-85.9528541,HND,Honduras,Honduran Red Cross,,53,7-Feb-24,Yes,Yes
Consejo Departamental Ocotepeque,,Administrative,1,Consejo Departamental,Provincial,1,,,,Ocotepeque,,,,(504) 2237-1815,josejuan.castro@cruzroja.org.hn,http://www.cruzroja.org.hn/,Honduran Red Cross,Honduran Red Cross,14.43661522,-89.17842569,HND,Honduras,Honduran Red Cross,,54,7-Feb-24,Yes,Yes
Consejo Local Chamelecón,,Administrative,1,Consejo Local,Ward,3,,,,Chamelecón,,,,(504) 2237-1816,josejuan.castro@cruzroja.org.hn,http://www.cruzroja.org.hn/,Honduran Red Cross,Honduran Red Cross,15.43839638,-88.01567721,HND,Honduras,Honduran Red Cross,,51,7-Feb-24,Yes,Yes
Consejo Municipal Tela,,Administrative,1,Consejo Municipal,District,2,,,,Tela,,,,(504) 2237-1817,josejuan.castro@cruzroja.org.hn,http://www.cruzroja.org.hn/,Honduran Red Cross,Honduran Red Cross,15.77816356,-87.45732165,HND,Honduras,Honduran Red Cross,,1,7-Feb-24,Yes,Yes
Consejo Municipal Tocoa,,Administrative,1,Consejo Municipal,District,2,,,,Tocoa,,,,(504) 2237-1818,josejuan.castro@cruzroja.org.hn,http://www.cruzroja.org.hn/,Honduran Red Cross,Honduran Red Cross,15.65480164,-86.00723712,HND,Honduras,Honduran Red Cross,,3,7-Feb-24,Yes,Yes
Consejo Municipal Siguatepeque,,Administrative,1,Consejo Municipal,District,2,,,,Siguatepeque,,,,(504) 2237-1819,josejuan.castro@cruzroja.org.hn,http://www.cruzroja.org.hn/,Honduran Red Cross,Honduran Red Cross,14.6016199,-87.84000746,HND,Honduras,Honduran Red Cross,,5,7-Feb-24,Yes,Yes
Consejo Municipal Copán Ruinas,,Administrative,1,Consejo Municipal,District,2,,,,Copán Ruinas,,,,(504) 2237-1820,josejuan.castro@cruzroja.org.hn,http://www.cruzroja.org.hn/,Honduran Red Cross,Honduran Red Cross,14.83789441,-89.15596081,HND,Honduras,Honduran Red Cross,,6,7-Feb-24,Yes,Yes
Consejo Municipal San Manuel,,Administrative,1,Consejo Municipal,District,2,,,,San Manuel,,,,(504) 2237-1821,josejuan.castro@cruzroja.org.hn,http://www.cruzroja.org.hn/,Honduran Red Cross,Honduran Red Cross,15.32942962,-87.92102464,HND,Honduras,Honduran Red Cross,,8,7-Feb-24,Yes,Yes
Consejo Municipal Villanueva,,Administrative,1,Consejo Municipal,District,2,,,,Villanueva,,,,(504) 2237-1822,josejuan.castro@cruzroja.org.hn,http://www.cruzroja.org.hn/,Honduran Red Cross,Honduran Red Cross,15.31293563,-87.99370458,HND,Honduras,Honduran Red Cross,,9,7-Feb-24,Yes,Yes
Consejo Municipal Pimienta,,Administrative,1,Consejo Municipal,District,2,,,,Pimienta,,,,(504) 2237-1823,josejuan.castro@cruzroja.org.hn,http://www.cruzroja.org.hn/,Honduran Red Cross,Honduran Red Cross,15.27265597,-87.97327911,HND,Honduras,Honduran Red Cross,,10,7-Feb-24,Yes,Yes
Consejo Municipal Potrerillos,,Administrative,1,Consejo Municipal,District,2,,,,Potrerillos,,,,(504) 2237-1824,josejuan.castro@cruzroja.org.hn,http://www.cruzroja.org.hn/,Honduran Red Cross,Honduran Red Cross,15.22807143,-87.96401744,HND,Honduras,Honduran Red Cross,,11,7-Feb-24,Yes,Yes
Consejo Municipal El Progreso,,Administrative,1,Consejo Municipal,District,2,,,,El Progreso,,,,(504) 2237-1825,josejuan.castro@cruzroja.org.hn,http://www.cruzroja.org.hn/,Honduran Red Cross,Honduran Red Cross,15.40101331,-87.80791663,HND,Honduras,Honduran Red Cross,,12,7-Feb-24,Yes,Yes
Consejo Municipal La Lima,,Administrative,1,Consejo Municipal,District,2,,,,La Lima,,,,(504) 2237-1826,josejuan.castro@cruzroja.org.hn,http://www.cruzroja.org.hn/,Honduran Red Cross,Honduran Red Cross,15.43939685,-87.92889645,HND,Honduras,Honduran Red Cross,,13,7-Feb-24,Yes,Yes
Consejo Municipal Puerto Cortés,,Administrative,1,Consejo Municipal,District,2,,,,Puerto Cortés,,,,(504) 2237-1827,josejuan.castro@cruzroja.org.hn,http://www.cruzroja.org.hn/,Honduran Red Cross,Honduran Red Cross,15.84362864,-87.94355015,HND,Honduras,Honduran Red Cross,,14,7-Feb-24,Yes,Yes
Consejo Municipal Choloma,,Administrative,1,Consejo Municipal,District,2,,,,Choloma,,,,(504) 2237-1828,josejuan.castro@cruzroja.org.hn,http://www.cruzroja.org.hn/,Honduran Red Cross,Honduran Red Cross,15.61060235,-87.95176209,HND,Honduras,Honduran Red Cross,,15,7-Feb-24,Yes,Yes
Consejo Municipal Omoa,,Administrative,1,Consejo Municipal,District,2,,,,Omoa,,,,(504) 2237-1829,josejuan.castro@cruzroja.org.hn,http://www.cruzroja.org.hn/,Honduran Red Cross,Honduran Red Cross,15.77412914,-88.03832648,HND,Honduras,Honduran Red Cross,,17,7-Feb-24,Yes,Yes
Consejo Municipal San Lorenzo,,Administrative,1,Consejo Municipal,District,2,,,,San Lorenzo,,,,(504) 2237-1830,josejuan.castro@cruzroja.org.hn,http://www.cruzroja.org.hn/,Honduran Red Cross,Honduran Red Cross,13.42083138,-87.44976444,HND,Honduras,Honduran Red Cross,,20,7-Feb-24,Yes,Yes
Consejo Municipal El Paraíso,,Administrative,1,Consejo Municipal,District,2,,,,El Paraíso,,,,(504) 2237-1831,josejuan.castro@cruzroja.org.hn,http://www.cruzroja.org.hn/,Honduran Red Cross,Honduran Red Cross,13.85785626,-86.55222691,HND,Honduras,Honduran Red Cross,,21,7-Feb-24,Yes,Yes
Consejo Municipal Danlí,,Administrative,1,Consejo Municipal,District,2,,,,Danlí,,,,(504) 2237-1832,josejuan.castro@cruzroja.org.hn,http://www.cruzroja.org.hn/,Honduran Red Cross,Honduran Red Cross,14.0287461,-86.56723279,HND,Honduras,Honduran Red Cross,,22,7-Feb-24,Yes,Yes
Consejo Municipal Teupasenti,,Administrative,1,Consejo Municipal,District,2,,,,Teupasenti,,,,(504) 2237-1833,josejuan.castro@cruzroja.org.hn,http://www.cruzroja.org.hn/,Honduran Red Cross,Honduran Red Cross,14.22547355,-86.71613107,HND,Honduras,Honduran Red Cross,,23,7-Feb-24,Yes,Yes
Consejo Municipal Talanga,,Administrative,1,Consejo Municipal,District,2,,,,Talanga,,,,(504) 2237-1834,josejuan.castro@cruzroja.org.hn,http://www.cruzroja.org.hn/,Honduran Red Cross,Honduran Red Cross,14.39836425,-87.08200793,HND,Honduras,Honduran Red Cross,,26,7-Feb-24,Yes,Yes
Consejo Municipal Camasca,,Administrative,1,Consejo Municipal,District,2,,,,Camasca,,,,(504) 2237-1835,josejuan.castro@cruzroja.org.hn,http://www.cruzroja.org.hn/,Honduran Red Cross,Honduran Red Cross,13.9948361,-88.37983641,HND,Honduras,Honduran Red Cross,,28,7-Feb-24,Yes,Yes
Consejo Municipal Marcala,,Administrative,1,Consejo Municipal,District,2,,,,Marcala,,,,(504) 2237-1836,josejuan.castro@cruzroja.org.hn,http://www.cruzroja.org.hn/,Honduran Red Cross,Honduran Red Cross,14.1508907,-88.03841264,HND,Honduras,Honduran Red Cross,,30,7-Feb-24,Yes,Yes
Consejo Municipal Catacamas,,Administrative,1,Consejo Municipal,District,2,,,,Catacamas,,,,(504) 2237-1837,josejuan.castro@cruzroja.org.hn,http://www.cruzroja.org.hn/,Honduran Red Cross,Honduran Red Cross,14.85078431,-85.89860805,HND,Honduras,Honduran Red Cross,,31,7-Feb-24,Yes,Yes
Consejo Municipal San Francisco de La Paz,,Administrative,1,Consejo Municipal,District,2,,,,San Francisco de La Paz,,,,(504) 2237-1838,josejuan.castro@cruzroja.org.hn,http://www.cruzroja.org.hn/,Honduran Red Cross,Honduran Red Cross,14.87506819,-86.18317712,HND,Honduras,Honduran Red Cross,,32,7-Feb-24,Yes,Yes
Consejo Municipal Las Vegas,,Administrative,1,Consejo Municipal,District,2,,,,Las Vegas,,,,(504) 2237-1839,josejuan.castro@cruzroja.org.hn,http://www.cruzroja.org.hn/,Honduran Red Cross,Honduran Red Cross,14.87020977,-88.07191334,HND,Honduras,Honduran Red Cross,,34,7-Feb-24,Yes,Yes
Consejo Municipal Trinidad,,Administrative,1,Consejo Municipal,District,2,,,,Trinidad,,,,(504) 2237-1840,josejuan.castro@cruzroja.org.hn,http://www.cruzroja.org.hn/,Honduran Red Cross,Honduran Red Cross,15.1405014,-88.23324866,HND,Honduras,Honduran Red Cross,,36,7-Feb-24,Yes,Yes
Consejo Municipal San Luis,,Administrative,1,Consejo Municipal,District,2,,,,San Luis,,,,(504) 2237-1841,josejuan.castro@cruzroja.org.hn,http://www.cruzroja.org.hn/,Honduran Red Cross,Honduran Red Cross,15.12479752,-88.43967101,HND,Honduras,Honduran Red Cross,,37,7-Feb-24,Yes,Yes
Consejo Municipal Amapala,,Administrative,1,Consejo Municipal,District,2,,,,Amapala,,,,(504) 2237-1842,josejuan.castro@cruzroja.org.hn,http://www.cruzroja.org.hn/,Honduran Red Cross,Honduran Red Cross,13.29128293,-87.6536344,HND,Honduras,Honduran Red Cross,,38,7-Feb-24,Yes,Yes
Consejo Municipal Olanchito,,Administrative,1,Consejo Municipal,District,2,,,,Olanchito,,,,(504) 2237-1843,josejuan.castro@cruzroja.org.hn,http://www.cruzroja.org.hn/,Honduran Red Cross,Honduran Red Cross,15.48054709,-86.56915898,HND,Honduras,Honduran Red Cross,,40,7-Feb-24,Yes,Yes
Consejo Municipal Goascorán,,Administrative,1,Consejo Municipal,District,2,,,,Goascorán,,,,(504) 2237-1844,josejuan.castro@cruzroja.org.hn,http://www.cruzroja.org.hn/,Honduran Red Cross,Honduran Red Cross,13.61296298,-87.7518629,HND,Honduras,Honduran Red Cross,,41,7-Feb-24,Yes,Yes
Consejo Municipal Sonaguera,,Administrative,1,Consejo Municipal,District,2,,,,Sonaguera,,,,(504) 2237-1845,josejuan.castro@cruzroja.org.hn,http://www.cruzroja.org.hn/,Honduran Red Cross,Honduran Red Cross,15.61052623,-86.27745062,HND,Honduras,Honduran Red Cross,,42,7-Feb-24,Yes,Yes
Consejo Municipal Jutiapa,,Administrative,1,Consejo Municipal,District,2,,,,Jutiapa,,,,(504) 2237-1846,josejuan.castro@cruzroja.org.hn,http://www.cruzroja.org.hn/,Honduran Red Cross,Honduran Red Cross,15.73341149,-86.50447705,HND,Honduras,Honduran Red Cross,,43,7-Feb-24,Yes,Yes
Consejo Municipal Pespire,,Administrative,1,Consejo Municipal,District,2,,,,Pespire,,,,(504) 2237-1847,josejuan.castro@cruzroja.org.hn,http://www.cruzroja.org.hn/,Honduran Red Cross,Honduran Red Cross,13.59356312,-87.36325325,HND,Honduras,Honduran Red Cross,,44,7-Feb-24,Yes,Yes
Consejo Municipal Taulabe,,Administrative,1,Consejo Municipal,District,2,,,,Taulabe,,,,(504) 2237-1848,josejuan.castro@cruzroja.org.hn,http://www.cruzroja.org.hn/,Honduran Red Cross,Honduran Red Cross,14.69256334,-87.94850076,HND,Honduras,Honduran Red Cross,,46,7-Feb-24,Yes,Yes
Consejo Municipal Jesús de Otoro,,Administrative,1,Consejo Municipal,District,2,,,,Jesús de Otoro,,,,(504) 2237-1849,josejuan.castro@cruzroja.org.hn,http://www.cruzroja.org.hn/,Honduran Red Cross,Honduran Red Cross,14.48994801,-87.98960472,HND,Honduras,Honduran Red Cross,,47,7-Feb-24,Yes,Yes
Consejo Municipal Nueva Arcadia,,Administrative,1,Consejo Municipal,District,2,,,,Nueva Arcadia,,,,(504) 2237-1850,josejuan.castro@cruzroja.org.hn,http://www.cruzroja.org.hn/,Honduran Red Cross,Honduran Red Cross,15.03256407,-88.75549094,HND,Honduras,Honduran Red Cross,,48,7-Feb-24,Yes,Yes
Consejo Municipal Quimistán,,Administrative,1,Consejo Municipal,District,2,,,,Quimistán,,,,(504) 2237-1851,josejuan.castro@cruzroja.org.hn,http://www.cruzroja.org.hn/,Honduran Red Cross,Honduran Red Cross,15.34509791,-88.38281823,HND,Honduras,Honduran Red Cross,,49,7-Feb-24,Yes,Yes
Consejo Municipal San José de Colinas,,Administrative,1,Consejo Municipal,District,2,,,,San José de Colinas,,,,(504) 2237-1852,josejuan.castro@cruzroja.org.hn,http://www.cruzroja.org.hn/,Honduran Red Cross,Honduran Red Cross,15.04115626,-88.30211748,HND,Honduras,Honduran Red Cross,,50,7-Feb-24,Yes,Yes
Consejo Municipal Río Lindo,,Administrative,1,Consejo Municipal,District,2,,,,Río Lindo,,,,(504) 2237-1853,josejuan.castro@cruzroja.org.hn,http://www.cruzroja.org.hn/,Honduran Red Cross,Honduran Red Cross,15.05175996,-87.98740097,HND,Honduras,Honduran Red Cross,,52,7-Feb-24,Yes,Yes
